state,region,postal_code
Brandenburg,01,01945
Brandenburg,01,01968
Brandenburg,01,01979
Brandenburg,01,01983
Brandenburg,01,01987
Brandenburg,01,01990
Brandenburg,01,01993
Brandenburg,01,01994
Brandenburg,01,01996
Brandenburg,01,01998
Brandenburg,03,03042
Brandenburg,03,03044
Brandenburg,03,03046
Brandenburg,03,03048
Brandenburg,03,03050
Brandenburg,03,03051
Brandenburg,03,03052
Brandenburg,03,03053
Brandenburg,03,03054
Brandenburg,03,03055
Brandenburg,03,03058
Brandenburg,03,03096
Brandenburg,03,03099
Brandenburg,03,03103
Brandenburg,03,03116
Brandenburg,03,03119
Brandenburg,03,03130
Brandenburg,03,03139
Brandenburg,03,03149
Brandenburg,03,03159
Brandenburg,03,03172
Brandenburg,03,03185
Brandenburg,03,03197
Brandenburg,03,03202
Brandenburg,03,03205
Brandenburg,03,03222
Brandenburg,03,03226
Brandenburg,03,03229
Brandenburg,03,03238
Brandenburg,03,03246
Brandenburg,03,03249
Brandenburg,03,03253
Brandenburg,04,04895
Brandenburg,04,04910
Brandenburg,04,04916
Brandenburg,04,04924
Brandenburg,04,04928
Brandenburg,04,04931
Brandenburg,04,04932
Brandenburg,04,04934
Brandenburg,04,04936
Brandenburg,04,04938
Brandenburg,14,14461
Brandenburg,14,14467
Brandenburg,14,14469
Brandenburg,14,14471
Brandenburg,14,14473
Brandenburg,14,14476
Brandenburg,14,14478
Brandenburg,14,14480
Brandenburg,14,14482
Brandenburg,14,14513
Brandenburg,14,14532
Brandenburg,14,14542
Brandenburg,14,14547
Brandenburg,14,14548
Brandenburg,14,14550
Brandenburg,14,14552
Brandenburg,14,14554
Brandenburg,14,14557
Brandenburg,14,14558
Brandenburg,14,14612
Brandenburg,14,14621
Brandenburg,14,14624
Brandenburg,14,14627
Brandenburg,14,14641
Brandenburg,14,14656
Brandenburg,14,14662
Brandenburg,14,14669
Brandenburg,14,14712
Brandenburg,14,14715
Brandenburg,14,14727
Brandenburg,14,14728
Brandenburg,14,14770
Brandenburg,14,14772
Brandenburg,14,14774
Brandenburg,14,14776
Brandenburg,14,14778
Brandenburg,14,14789
Brandenburg,14,14793
Brandenburg,14,14797
Brandenburg,14,14798
Brandenburg,14,14806
Brandenburg,14,14822
Brandenburg,14,14823
Brandenburg,14,14827
Brandenburg,14,14828
Brandenburg,14,14913
Brandenburg,14,14929
Brandenburg,14,14943
Brandenburg,14,14947
Brandenburg,14,14959
Brandenburg,14,14974
Brandenburg,14,14979
Brandenburg,15,15230
Brandenburg,15,15232
Brandenburg,15,15234
Brandenburg,15,15236
Brandenburg,15,15295
Brandenburg,15,15299
Brandenburg,15,15306
Brandenburg,15,15320
Brandenburg,15,15324
Brandenburg,15,15326
Brandenburg,15,15328
Brandenburg,15,15344
Brandenburg,15,15345
Brandenburg,15,15366
Brandenburg,15,15370
Brandenburg,15,15372
Brandenburg,15,15374
Brandenburg,15,15377
Brandenburg,15,15378
Brandenburg,15,15517
Brandenburg,15,15518
Brandenburg,15,15526
Brandenburg,15,15528
Brandenburg,15,15537
Brandenburg,15,15562
Brandenburg,15,15566
Brandenburg,15,15569
Brandenburg,15,15711
Brandenburg,15,15712
Brandenburg,15,15713
Brandenburg,15,15732
Brandenburg,15,15738
Brandenburg,15,15741
Brandenburg,15,15745
Brandenburg,15,15746
Brandenburg,15,15748
Brandenburg,15,15749
Brandenburg,15,15752
Brandenburg,15,15754
Brandenburg,15,15755
Brandenburg,15,15757
Brandenburg,15,15806
Brandenburg,15,15827
Brandenburg,15,15831
Brandenburg,15,15834
Brandenburg,15,15837
Brandenburg,15,15838
Brandenburg,15,15848
Brandenburg,15,15859
Brandenburg,15,15864
Brandenburg,15,15868
Brandenburg,15,15890
Brandenburg,15,15898
Brandenburg,15,15907
Brandenburg,15,15910
Brandenburg,15,15913
Brandenburg,15,15926
Brandenburg,15,15936
Brandenburg,15,15938
Brandenburg,16,16225
Brandenburg,16,16227
Brandenburg,16,16230
Brandenburg,16,16244
Brandenburg,16,16247
Brandenburg,16,16248
Brandenburg,16,16259
Brandenburg,16,16269
Brandenburg,16,16278
Brandenburg,16,16303
Brandenburg,16,16306
Brandenburg,16,16307
Brandenburg,16,16321
Brandenburg,16,16341
Brandenburg,16,16348
Brandenburg,16,16352
Brandenburg,16,16356
Brandenburg,16,16359
Brandenburg,16,16515
Brandenburg,16,16540
Brandenburg,16,16547
Brandenburg,16,16548
Brandenburg,16,16552
Brandenburg,16,16556
Brandenburg,16,16559
Brandenburg,16,16562
Brandenburg,16,16565
Brandenburg,16,16567
Brandenburg,16,16727
Brandenburg,16,16761
Brandenburg,16,16766
Brandenburg,16,16767
Brandenburg,16,16775
Brandenburg,16,16792
Brandenburg,16,16798
Brandenburg,16,16816
Brandenburg,16,16818
Brandenburg,16,16827
Brandenburg,16,16831
Brandenburg,16,16833
Brandenburg,16,16835
Brandenburg,16,16837
Brandenburg,16,16845
Brandenburg,16,16866
Brandenburg,16,16868
Brandenburg,16,16909
Brandenburg,16,16918
Brandenburg,16,16921
Brandenburg,16,16928
Brandenburg,16,16945
Brandenburg,16,16949
Brandenburg,17,17268
Brandenburg,17,17279
Brandenburg,17,17291
Brandenburg,17,17326
Brandenburg,19,19309
Brandenburg,19,19322
Brandenburg,19,19336
Brandenburg,19,19339
Brandenburg,19,19348
Berlin,10,10115
Berlin,10,10117
Berlin,10,10119
Berlin,10,10178
Berlin,10,10179
Berlin,10,10243
Berlin,10,10245
Berlin,10,10247
Berlin,10,10249
Berlin,10,10315
Berlin,10,10317
Berlin,10,10318
Berlin,10,10319
Berlin,10,10365
Berlin,10,10367
Berlin,10,10369
Berlin,10,10405
Berlin,10,10407
Berlin,10,10409
Berlin,10,10435
Berlin,10,10437
Berlin,10,10439
Berlin,10,10551
Berlin,10,10553
Berlin,10,10555
Berlin,10,10557
Berlin,10,10559
Berlin,10,10585
Berlin,10,10587
Berlin,10,10589
Berlin,10,10623
Berlin,10,10625
Berlin,10,10627
Berlin,10,10629
Berlin,10,10707
Berlin,10,10709
Berlin,10,10711
Berlin,10,10713
Berlin,10,10715
Berlin,10,10717
Berlin,10,10719
Berlin,10,10777
Berlin,10,10779
Berlin,10,10781
Berlin,10,10783
Berlin,10,10785
Berlin,10,10787
Berlin,10,10789
Berlin,10,10823
Berlin,10,10825
Berlin,10,10827
Berlin,10,10829
Berlin,10,10961
Berlin,10,10963
Berlin,10,10965
Berlin,10,10967
Berlin,10,10969
Berlin,10,10997
Berlin,10,10999
Berlin,11,11011
Berlin,12,12043
Berlin,12,12045
Berlin,12,12047
Berlin,12,12049
Berlin,12,12051
Berlin,12,12053
Berlin,12,12055
Berlin,12,12057
Berlin,12,12059
Berlin,12,12099
Berlin,12,12101
Berlin,12,12103
Berlin,12,12105
Berlin,12,12107
Berlin,12,12109
Berlin,12,12157
Berlin,12,12159
Berlin,12,12161
Berlin,12,12163
Berlin,12,12165
Berlin,12,12167
Berlin,12,12169
Berlin,12,12203
Berlin,12,12205
Berlin,12,12207
Berlin,12,12209
Berlin,12,12247
Berlin,12,12249
Berlin,12,12277
Berlin,12,12279
Berlin,12,12305
Berlin,12,12307
Berlin,12,12309
Berlin,12,12347
Berlin,12,12349
Berlin,12,12351
Berlin,12,12353
Berlin,12,12355
Berlin,12,12357
Berlin,12,12359
Berlin,12,12435
Berlin,12,12437
Berlin,12,12439
Berlin,12,12459
Berlin,12,12487
Berlin,12,12489
Berlin,12,12524
Berlin,12,12526
Berlin,12,12527
Berlin,12,12529
Berlin,12,12555
Berlin,12,12557
Berlin,12,12559
Berlin,12,12587
Berlin,12,12589
Berlin,12,12619
Berlin,12,12621
Berlin,12,12623
Berlin,12,12627
Berlin,12,12629
Berlin,12,12679
Berlin,12,12681
Berlin,12,12683
Berlin,12,12685
Berlin,12,12687
Berlin,12,12689
Berlin,13,13047
Berlin,13,13051
Berlin,13,13053
Berlin,13,13055
Berlin,13,13057
Berlin,13,13059
Berlin,13,13086
Berlin,13,13088
Berlin,13,13089
Berlin,13,13125
Berlin,13,13127
Berlin,13,13129
Berlin,13,13156
Berlin,13,13158
Berlin,13,13159
Berlin,13,13187
Berlin,13,13189
Berlin,13,13347
Berlin,13,13349
Berlin,13,13351
Berlin,13,13353
Berlin,13,13355
Berlin,13,13357
Berlin,13,13359
Berlin,13,13403
Berlin,13,13405
Berlin,13,13407
Berlin,13,13409
Berlin,13,13435
Berlin,13,13437
Berlin,13,13439
Berlin,13,13465
Berlin,13,13467
Berlin,13,13469
Berlin,13,13503
Berlin,13,13505
Berlin,13,13507
Berlin,13,13509
Berlin,13,13581
Berlin,13,13583
Berlin,13,13585
Berlin,13,13587
Berlin,13,13589
Berlin,13,13591
Berlin,13,13593
Berlin,13,13595
Berlin,13,13597
Berlin,13,13599
Berlin,13,13627
Berlin,13,13629
Berlin,14,14050
Berlin,14,14052
Berlin,14,14053
Berlin,14,14055
Berlin,14,14057
Berlin,14,14059
Berlin,14,14089
Berlin,14,14109
Berlin,14,14129
Berlin,14,14131
Berlin,14,14163
Berlin,14,14165
Berlin,14,14167
Berlin,14,14169
Berlin,14,14193
Berlin,14,14195
Berlin,14,14197
Berlin,14,14199
Baden-Württemberg,70,70173
Baden-Württemberg,70,70174
Baden-Württemberg,70,70176
Baden-Württemberg,70,70178
Baden-Württemberg,70,70180
Baden-Württemberg,70,70182
Baden-Württemberg,70,70184
Baden-Württemberg,70,70186
Baden-Württemberg,70,70188
Baden-Württemberg,70,70190
Baden-Württemberg,70,70191
Baden-Württemberg,70,70192
Baden-Württemberg,70,70193
Baden-Württemberg,70,70195
Baden-Württemberg,70,70197
Baden-Württemberg,70,70199
Baden-Württemberg,70,70327
Baden-Württemberg,70,70329
Baden-Württemberg,70,70372
Baden-Württemberg,70,70374
Baden-Württemberg,70,70376
Baden-Württemberg,70,70378
Baden-Württemberg,70,70435
Baden-Württemberg,70,70437
Baden-Württemberg,70,70439
Baden-Württemberg,70,70469
Baden-Württemberg,70,70499
Baden-Württemberg,70,70563
Baden-Württemberg,70,70565
Baden-Württemberg,70,70567
Baden-Württemberg,70,70569
Baden-Württemberg,70,70597
Baden-Württemberg,70,70599
Baden-Württemberg,70,70619
Baden-Württemberg,70,70629
Baden-Württemberg,70,70734
Baden-Württemberg,70,70736
Baden-Württemberg,70,70771
Baden-Württemberg,70,70794
Baden-Württemberg,70,70806
Baden-Württemberg,70,70825
Baden-Württemberg,70,70839
Baden-Württemberg,71,71032
Baden-Württemberg,71,71034
Baden-Württemberg,71,71063
Baden-Württemberg,71,71065
Baden-Württemberg,71,71067
Baden-Württemberg,71,71069
Baden-Württemberg,71,71083
Baden-Württemberg,71,71088
Baden-Württemberg,71,71093
Baden-Württemberg,71,71101
Baden-Württemberg,71,71106
Baden-Württemberg,71,71111
Baden-Württemberg,71,71116
Baden-Württemberg,71,71120
Baden-Württemberg,71,71126
Baden-Württemberg,71,71131
Baden-Württemberg,71,71134
Baden-Württemberg,71,71139
Baden-Württemberg,71,71144
Baden-Württemberg,71,71149
Baden-Württemberg,71,71154
Baden-Württemberg,71,71155
Baden-Württemberg,71,71157
Baden-Württemberg,71,71159
Baden-Württemberg,71,71229
Baden-Württemberg,71,71254
Baden-Württemberg,71,71263
Baden-Württemberg,71,71272
Baden-Württemberg,71,71277
Baden-Württemberg,71,71282
Baden-Württemberg,71,71287
Baden-Württemberg,71,71332
Baden-Württemberg,71,71334
Baden-Württemberg,71,71336
Baden-Württemberg,71,71364
Baden-Württemberg,71,71384
Baden-Württemberg,71,71394
Baden-Württemberg,71,71397
Baden-Württemberg,71,71404
Baden-Württemberg,71,71409
Baden-Württemberg,71,71522
Baden-Württemberg,71,71540
Baden-Württemberg,71,71543
Baden-Württemberg,71,71546
Baden-Württemberg,71,71549
Baden-Württemberg,71,71554
Baden-Württemberg,71,71560
Baden-Württemberg,71,71563
Baden-Württemberg,71,71566
Baden-Württemberg,71,71570
Baden-Württemberg,71,71573
Baden-Württemberg,71,71576
Baden-Württemberg,71,71577
Baden-Württemberg,71,71579
Baden-Württemberg,71,71634
Baden-Württemberg,71,71636
Baden-Württemberg,71,71638
Baden-Württemberg,71,71640
Baden-Württemberg,71,71642
Baden-Württemberg,71,71665
Baden-Württemberg,71,71672
Baden-Württemberg,71,71679
Baden-Württemberg,71,71686
Baden-Württemberg,71,71691
Baden-Württemberg,71,71696
Baden-Württemberg,71,71701
Baden-Württemberg,71,71706
Baden-Württemberg,71,71711
Baden-Württemberg,71,71717
Baden-Württemberg,71,71718
Baden-Württemberg,71,71720
Baden-Württemberg,71,71723
Baden-Württemberg,71,71726
Baden-Württemberg,71,71729
Baden-Württemberg,71,71732
Baden-Württemberg,71,71735
Baden-Württemberg,71,71737
Baden-Württemberg,71,71739
Baden-Württemberg,72,72622
Baden-Württemberg,72,72631
Baden-Württemberg,72,72636
Baden-Württemberg,72,72639
Baden-Württemberg,72,72644
Baden-Württemberg,72,72649
Baden-Württemberg,72,72654
Baden-Württemberg,72,72655
Baden-Württemberg,72,72657
Baden-Württemberg,72,72658
Baden-Württemberg,72,72660
Baden-Württemberg,72,72663
Baden-Württemberg,72,72664
Baden-Württemberg,72,72666
Baden-Württemberg,72,72667
Baden-Württemberg,72,72669
Baden-Württemberg,73,73033
Baden-Württemberg,73,73035
Baden-Württemberg,73,73037
Baden-Württemberg,73,73054
Baden-Württemberg,73,73061
Baden-Württemberg,73,73066
Baden-Württemberg,73,73072
Baden-Württemberg,73,73079
Baden-Württemberg,73,73084
Baden-Württemberg,73,73087
Baden-Württemberg,73,73092
Baden-Württemberg,73,73095
Baden-Württemberg,73,73098
Baden-Württemberg,73,73099
Baden-Württemberg,73,73101
Baden-Württemberg,73,73102
Baden-Württemberg,73,73104
Baden-Württemberg,73,73105
Baden-Württemberg,73,73107
Baden-Württemberg,73,73108
Baden-Württemberg,73,73110
Baden-Württemberg,73,73111
Baden-Württemberg,73,73113
Baden-Württemberg,73,73114
Baden-Württemberg,73,73116
Baden-Württemberg,73,73117
Baden-Württemberg,73,73119
Baden-Württemberg,73,73207
Baden-Württemberg,73,73230
Baden-Württemberg,73,73235
Baden-Württemberg,73,73240
Baden-Württemberg,73,73249
Baden-Württemberg,73,73252
Baden-Württemberg,73,73257
Baden-Württemberg,73,73262
Baden-Württemberg,73,73265
Baden-Württemberg,73,73266
Baden-Württemberg,73,73268
Baden-Württemberg,73,73269
Baden-Württemberg,73,73271
Baden-Württemberg,73,73272
Baden-Württemberg,73,73274
Baden-Württemberg,73,73275
Baden-Württemberg,73,73277
Baden-Württemberg,73,73278
Baden-Württemberg,73,73312
Baden-Württemberg,73,73326
Baden-Württemberg,73,73329
Baden-Württemberg,73,73333
Baden-Württemberg,73,73337
Baden-Württemberg,73,73342
Baden-Württemberg,73,73344
Baden-Württemberg,73,73345
Baden-Württemberg,73,73347
Baden-Württemberg,73,73349
Baden-Württemberg,73,73430
Baden-Württemberg,73,73431
Baden-Württemberg,73,73432
Baden-Württemberg,73,73433
Baden-Württemberg,73,73434
Baden-Württemberg,73,73441
Baden-Württemberg,73,73447
Baden-Württemberg,73,73450
Baden-Württemberg,73,73453
Baden-Württemberg,73,73457
Baden-Württemberg,73,73460
Baden-Württemberg,73,73463
Baden-Württemberg,73,73466
Baden-Württemberg,73,73467
Baden-Württemberg,73,73469
Baden-Württemberg,73,73479
Baden-Württemberg,73,73485
Baden-Württemberg,73,73486
Baden-Württemberg,73,73488
Baden-Württemberg,73,73489
Baden-Württemberg,73,73491
Baden-Württemberg,73,73492
Baden-Württemberg,73,73494
Baden-Württemberg,73,73495
Baden-Württemberg,73,73497
Baden-Württemberg,73,73499
Baden-Württemberg,73,73525
Baden-Württemberg,73,73527
Baden-Württemberg,73,73529
Baden-Württemberg,73,73540
Baden-Württemberg,73,73547
Baden-Württemberg,73,73550
Baden-Württemberg,73,73553
Baden-Württemberg,73,73557
Baden-Württemberg,73,73560
Baden-Württemberg,73,73563
Baden-Württemberg,73,73565
Baden-Württemberg,73,73566
Baden-Württemberg,73,73568
Baden-Württemberg,73,73569
Baden-Württemberg,73,73571
Baden-Württemberg,73,73572
Baden-Württemberg,73,73574
Baden-Württemberg,73,73575
Baden-Württemberg,73,73577
Baden-Württemberg,73,73579
Baden-Württemberg,73,73614
Baden-Württemberg,73,73630
Baden-Württemberg,73,73635
Baden-Württemberg,73,73642
Baden-Württemberg,73,73650
Baden-Württemberg,73,73655
Baden-Württemberg,73,73660
Baden-Württemberg,73,73663
Baden-Württemberg,73,73666
Baden-Württemberg,73,73667
Baden-Württemberg,73,73669
Baden-Württemberg,73,73728
Baden-Württemberg,73,73730
Baden-Württemberg,73,73732
Baden-Württemberg,73,73733
Baden-Württemberg,73,73734
Baden-Württemberg,73,73760
Baden-Württemberg,73,73765
Baden-Württemberg,73,73770
Baden-Württemberg,73,73773
Baden-Württemberg,73,73776
Baden-Württemberg,73,73779
Baden-Württemberg,74,74072
Baden-Württemberg,74,74074
Baden-Württemberg,74,74076
Baden-Württemberg,74,74078
Baden-Württemberg,74,74080
Baden-Württemberg,74,74081
Baden-Württemberg,74,74172
Baden-Württemberg,74,74177
Baden-Württemberg,74,74182
Baden-Württemberg,74,74189
Baden-Württemberg,74,74193
Baden-Württemberg,74,74196
Baden-Württemberg,74,74199
Baden-Württemberg,74,74206
Baden-Württemberg,74,74211
Baden-Württemberg,74,74214
Baden-Württemberg,74,74219
Baden-Württemberg,74,74223
Baden-Württemberg,74,74226
Baden-Württemberg,74,74229
Baden-Württemberg,74,74232
Baden-Württemberg,74,74235
Baden-Württemberg,74,74238
Baden-Württemberg,74,74239
Baden-Württemberg,74,74243
Baden-Württemberg,74,74245
Baden-Württemberg,74,74246
Baden-Württemberg,74,74248
Baden-Württemberg,74,74249
Baden-Württemberg,74,74251
Baden-Württemberg,74,74252
Baden-Württemberg,74,74254
Baden-Württemberg,74,74255
Baden-Württemberg,74,74257
Baden-Württemberg,74,74259
Baden-Württemberg,74,74321
Baden-Württemberg,74,74336
Baden-Württemberg,74,74337
Baden-Württemberg,74,74343
Baden-Württemberg,74,74348
Baden-Württemberg,74,74354
Baden-Württemberg,74,74357
Baden-Württemberg,74,74360
Baden-Württemberg,74,74363
Baden-Württemberg,74,74366
Baden-Württemberg,74,74369
Baden-Württemberg,74,74372
Baden-Württemberg,74,74374
Baden-Württemberg,74,74376
Baden-Württemberg,74,74379
Baden-Württemberg,74,74382
Baden-Württemberg,74,74385
Baden-Württemberg,74,74388
Baden-Württemberg,74,74389
Baden-Württemberg,74,74391
Baden-Württemberg,74,74392
Baden-Württemberg,74,74394
Baden-Württemberg,74,74395
Baden-Württemberg,74,74397
Baden-Württemberg,74,74399
Baden-Württemberg,74,74405
Baden-Württemberg,74,74417
Baden-Württemberg,74,74420
Baden-Württemberg,74,74423
Baden-Württemberg,74,74424
Baden-Württemberg,74,74426
Baden-Württemberg,74,74427
Baden-Württemberg,74,74429
Baden-Württemberg,74,74523
Baden-Württemberg,74,74532
Baden-Württemberg,74,74535
Baden-Württemberg,74,74538
Baden-Württemberg,74,74541
Baden-Württemberg,74,74542
Baden-Württemberg,74,74544
Baden-Württemberg,74,74545
Baden-Württemberg,74,74547
Baden-Württemberg,74,74549
Baden-Württemberg,74,74564
Baden-Württemberg,74,74572
Baden-Württemberg,74,74575
Baden-Württemberg,74,74579
Baden-Württemberg,74,74582
Baden-Württemberg,74,74585
Baden-Württemberg,74,74586
Baden-Württemberg,74,74589
Baden-Württemberg,74,74592
Baden-Württemberg,74,74594
Baden-Württemberg,74,74595
Baden-Württemberg,74,74597
Baden-Württemberg,74,74599
Baden-Württemberg,74,74613
Baden-Württemberg,74,74626
Baden-Württemberg,74,74629
Baden-Württemberg,74,74632
Baden-Württemberg,74,74635
Baden-Württemberg,74,74638
Baden-Württemberg,74,74639
Baden-Württemberg,74,74653
Baden-Württemberg,74,74670
Baden-Württemberg,74,74673
Baden-Württemberg,74,74676
Baden-Württemberg,74,74677
Baden-Württemberg,74,74679
Baden-Württemberg,74,74744
Baden-Württemberg,74,74831
Baden-Württemberg,74,74832
Baden-Württemberg,74,74861
Baden-Württemberg,74,74906
Baden-Württemberg,74,74912
Baden-Württemberg,74,74930
Baden-Württemberg,74,74936
Baden-Württemberg,75,75031
Baden-Württemberg,75,75050
Baden-Württemberg,75,75392
Baden-Württemberg,89,89168
Baden-Württemberg,89,89518
Baden-Württemberg,89,89520
Baden-Württemberg,89,89522
Baden-Württemberg,89,89537
Baden-Württemberg,89,89542
Baden-Württemberg,89,89547
Baden-Württemberg,89,89551
Baden-Württemberg,89,89555
Baden-Württemberg,89,89558
Baden-Württemberg,89,89561
Baden-Württemberg,89,89564
Baden-Württemberg,89,89567
Baden-Württemberg,89,89568
Baden-Württemberg,97,97877
Baden-Württemberg,97,97896
Baden-Württemberg,97,97900
Baden-Württemberg,97,97922
Baden-Württemberg,97,97941
Baden-Württemberg,97,97944
Baden-Württemberg,97,97947
Baden-Württemberg,97,97950
Baden-Württemberg,97,97953
Baden-Württemberg,97,97956
Baden-Württemberg,97,97957
Baden-Württemberg,97,97959
Baden-Württemberg,97,97980
Baden-Württemberg,97,97990
Baden-Württemberg,97,97993
Baden-Württemberg,97,97996
Baden-Württemberg,97,97999
Baden-Württemberg,68,68159
Baden-Württemberg,68,68161
Baden-Württemberg,68,68163
Baden-Württemberg,68,68165
Baden-Württemberg,68,68167
Baden-Württemberg,68,68169
Baden-Württemberg,68,68199
Baden-Württemberg,68,68219
Baden-Württemberg,68,68229
Baden-Württemberg,68,68239
Baden-Württemberg,68,68259
Baden-Württemberg,68,68305
Baden-Württemberg,68,68307
Baden-Württemberg,68,68309
Baden-Württemberg,68,68526
Baden-Württemberg,68,68535
Baden-Württemberg,68,68542
Baden-Württemberg,68,68549
Baden-Württemberg,68,68723
Baden-Württemberg,68,68753
Baden-Württemberg,68,68766
Baden-Württemberg,68,68775
Baden-Württemberg,68,68782
Baden-Württemberg,68,68789
Baden-Württemberg,68,68794
Baden-Württemberg,68,68799
Baden-Württemberg,68,68804
Baden-Württemberg,68,68809
Baden-Württemberg,69,69115
Baden-Württemberg,69,69117
Baden-Württemberg,69,69118
Baden-Württemberg,69,69120
Baden-Württemberg,69,69121
Baden-Württemberg,69,69123
Baden-Württemberg,69,69124
Baden-Württemberg,69,69126
Baden-Württemberg,69,69151
Baden-Württemberg,69,69168
Baden-Württemberg,69,69181
Baden-Württemberg,69,69190
Baden-Württemberg,69,69198
Baden-Württemberg,69,69207
Baden-Württemberg,69,69214
Baden-Württemberg,69,69221
Baden-Württemberg,69,69226
Baden-Württemberg,69,69231
Baden-Württemberg,69,69234
Baden-Württemberg,69,69242
Baden-Württemberg,69,69245
Baden-Württemberg,69,69250
Baden-Württemberg,69,69251
Baden-Württemberg,69,69253
Baden-Württemberg,69,69254
Baden-Württemberg,69,69256
Baden-Württemberg,69,69257
Baden-Württemberg,69,69259
Baden-Württemberg,69,69412
Baden-Württemberg,69,69427
Baden-Württemberg,69,69429
Baden-Württemberg,69,69434
Baden-Württemberg,69,69436
Baden-Württemberg,69,69437
Baden-Württemberg,69,69439
Baden-Württemberg,69,69469
Baden-Württemberg,69,69493
Baden-Württemberg,69,69502
Baden-Württemberg,69,69514
Baden-Württemberg,71,71292
Baden-Württemberg,71,71296
Baden-Württemberg,71,71297
Baden-Württemberg,71,71299
Baden-Württemberg,72,72160
Baden-Württemberg,72,72178
Baden-Württemberg,72,72184
Baden-Württemberg,72,72186
Baden-Württemberg,72,72202
Baden-Württemberg,72,72213
Baden-Württemberg,72,72218
Baden-Württemberg,72,72221
Baden-Württemberg,72,72224
Baden-Württemberg,72,72226
Baden-Württemberg,72,72227
Baden-Württemberg,72,72229
Baden-Württemberg,72,72250
Baden-Württemberg,72,72270
Baden-Württemberg,72,72275
Baden-Württemberg,72,72280
Baden-Württemberg,72,72285
Baden-Württemberg,72,72290
Baden-Württemberg,72,72291
Baden-Württemberg,72,72293
Baden-Württemberg,72,72294
Baden-Württemberg,72,72296
Baden-Württemberg,72,72297
Baden-Württemberg,72,72299
Baden-Württemberg,74,74706
Baden-Württemberg,74,74722
Baden-Württemberg,74,74731
Baden-Württemberg,74,74736
Baden-Württemberg,74,74740
Baden-Württemberg,74,74743
Baden-Württemberg,74,74746
Baden-Württemberg,74,74747
Baden-Württemberg,74,74749
Baden-Württemberg,74,74821
Baden-Württemberg,74,74834
Baden-Württemberg,74,74838
Baden-Württemberg,74,74842
Baden-Württemberg,74,74847
Baden-Württemberg,74,74850
Baden-Württemberg,74,74855
Baden-Württemberg,74,74858
Baden-Württemberg,74,74862
Baden-Württemberg,74,74864
Baden-Württemberg,74,74865
Baden-Württemberg,74,74867
Baden-Württemberg,74,74869
Baden-Württemberg,74,74889
Baden-Württemberg,74,74909
Baden-Württemberg,74,74915
Baden-Württemberg,74,74918
Baden-Württemberg,74,74921
Baden-Württemberg,74,74924
Baden-Württemberg,74,74925
Baden-Württemberg,74,74927
Baden-Württemberg,74,74928
Baden-Württemberg,74,74931
Baden-Württemberg,74,74933
Baden-Württemberg,74,74934
Baden-Württemberg,74,74937
Baden-Württemberg,74,74939
Baden-Württemberg,75,75015
Baden-Württemberg,75,75038
Baden-Württemberg,75,75045
Baden-Württemberg,75,75053
Baden-Württemberg,75,75056
Baden-Württemberg,75,75057
Baden-Württemberg,75,75059
Baden-Württemberg,75,75172
Baden-Württemberg,75,75173
Baden-Württemberg,75,75175
Baden-Württemberg,75,75177
Baden-Württemberg,75,75179
Baden-Württemberg,75,75180
Baden-Württemberg,75,75181
Baden-Württemberg,75,75196
Baden-Württemberg,75,75203
Baden-Württemberg,75,75210
Baden-Württemberg,75,75217
Baden-Württemberg,75,75223
Baden-Württemberg,75,75228
Baden-Württemberg,75,75233
Baden-Württemberg,75,75236
Baden-Württemberg,75,75239
Baden-Württemberg,75,75242
Baden-Württemberg,75,75245
Baden-Württemberg,75,75248
Baden-Württemberg,75,75249
Baden-Württemberg,75,75305
Baden-Württemberg,75,75323
Baden-Württemberg,75,75328
Baden-Württemberg,75,75331
Baden-Württemberg,75,75334
Baden-Württemberg,75,75335
Baden-Württemberg,75,75337
Baden-Württemberg,75,75339
Baden-Württemberg,75,75365
Baden-Württemberg,75,75378
Baden-Württemberg,75,75382
Baden-Württemberg,75,75385
Baden-Württemberg,75,75387
Baden-Württemberg,75,75389
Baden-Württemberg,75,75391
Baden-Württemberg,75,75394
Baden-Württemberg,75,75395
Baden-Württemberg,75,75397
Baden-Württemberg,75,75399
Baden-Württemberg,75,75417
Baden-Württemberg,75,75428
Baden-Württemberg,75,75433
Baden-Württemberg,75,75438
Baden-Württemberg,75,75443
Baden-Württemberg,75,75446
Baden-Württemberg,75,75447
Baden-Württemberg,75,75449
Baden-Württemberg,76,76006
Baden-Württemberg,76,76131
Baden-Württemberg,76,76133
Baden-Württemberg,76,76135
Baden-Württemberg,76,76137
Baden-Württemberg,76,76139
Baden-Württemberg,76,76149
Baden-Württemberg,76,76185
Baden-Württemberg,76,76187
Baden-Württemberg,76,76189
Baden-Württemberg,76,76199
Baden-Württemberg,76,76227
Baden-Württemberg,76,76228
Baden-Württemberg,76,76229
Baden-Württemberg,76,76275
Baden-Württemberg,76,76287
Baden-Württemberg,76,76297
Baden-Württemberg,76,76307
Baden-Württemberg,76,76316
Baden-Württemberg,76,76327
Baden-Württemberg,76,76332
Baden-Württemberg,76,76337
Baden-Württemberg,76,76344
Baden-Württemberg,76,76351
Baden-Württemberg,76,76356
Baden-Württemberg,76,76359
Baden-Württemberg,76,76437
Baden-Württemberg,76,76448
Baden-Württemberg,76,76456
Baden-Württemberg,76,76461
Baden-Württemberg,76,76467
Baden-Württemberg,76,76470
Baden-Württemberg,76,76473
Baden-Württemberg,76,76474
Baden-Württemberg,76,76476
Baden-Württemberg,76,76477
Baden-Württemberg,76,76479
Baden-Württemberg,76,76530
Baden-Württemberg,76,76532
Baden-Württemberg,76,76534
Baden-Württemberg,76,76547
Baden-Württemberg,76,76549
Baden-Württemberg,76,76571
Baden-Württemberg,76,76593
Baden-Württemberg,76,76596
Baden-Württemberg,76,76597
Baden-Württemberg,76,76599
Baden-Württemberg,76,76646
Baden-Württemberg,76,76661
Baden-Württemberg,76,76669
Baden-Württemberg,76,76676
Baden-Württemberg,76,76684
Baden-Württemberg,76,76689
Baden-Württemberg,76,76694
Baden-Württemberg,76,76698
Baden-Württemberg,76,76703
Baden-Württemberg,76,76706
Baden-Württemberg,76,76707
Baden-Württemberg,76,76709
Baden-Württemberg,77,77776
Baden-Württemberg,77,77815
Baden-Württemberg,77,77830
Baden-Württemberg,77,77833
Baden-Württemberg,77,77836
Baden-Württemberg,77,77839
Baden-Württemberg,72,72172
Baden-Württemberg,72,72175
Baden-Württemberg,72,72189
Baden-Württemberg,77,77652
Baden-Württemberg,77,77654
Baden-Württemberg,77,77656
Baden-Württemberg,77,77694
Baden-Württemberg,77,77704
Baden-Württemberg,77,77709
Baden-Württemberg,77,77716
Baden-Württemberg,77,77723
Baden-Württemberg,77,77728
Baden-Württemberg,77,77731
Baden-Württemberg,77,77736
Baden-Württemberg,77,77740
Baden-Württemberg,77,77743
Baden-Württemberg,77,77746
Baden-Württemberg,77,77749
Baden-Württemberg,77,77756
Baden-Württemberg,77,77761
Baden-Württemberg,77,77767
Baden-Württemberg,77,77770
Baden-Württemberg,77,77773
Baden-Württemberg,77,77781
Baden-Württemberg,77,77784
Baden-Württemberg,77,77787
Baden-Württemberg,77,77790
Baden-Württemberg,77,77791
Baden-Württemberg,77,77793
Baden-Württemberg,77,77794
Baden-Württemberg,77,77796
Baden-Württemberg,77,77797
Baden-Württemberg,77,77799
Baden-Württemberg,77,77855
Baden-Württemberg,77,77866
Baden-Württemberg,77,77871
Baden-Württemberg,77,77876
Baden-Württemberg,77,77880
Baden-Württemberg,77,77883
Baden-Württemberg,77,77886
Baden-Württemberg,77,77887
Baden-Württemberg,77,77889
Baden-Württemberg,77,77933
Baden-Württemberg,77,77944
Baden-Württemberg,77,77948
Baden-Württemberg,77,77955
Baden-Württemberg,77,77960
Baden-Württemberg,77,77963
Baden-Württemberg,77,77966
Baden-Württemberg,77,77971
Baden-Württemberg,77,77972
Baden-Württemberg,77,77974
Baden-Württemberg,77,77975
Baden-Württemberg,77,77977
Baden-Württemberg,77,77978
Baden-Württemberg,78,78048
Baden-Württemberg,78,78050
Baden-Württemberg,78,78052
Baden-Württemberg,78,78054
Baden-Württemberg,78,78056
Baden-Württemberg,78,78073
Baden-Württemberg,78,78078
Baden-Württemberg,78,78083
Baden-Württemberg,78,78086
Baden-Württemberg,78,78087
Baden-Württemberg,78,78089
Baden-Württemberg,78,78098
Baden-Württemberg,78,78112
Baden-Württemberg,78,78120
Baden-Württemberg,78,78126
Baden-Württemberg,78,78132
Baden-Württemberg,78,78136
Baden-Württemberg,78,78141
Baden-Württemberg,78,78144
Baden-Württemberg,78,78147
Baden-Württemberg,78,78148
Baden-Württemberg,78,78166
Baden-Württemberg,78,78176
Baden-Württemberg,78,78183
Baden-Württemberg,78,78187
Baden-Württemberg,78,78194
Baden-Württemberg,78,78199
Baden-Württemberg,78,78224
Baden-Württemberg,78,78234
Baden-Württemberg,78,78239
Baden-Württemberg,78,78244
Baden-Württemberg,78,78247
Baden-Württemberg,78,78250
Baden-Württemberg,78,78253
Baden-Württemberg,78,78256
Baden-Württemberg,78,78259
Baden-Württemberg,78,78262
Baden-Württemberg,78,78266
Baden-Württemberg,78,78267
Baden-Württemberg,78,78269
Baden-Württemberg,78,78315
Baden-Württemberg,78,78333
Baden-Württemberg,78,78337
Baden-Württemberg,78,78343
Baden-Württemberg,78,78345
Baden-Württemberg,78,78351
Baden-Württemberg,78,78355
Baden-Württemberg,78,78357
Baden-Württemberg,78,78359
Baden-Württemberg,78,78462
Baden-Württemberg,78,78464
Baden-Württemberg,78,78465
Baden-Württemberg,78,78467
Baden-Württemberg,78,78476
Baden-Württemberg,78,78479
Baden-Württemberg,78,78532
Baden-Württemberg,78,78549
Baden-Württemberg,78,78554
Baden-Württemberg,78,78559
Baden-Württemberg,78,78564
Baden-Württemberg,78,78567
Baden-Württemberg,78,78570
Baden-Württemberg,78,78573
Baden-Württemberg,78,78576
Baden-Württemberg,78,78579
Baden-Württemberg,78,78580
Baden-Württemberg,78,78582
Baden-Württemberg,78,78583
Baden-Württemberg,78,78585
Baden-Württemberg,78,78586
Baden-Württemberg,78,78588
Baden-Württemberg,78,78589
Baden-Württemberg,78,78591
Baden-Württemberg,78,78592
Baden-Württemberg,78,78594
Baden-Württemberg,78,78595
Baden-Württemberg,78,78597
Baden-Württemberg,78,78598
Baden-Württemberg,78,78600
Baden-Württemberg,78,78601
Baden-Württemberg,78,78603
Baden-Württemberg,78,78604
Baden-Württemberg,78,78606
Baden-Württemberg,78,78607
Baden-Württemberg,78,78609
Baden-Württemberg,78,78628
Baden-Württemberg,78,78647
Baden-Württemberg,78,78652
Baden-Württemberg,78,78655
Baden-Württemberg,78,78658
Baden-Württemberg,78,78661
Baden-Württemberg,78,78662
Baden-Württemberg,78,78664
Baden-Württemberg,78,78665
Baden-Württemberg,78,78667
Baden-Württemberg,78,78669
Baden-Württemberg,78,78713
Baden-Württemberg,78,78727
Baden-Württemberg,78,78730
Baden-Württemberg,78,78733
Baden-Württemberg,78,78736
Baden-Württemberg,78,78737
Baden-Württemberg,78,78739
Baden-Württemberg,79,79098
Baden-Württemberg,79,79100
Baden-Württemberg,79,79102
Baden-Württemberg,79,79104
Baden-Württemberg,79,79106
Baden-Württemberg,79,79108
Baden-Württemberg,79,79110
Baden-Württemberg,79,79111
Baden-Württemberg,79,79112
Baden-Württemberg,79,79114
Baden-Württemberg,79,79115
Baden-Württemberg,79,79117
Baden-Württemberg,79,79183
Baden-Württemberg,79,79189
Baden-Württemberg,79,79194
Baden-Württemberg,79,79199
Baden-Württemberg,79,79206
Baden-Württemberg,79,79211
Baden-Württemberg,79,79215
Baden-Württemberg,79,79219
Baden-Württemberg,79,79224
Baden-Württemberg,79,79227
Baden-Württemberg,79,79232
Baden-Württemberg,79,79235
Baden-Württemberg,79,79238
Baden-Württemberg,79,79241
Baden-Württemberg,79,79244
Baden-Württemberg,79,79249
Baden-Württemberg,79,79252
Baden-Württemberg,79,79254
Baden-Württemberg,79,79256
Baden-Württemberg,79,79258
Baden-Württemberg,79,79261
Baden-Württemberg,79,79263
Baden-Württemberg,79,79268
Baden-Württemberg,79,79271
Baden-Württemberg,79,79274
Baden-Württemberg,79,79276
Baden-Württemberg,79,79279
Baden-Württemberg,79,79280
Baden-Württemberg,79,79282
Baden-Württemberg,79,79283
Baden-Württemberg,79,79285
Baden-Württemberg,79,79286
Baden-Württemberg,79,79288
Baden-Württemberg,79,79289
Baden-Württemberg,79,79291
Baden-Württemberg,79,79292
Baden-Württemberg,79,79294
Baden-Württemberg,79,79295
Baden-Württemberg,79,79297
Baden-Württemberg,79,79299
Baden-Württemberg,79,79312
Baden-Württemberg,79,79331
Baden-Württemberg,79,79336
Baden-Württemberg,79,79341
Baden-Württemberg,79,79346
Baden-Württemberg,79,79348
Baden-Württemberg,79,79350
Baden-Württemberg,79,79353
Baden-Württemberg,79,79356
Baden-Württemberg,79,79359
Baden-Württemberg,79,79361
Baden-Württemberg,79,79362
Baden-Württemberg,79,79364
Baden-Württemberg,79,79365
Baden-Württemberg,79,79367
Baden-Württemberg,79,79369
Baden-Württemberg,79,79379
Baden-Württemberg,79,79395
Baden-Württemberg,79,79400
Baden-Württemberg,79,79410
Baden-Württemberg,79,79415
Baden-Württemberg,79,79418
Baden-Württemberg,79,79423
Baden-Württemberg,79,79424
Baden-Württemberg,79,79426
Baden-Württemberg,79,79427
Baden-Württemberg,79,79429
Baden-Württemberg,79,79513
Baden-Württemberg,79,79539
Baden-Württemberg,79,79540
Baden-Württemberg,79,79541
Baden-Württemberg,79,79576
Baden-Württemberg,79,79578
Baden-Württemberg,79,79585
Baden-Württemberg,79,79588
Baden-Württemberg,79,79589
Baden-Württemberg,79,79591
Baden-Württemberg,79,79592
Baden-Württemberg,79,79594
Baden-Württemberg,79,79595
Baden-Württemberg,79,79597
Baden-Württemberg,79,79599
Baden-Württemberg,79,79618
Baden-Württemberg,79,79639
Baden-Württemberg,79,79650
Baden-Württemberg,79,79664
Baden-Württemberg,79,79669
Baden-Württemberg,79,79674
Baden-Württemberg,79,79677
Baden-Württemberg,79,79682
Baden-Württemberg,79,79683
Baden-Württemberg,79,79685
Baden-Württemberg,79,79686
Baden-Württemberg,79,79688
Baden-Württemberg,79,79689
Baden-Württemberg,79,79691
Baden-Württemberg,79,79692
Baden-Württemberg,79,79694
Baden-Württemberg,79,79695
Baden-Württemberg,79,79697
Baden-Württemberg,79,79699
Baden-Württemberg,79,79713
Baden-Württemberg,79,79725
Baden-Württemberg,79,79730
Baden-Württemberg,79,79733
Baden-Württemberg,79,79736
Baden-Württemberg,79,79737
Baden-Württemberg,79,79739
Baden-Württemberg,79,79761
Baden-Württemberg,79,79771
Baden-Württemberg,79,79774
Baden-Württemberg,79,79777
Baden-Württemberg,79,79780
Baden-Württemberg,79,79787
Baden-Württemberg,79,79790
Baden-Württemberg,79,79793
Baden-Württemberg,79,79798
Baden-Württemberg,79,79801
Baden-Württemberg,79,79802
Baden-Württemberg,79,79804
Baden-Württemberg,79,79805
Baden-Württemberg,79,79807
Baden-Württemberg,79,79809
Baden-Württemberg,79,79822
Baden-Württemberg,79,79837
Baden-Württemberg,79,79843
Baden-Württemberg,79,79848
Baden-Württemberg,79,79853
Baden-Württemberg,79,79856
Baden-Württemberg,79,79859
Baden-Württemberg,79,79862
Baden-Württemberg,79,79865
Baden-Württemberg,79,79868
Baden-Württemberg,79,79871
Baden-Württemberg,79,79872
Baden-Württemberg,79,79874
Baden-Württemberg,79,79875
Baden-Württemberg,79,79877
Baden-Württemberg,79,79879
Baden-Württemberg,88,88637
Baden-Württemberg,72,72070
Baden-Württemberg,72,72072
Baden-Württemberg,72,72074
Baden-Württemberg,72,72076
Baden-Württemberg,72,72108
Baden-Württemberg,72,72116
Baden-Württemberg,72,72119
Baden-Württemberg,72,72124
Baden-Württemberg,72,72127
Baden-Württemberg,72,72131
Baden-Württemberg,72,72135
Baden-Württemberg,72,72138
Baden-Württemberg,72,72141
Baden-Württemberg,72,72144
Baden-Württemberg,72,72145
Baden-Württemberg,72,72147
Baden-Württemberg,72,72149
Baden-Württemberg,72,72181
Baden-Württemberg,72,72336
Baden-Württemberg,72,72348
Baden-Württemberg,72,72351
Baden-Württemberg,72,72355
Baden-Württemberg,72,72356
Baden-Württemberg,72,72358
Baden-Württemberg,72,72359
Baden-Württemberg,72,72361
Baden-Württemberg,72,72362
Baden-Württemberg,72,72364
Baden-Württemberg,72,72365
Baden-Württemberg,72,72367
Baden-Württemberg,72,72369
Baden-Württemberg,72,72379
Baden-Württemberg,72,72393
Baden-Württemberg,72,72401
Baden-Württemberg,72,72406
Baden-Württemberg,72,72411
Baden-Württemberg,72,72414
Baden-Württemberg,72,72415
Baden-Württemberg,72,72417
Baden-Württemberg,72,72419
Baden-Württemberg,72,72458
Baden-Württemberg,72,72459
Baden-Württemberg,72,72461
Baden-Württemberg,72,72469
Baden-Württemberg,72,72474
Baden-Württemberg,72,72475
Baden-Württemberg,72,72477
Baden-Württemberg,72,72479
Baden-Württemberg,72,72488
Baden-Württemberg,72,72501
Baden-Württemberg,72,72505
Baden-Württemberg,72,72510
Baden-Württemberg,72,72511
Baden-Württemberg,72,72513
Baden-Württemberg,72,72514
Baden-Württemberg,72,72516
Baden-Württemberg,72,72517
Baden-Württemberg,72,72519
Baden-Württemberg,72,72525
Baden-Württemberg,72,72531
Baden-Württemberg,72,72532
Baden-Württemberg,72,72534
Baden-Württemberg,72,72535
Baden-Württemberg,72,72537
Baden-Württemberg,72,72539
Baden-Württemberg,72,72555
Baden-Württemberg,72,72574
Baden-Württemberg,72,72581
Baden-Württemberg,72,72582
Baden-Württemberg,72,72584
Baden-Württemberg,72,72585
Baden-Württemberg,72,72587
Baden-Württemberg,72,72589
Baden-Württemberg,72,72661
Baden-Württemberg,72,72760
Baden-Württemberg,72,72762
Baden-Württemberg,72,72764
Baden-Württemberg,72,72766
Baden-Württemberg,72,72768
Baden-Württemberg,72,72770
Baden-Württemberg,72,72793
Baden-Württemberg,72,72800
Baden-Württemberg,72,72805
Baden-Württemberg,72,72810
Baden-Württemberg,72,72813
Baden-Württemberg,72,72818
Baden-Württemberg,72,72820
Baden-Württemberg,72,72827
Baden-Württemberg,72,72829
Baden-Württemberg,73,73340
Baden-Württemberg,78,78354
Baden-Württemberg,88,88045
Baden-Württemberg,88,88046
Baden-Württemberg,88,88048
Baden-Württemberg,88,88069
Baden-Württemberg,88,88074
Baden-Württemberg,88,88079
Baden-Württemberg,88,88085
Baden-Württemberg,88,88086
Baden-Württemberg,88,88090
Baden-Württemberg,88,88094
Baden-Württemberg,88,88097
Baden-Württemberg,88,88099
Baden-Württemberg,88,88147
Baden-Württemberg,88,88212
Baden-Württemberg,88,88213
Baden-Württemberg,88,88214
Baden-Württemberg,88,88239
Baden-Württemberg,88,88250
Baden-Württemberg,88,88255
Baden-Württemberg,88,88260
Baden-Württemberg,88,88263
Baden-Württemberg,88,88267
Baden-Württemberg,88,88271
Baden-Württemberg,88,88273
Baden-Württemberg,88,88276
Baden-Württemberg,88,88279
Baden-Württemberg,88,88281
Baden-Württemberg,88,88284
Baden-Württemberg,88,88285
Baden-Württemberg,88,88287
Baden-Württemberg,88,88289
Baden-Württemberg,88,88299
Baden-Württemberg,88,88316
Baden-Württemberg,88,88317
Baden-Württemberg,88,88319
Baden-Württemberg,88,88326
Baden-Württemberg,88,88339
Baden-Württemberg,88,88348
Baden-Württemberg,88,88353
Baden-Württemberg,88,88356
Baden-Württemberg,88,88361
Baden-Württemberg,88,88364
Baden-Württemberg,88,88367
Baden-Württemberg,88,88368
Baden-Württemberg,88,88370
Baden-Württemberg,88,88371
Baden-Württemberg,88,88373
Baden-Württemberg,88,88374
Baden-Württemberg,88,88376
Baden-Württemberg,88,88377
Baden-Württemberg,88,88379
Baden-Württemberg,88,88400
Baden-Württemberg,88,88410
Baden-Württemberg,88,88416
Baden-Württemberg,88,88422
Baden-Württemberg,88,88427
Baden-Württemberg,88,88430
Baden-Württemberg,88,88433
Baden-Württemberg,88,88436
Baden-Württemberg,88,88437
Baden-Württemberg,88,88441
Baden-Württemberg,88,88444
Baden-Württemberg,88,88447
Baden-Württemberg,88,88448
Baden-Württemberg,88,88450
Baden-Württemberg,88,88451
Baden-Württemberg,88,88453
Baden-Württemberg,88,88454
Baden-Württemberg,88,88456
Baden-Württemberg,88,88457
Baden-Württemberg,88,88459
Baden-Württemberg,88,88471
Baden-Württemberg,88,88477
Baden-Württemberg,88,88480
Baden-Württemberg,88,88481
Baden-Württemberg,88,88483
Baden-Württemberg,88,88484
Baden-Württemberg,88,88486
Baden-Württemberg,88,88487
Baden-Württemberg,88,88489
Baden-Württemberg,88,88499
Baden-Württemberg,88,88512
Baden-Württemberg,88,88515
Baden-Württemberg,88,88518
Baden-Württemberg,88,88521
Baden-Württemberg,88,88524
Baden-Württemberg,88,88525
Baden-Württemberg,88,88527
Baden-Württemberg,88,88529
Baden-Württemberg,88,88605
Baden-Württemberg,88,88630
Baden-Württemberg,88,88631
Baden-Württemberg,88,88633
Baden-Württemberg,88,88634
Baden-Württemberg,88,88636
Baden-Württemberg,88,88639
Baden-Württemberg,88,88662
Baden-Württemberg,88,88677
Baden-Württemberg,88,88682
Baden-Württemberg,88,88690
Baden-Württemberg,88,88693
Baden-Württemberg,88,88696
Baden-Württemberg,88,88697
Baden-Württemberg,88,88699
Baden-Württemberg,88,88709
Baden-Württemberg,88,88718
Baden-Württemberg,88,88719
Baden-Württemberg,89,89040
Baden-Württemberg,89,89073
Baden-Württemberg,89,89075
Baden-Württemberg,89,89077
Baden-Württemberg,89,89079
Baden-Württemberg,89,89081
Baden-Württemberg,89,89129
Baden-Württemberg,89,89134
Baden-Württemberg,89,89143
Baden-Württemberg,89,89150
Baden-Württemberg,89,89155
Baden-Württemberg,89,89160
Baden-Württemberg,89,89165
Baden-Württemberg,89,89171
Baden-Württemberg,89,89173
Baden-Württemberg,89,89174
Baden-Württemberg,89,89176
Baden-Württemberg,89,89177
Baden-Württemberg,89,89179
Baden-Württemberg,89,89180
Baden-Württemberg,89,89182
Baden-Württemberg,89,89183
Baden-Württemberg,89,89185
Baden-Württemberg,89,89186
Baden-Württemberg,89,89188
Baden-Württemberg,89,89189
Baden-Württemberg,89,89191
Baden-Württemberg,89,89192
Baden-Württemberg,89,89194
Baden-Württemberg,89,89195
Baden-Württemberg,89,89197
Baden-Württemberg,89,89198
Baden-Württemberg,89,89584
Baden-Württemberg,89,89597
Baden-Württemberg,89,89601
Baden-Württemberg,89,89604
Baden-Württemberg,89,89605
Baden-Württemberg,89,89607
Baden-Württemberg,89,89608
Baden-Württemberg,89,89610
Baden-Württemberg,89,89611
Baden-Württemberg,89,89613
Baden-Württemberg,89,89614
Baden-Württemberg,89,89616
Baden-Württemberg,89,89617
Baden-Württemberg,89,89619
Bayern,80,80331
Bayern,80,80333
Bayern,80,80335
Bayern,80,80336
Bayern,80,80337
Bayern,80,80339
Bayern,80,80469
Bayern,80,80538
Bayern,80,80539
Bayern,80,80634
Bayern,80,80636
Bayern,80,80637
Bayern,80,80638
Bayern,80,80639
Bayern,80,80686
Bayern,80,80687
Bayern,80,80689
Bayern,80,80796
Bayern,80,80797
Bayern,80,80798
Bayern,80,80799
Bayern,80,80801
Bayern,80,80802
Bayern,80,80803
Bayern,80,80804
Bayern,80,80805
Bayern,80,80807
Bayern,80,80809
Bayern,80,80933
Bayern,80,80935
Bayern,80,80937
Bayern,80,80939
Bayern,80,80992
Bayern,80,80993
Bayern,80,80995
Bayern,80,80997
Bayern,80,80999
Bayern,81,81241
Bayern,81,81243
Bayern,81,81245
Bayern,81,81247
Bayern,81,81249
Bayern,81,81369
Bayern,81,81371
Bayern,81,81373
Bayern,81,81375
Bayern,81,81377
Bayern,81,81379
Bayern,81,81475
Bayern,81,81476
Bayern,81,81477
Bayern,81,81479
Bayern,81,81539
Bayern,81,81541
Bayern,81,81543
Bayern,81,81545
Bayern,81,81547
Bayern,81,81549
Bayern,81,81667
Bayern,81,81669
Bayern,81,81671
Bayern,81,81673
Bayern,81,81675
Bayern,81,81677
Bayern,81,81679
Bayern,81,81735
Bayern,81,81737
Bayern,81,81739
Bayern,81,81825
Bayern,81,81827
Bayern,81,81829
Bayern,81,81925
Bayern,81,81927
Bayern,81,81929
Bayern,82,82008
Bayern,82,82024
Bayern,82,82031
Bayern,82,82032
Bayern,82,82041
Bayern,82,82049
Bayern,82,82054
Bayern,82,82057
Bayern,82,82061
Bayern,82,82064
Bayern,82,82065
Bayern,82,82067
Bayern,82,82069
Bayern,82,82110
Bayern,82,82131
Bayern,82,82140
Bayern,82,82152
Bayern,82,82166
Bayern,82,82178
Bayern,82,82194
Bayern,82,82205
Bayern,82,82211
Bayern,82,82216
Bayern,82,82223
Bayern,82,82229
Bayern,82,82234
Bayern,82,82237
Bayern,82,82239
Bayern,82,82256
Bayern,82,82266
Bayern,82,82269
Bayern,82,82272
Bayern,82,82275
Bayern,82,82276
Bayern,82,82278
Bayern,82,82279
Bayern,82,82281
Bayern,82,82282
Bayern,82,82284
Bayern,82,82285
Bayern,82,82287
Bayern,82,82288
Bayern,82,82290
Bayern,82,82291
Bayern,82,82293
Bayern,82,82294
Bayern,82,82296
Bayern,82,82299
Bayern,82,82319
Bayern,82,82327
Bayern,82,82335
Bayern,82,82340
Bayern,82,82343
Bayern,82,82346
Bayern,82,82347
Bayern,82,82349
Bayern,82,82362
Bayern,82,82377
Bayern,82,82380
Bayern,82,82383
Bayern,82,82386
Bayern,82,82387
Bayern,82,82389
Bayern,82,82390
Bayern,82,82392
Bayern,82,82393
Bayern,82,82395
Bayern,82,82396
Bayern,82,82398
Bayern,82,82399
Bayern,82,82401
Bayern,82,82402
Bayern,82,82404
Bayern,82,82405
Bayern,82,82407
Bayern,82,82409
Bayern,82,82418
Bayern,82,82431
Bayern,82,82432
Bayern,82,82433
Bayern,82,82435
Bayern,82,82436
Bayern,82,82438
Bayern,82,82439
Bayern,82,82441
Bayern,82,82442
Bayern,82,82444
Bayern,82,82445
Bayern,82,82447
Bayern,82,82449
Bayern,82,82467
Bayern,82,82481
Bayern,82,82487
Bayern,82,82488
Bayern,82,82490
Bayern,82,82491
Bayern,82,82493
Bayern,82,82494
Bayern,82,82496
Bayern,82,82497
Bayern,82,82499
Bayern,82,82515
Bayern,82,82538
Bayern,82,82541
Bayern,82,82544
Bayern,82,82547
Bayern,82,82549
Bayern,83,83022
Bayern,83,83024
Bayern,83,83026
Bayern,83,83043
Bayern,83,83052
Bayern,83,83059
Bayern,83,83064
Bayern,83,83071
Bayern,83,83075
Bayern,83,83080
Bayern,83,83083
Bayern,83,83088
Bayern,83,83093
Bayern,83,83098
Bayern,83,83101
Bayern,83,83104
Bayern,83,83109
Bayern,83,83112
Bayern,83,83115
Bayern,83,83119
Bayern,83,83122
Bayern,83,83123
Bayern,83,83125
Bayern,83,83126
Bayern,83,83128
Bayern,83,83129
Bayern,83,83131
Bayern,83,83132
Bayern,83,83134
Bayern,83,83135
Bayern,83,83137
Bayern,83,83139
Bayern,83,83209
Bayern,83,83224
Bayern,83,83229
Bayern,83,83233
Bayern,83,83236
Bayern,83,83242
Bayern,83,83246
Bayern,83,83250
Bayern,83,83253
Bayern,83,83254
Bayern,83,83256
Bayern,83,83257
Bayern,83,83259
Bayern,83,83278
Bayern,83,83301
Bayern,83,83308
Bayern,83,83313
Bayern,83,83317
Bayern,83,83324
Bayern,83,83329
Bayern,83,83334
Bayern,83,83339
Bayern,83,83342
Bayern,83,83344
Bayern,83,83346
Bayern,83,83349
Bayern,83,83352
Bayern,83,83355
Bayern,83,83358
Bayern,83,83359
Bayern,83,83361
Bayern,83,83362
Bayern,83,83364
Bayern,83,83365
Bayern,83,83367
Bayern,83,83368
Bayern,83,83370
Bayern,83,83371
Bayern,83,83373
Bayern,83,83374
Bayern,83,83376
Bayern,83,83377
Bayern,83,83379
Bayern,83,83395
Bayern,83,83404
Bayern,83,83410
Bayern,83,83413
Bayern,83,83416
Bayern,83,83417
Bayern,83,83435
Bayern,83,83451
Bayern,83,83454
Bayern,83,83457
Bayern,83,83458
Bayern,83,83471
Bayern,83,83483
Bayern,83,83486
Bayern,83,83487
Bayern,83,83489
Bayern,83,83512
Bayern,83,83527
Bayern,83,83530
Bayern,83,83533
Bayern,83,83536
Bayern,83,83539
Bayern,83,83543
Bayern,83,83544
Bayern,83,83546
Bayern,83,83547
Bayern,83,83549
Bayern,83,83550
Bayern,83,83552
Bayern,83,83553
Bayern,83,83555
Bayern,83,83556
Bayern,83,83558
Bayern,83,83559
Bayern,83,83561
Bayern,83,83562
Bayern,83,83564
Bayern,83,83565
Bayern,83,83567
Bayern,83,83569
Bayern,83,83607
Bayern,83,83620
Bayern,83,83623
Bayern,83,83624
Bayern,83,83626
Bayern,83,83627
Bayern,83,83629
Bayern,83,83646
Bayern,83,83661
Bayern,83,83666
Bayern,83,83670
Bayern,83,83671
Bayern,83,83673
Bayern,83,83674
Bayern,83,83676
Bayern,83,83677
Bayern,83,83679
Bayern,83,83684
Bayern,83,83700
Bayern,83,83703
Bayern,83,83707
Bayern,83,83708
Bayern,83,83714
Bayern,83,83727
Bayern,83,83730
Bayern,83,83734
Bayern,83,83735
Bayern,83,83737
Bayern,83,83739
Bayern,84,84072
Bayern,84,84104
Bayern,84,84405
Bayern,84,84416
Bayern,84,84419
Bayern,84,84424
Bayern,84,84427
Bayern,84,84428
Bayern,84,84431
Bayern,84,84432
Bayern,84,84434
Bayern,84,84435
Bayern,84,84437
Bayern,84,84439
Bayern,84,84453
Bayern,84,84478
Bayern,84,84489
Bayern,84,84494
Bayern,84,84503
Bayern,84,84508
Bayern,84,84513
Bayern,84,84518
Bayern,84,84524
Bayern,84,84529
Bayern,84,84533
Bayern,84,84539
Bayern,84,84543
Bayern,84,84544
Bayern,84,84546
Bayern,84,84547
Bayern,84,84549
Bayern,84,84550
Bayern,84,84553
Bayern,84,84555
Bayern,84,84556
Bayern,84,84558
Bayern,84,84559
Bayern,84,84561
Bayern,84,84562
Bayern,84,84564
Bayern,84,84565
Bayern,84,84567
Bayern,84,84568
Bayern,84,84570
Bayern,84,84571
Bayern,84,84573
Bayern,84,84574
Bayern,84,84576
Bayern,84,84577
Bayern,84,84579
Bayern,85,85049
Bayern,85,85051
Bayern,85,85053
Bayern,85,85055
Bayern,85,85057
Bayern,85,85072
Bayern,85,85077
Bayern,85,85080
Bayern,85,85084
Bayern,85,85088
Bayern,85,85092
Bayern,85,85095
Bayern,85,85098
Bayern,85,85101
Bayern,85,85104
Bayern,85,85107
Bayern,85,85110
Bayern,85,85111
Bayern,85,85113
Bayern,85,85114
Bayern,85,85116
Bayern,85,85117
Bayern,85,85119
Bayern,85,85120
Bayern,85,85122
Bayern,85,85123
Bayern,85,85125
Bayern,85,85126
Bayern,85,85128
Bayern,85,85129
Bayern,85,85131
Bayern,85,85132
Bayern,85,85134
Bayern,85,85135
Bayern,85,85137
Bayern,85,85139
Bayern,85,85221
Bayern,85,85229
Bayern,85,85232
Bayern,85,85235
Bayern,85,85238
Bayern,85,85241
Bayern,85,85244
Bayern,85,85247
Bayern,85,85250
Bayern,85,85253
Bayern,85,85254
Bayern,85,85256
Bayern,85,85258
Bayern,85,85259
Bayern,85,85276
Bayern,85,85283
Bayern,85,85290
Bayern,85,85293
Bayern,85,85296
Bayern,85,85298
Bayern,85,85301
Bayern,85,85302
Bayern,85,85304
Bayern,85,85305
Bayern,85,85307
Bayern,85,85309
Bayern,85,85354
Bayern,85,85356
Bayern,85,85368
Bayern,85,85375
Bayern,85,85376
Bayern,85,85386
Bayern,85,85391
Bayern,85,85395
Bayern,85,85399
Bayern,85,85402
Bayern,85,85405
Bayern,85,85406
Bayern,85,85408
Bayern,85,85410
Bayern,85,85411
Bayern,85,85413
Bayern,85,85414
Bayern,85,85416
Bayern,85,85417
Bayern,85,85419
Bayern,85,85435
Bayern,85,85445
Bayern,85,85447
Bayern,85,85452
Bayern,85,85456
Bayern,85,85457
Bayern,85,85459
Bayern,85,85461
Bayern,85,85462
Bayern,85,85464
Bayern,85,85465
Bayern,85,85467
Bayern,85,85469
Bayern,85,85521
Bayern,85,85540
Bayern,85,85551
Bayern,85,85560
Bayern,85,85567
Bayern,85,85570
Bayern,85,85579
Bayern,85,85586
Bayern,85,85591
Bayern,85,85598
Bayern,85,85599
Bayern,85,85604
Bayern,85,85609
Bayern,85,85614
Bayern,85,85617
Bayern,85,85622
Bayern,85,85625
Bayern,85,85630
Bayern,85,85635
Bayern,85,85640
Bayern,85,85643
Bayern,85,85646
Bayern,85,85649
Bayern,85,85652
Bayern,85,85653
Bayern,85,85655
Bayern,85,85656
Bayern,85,85658
Bayern,85,85659
Bayern,85,85661
Bayern,85,85662
Bayern,85,85664
Bayern,85,85665
Bayern,85,85667
Bayern,85,85669
Bayern,85,85716
Bayern,85,85737
Bayern,85,85748
Bayern,85,85757
Bayern,85,85764
Bayern,85,85774
Bayern,85,85777
Bayern,85,85778
Bayern,86,86492
Bayern,86,86529
Bayern,86,86558
Bayern,86,86561
Bayern,86,86562
Bayern,86,86564
Bayern,86,86565
Bayern,86,86567
Bayern,86,86571
Bayern,86,86579
Bayern,86,86633
Bayern,86,86643
Bayern,86,86666
Bayern,86,86668
Bayern,86,86669
Bayern,86,86673
Bayern,86,86676
Bayern,86,86697
Bayern,86,86701
Bayern,86,86706
Bayern,86,86836
Bayern,86,86857
Bayern,86,86859
Bayern,86,86899
Bayern,86,86911
Bayern,86,86916
Bayern,86,86919
Bayern,86,86920
Bayern,86,86922
Bayern,86,86923
Bayern,86,86925
Bayern,86,86926
Bayern,86,86928
Bayern,86,86929
Bayern,86,86931
Bayern,86,86932
Bayern,86,86934
Bayern,86,86935
Bayern,86,86937
Bayern,86,86938
Bayern,86,86940
Bayern,86,86941
Bayern,86,86943
Bayern,86,86944
Bayern,86,86946
Bayern,86,86947
Bayern,86,86949
Bayern,86,86956
Bayern,86,86971
Bayern,86,86972
Bayern,86,86974
Bayern,86,86975
Bayern,86,86977
Bayern,86,86978
Bayern,86,86980
Bayern,86,86981
Bayern,86,86984
Bayern,86,86986
Bayern,86,86987
Bayern,86,86989
Bayern,91,91795
Bayern,91,91804
Bayern,91,91809
Bayern,92,92339
Bayern,93,93336
Bayern,93,93349
Bayern,84,84028
Bayern,84,84030
Bayern,84,84032
Bayern,84,84034
Bayern,84,84036
Bayern,84,84048
Bayern,84,84051
Bayern,84,84056
Bayern,84,84061
Bayern,84,84066
Bayern,84,84076
Bayern,84,84079
Bayern,84,84082
Bayern,84,84085
Bayern,84,84088
Bayern,84,84089
Bayern,84,84091
Bayern,84,84092
Bayern,84,84094
Bayern,84,84095
Bayern,84,84097
Bayern,84,84098
Bayern,84,84100
Bayern,84,84101
Bayern,84,84103
Bayern,84,84106
Bayern,84,84107
Bayern,84,84109
Bayern,84,84130
Bayern,84,84137
Bayern,84,84140
Bayern,84,84144
Bayern,84,84149
Bayern,84,84152
Bayern,84,84155
Bayern,84,84160
Bayern,84,84163
Bayern,84,84164
Bayern,84,84166
Bayern,84,84168
Bayern,84,84169
Bayern,84,84171
Bayern,84,84172
Bayern,84,84174
Bayern,84,84175
Bayern,84,84177
Bayern,84,84178
Bayern,84,84180
Bayern,84,84181
Bayern,84,84183
Bayern,84,84184
Bayern,84,84186
Bayern,84,84187
Bayern,84,84189
Bayern,84,84307
Bayern,84,84323
Bayern,84,84326
Bayern,84,84329
Bayern,84,84332
Bayern,84,84333
Bayern,84,84335
Bayern,84,84337
Bayern,84,84339
Bayern,84,84347
Bayern,84,84359
Bayern,84,84364
Bayern,84,84367
Bayern,84,84371
Bayern,84,84375
Bayern,84,84378
Bayern,84,84381
Bayern,84,84384
Bayern,84,84385
Bayern,84,84387
Bayern,84,84389
Bayern,84,84552
Bayern,93,93077
Bayern,93,93309
Bayern,93,93326
Bayern,93,93333
Bayern,93,93339
Bayern,93,93342
Bayern,93,93343
Bayern,93,93345
Bayern,93,93346
Bayern,93,93348
Bayern,93,93351
Bayern,93,93352
Bayern,93,93354
Bayern,93,93356
Bayern,93,93358
Bayern,93,93359
Bayern,93,93471
Bayern,94,94032
Bayern,94,94034
Bayern,94,94036
Bayern,94,94051
Bayern,94,94060
Bayern,94,94065
Bayern,94,94072
Bayern,94,94078
Bayern,94,94081
Bayern,94,94086
Bayern,94,94089
Bayern,94,94094
Bayern,94,94099
Bayern,94,94104
Bayern,94,94107
Bayern,94,94110
Bayern,94,94113
Bayern,94,94116
Bayern,94,94118
Bayern,94,94121
Bayern,94,94124
Bayern,94,94127
Bayern,94,94130
Bayern,94,94133
Bayern,94,94136
Bayern,94,94137
Bayern,94,94139
Bayern,94,94140
Bayern,94,94142
Bayern,94,94143
Bayern,94,94145
Bayern,94,94146
Bayern,94,94148
Bayern,94,94149
Bayern,94,94151
Bayern,94,94152
Bayern,94,94154
Bayern,94,94155
Bayern,94,94157
Bayern,94,94158
Bayern,94,94160
Bayern,94,94161
Bayern,94,94163
Bayern,94,94164
Bayern,94,94166
Bayern,94,94167
Bayern,94,94169
Bayern,94,94209
Bayern,94,94227
Bayern,94,94234
Bayern,94,94239
Bayern,94,94244
Bayern,94,94249
Bayern,94,94250
Bayern,94,94252
Bayern,94,94253
Bayern,94,94255
Bayern,94,94256
Bayern,94,94258
Bayern,94,94259
Bayern,94,94261
Bayern,94,94262
Bayern,94,94264
Bayern,94,94265
Bayern,94,94267
Bayern,94,94269
Bayern,94,94315
Bayern,94,94327
Bayern,94,94330
Bayern,94,94333
Bayern,94,94336
Bayern,94,94339
Bayern,94,94342
Bayern,94,94344
Bayern,94,94345
Bayern,94,94347
Bayern,94,94348
Bayern,94,94350
Bayern,94,94351
Bayern,94,94353
Bayern,94,94354
Bayern,94,94356
Bayern,94,94357
Bayern,94,94359
Bayern,94,94360
Bayern,94,94362
Bayern,94,94363
Bayern,94,94365
Bayern,94,94366
Bayern,94,94368
Bayern,94,94369
Bayern,94,94371
Bayern,94,94372
Bayern,94,94374
Bayern,94,94375
Bayern,94,94377
Bayern,94,94379
Bayern,94,94405
Bayern,94,94419
Bayern,94,94424
Bayern,94,94428
Bayern,94,94431
Bayern,94,94436
Bayern,94,94437
Bayern,94,94439
Bayern,94,94447
Bayern,94,94469
Bayern,94,94474
Bayern,94,94481
Bayern,94,94486
Bayern,94,94491
Bayern,94,94496
Bayern,94,94501
Bayern,94,94505
Bayern,94,94508
Bayern,94,94513
Bayern,94,94518
Bayern,94,94522
Bayern,94,94526
Bayern,94,94527
Bayern,94,94529
Bayern,94,94530
Bayern,94,94532
Bayern,94,94533
Bayern,94,94535
Bayern,94,94536
Bayern,94,94538
Bayern,94,94539
Bayern,94,94541
Bayern,94,94542
Bayern,94,94544
Bayern,94,94545
Bayern,94,94547
Bayern,94,94548
Bayern,94,94550
Bayern,94,94551
Bayern,94,94553
Bayern,94,94554
Bayern,94,94556
Bayern,94,94557
Bayern,94,94559
Bayern,94,94560
Bayern,94,94562
Bayern,94,94563
Bayern,94,94565
Bayern,94,94566
Bayern,94,94568
Bayern,94,94569
Bayern,94,94571
Bayern,94,94572
Bayern,94,94574
Bayern,94,94575
Bayern,94,94577
Bayern,94,94579
Bayern,84,84069
Bayern,90,90602
Bayern,91,91249
Bayern,91,91275
Bayern,91,91281
Bayern,92,92224
Bayern,92,92237
Bayern,92,92242
Bayern,92,92245
Bayern,92,92249
Bayern,92,92253
Bayern,92,92256
Bayern,92,92259
Bayern,92,92260
Bayern,92,92262
Bayern,92,92263
Bayern,92,92265
Bayern,92,92266
Bayern,92,92268
Bayern,92,92269
Bayern,92,92271
Bayern,92,92272
Bayern,92,92274
Bayern,92,92275
Bayern,92,92277
Bayern,92,92278
Bayern,92,92280
Bayern,92,92281
Bayern,92,92283
Bayern,92,92284
Bayern,92,92286
Bayern,92,92287
Bayern,92,92289
Bayern,92,92318
Bayern,92,92331
Bayern,92,92334
Bayern,92,92342
Bayern,92,92345
Bayern,92,92348
Bayern,92,92353
Bayern,92,92355
Bayern,92,92358
Bayern,92,92360
Bayern,92,92361
Bayern,92,92363
Bayern,92,92364
Bayern,92,92366
Bayern,92,92367
Bayern,92,92369
Bayern,92,92421
Bayern,92,92431
Bayern,92,92436
Bayern,92,92439
Bayern,92,92442
Bayern,92,92444
Bayern,92,92445
Bayern,92,92447
Bayern,92,92449
Bayern,92,92507
Bayern,92,92521
Bayern,92,92526
Bayern,92,92533
Bayern,92,92536
Bayern,92,92539
Bayern,92,92540
Bayern,92,92542
Bayern,92,92543
Bayern,92,92545
Bayern,92,92546
Bayern,92,92548
Bayern,92,92549
Bayern,92,92551
Bayern,92,92552
Bayern,92,92554
Bayern,92,92555
Bayern,92,92557
Bayern,92,92559
Bayern,92,92637
Bayern,92,92648
Bayern,92,92655
Bayern,92,92660
Bayern,92,92665
Bayern,92,92670
Bayern,92,92676
Bayern,92,92681
Bayern,92,92685
Bayern,92,92690
Bayern,92,92693
Bayern,92,92694
Bayern,92,92696
Bayern,92,92697
Bayern,92,92699
Bayern,92,92700
Bayern,92,92702
Bayern,92,92703
Bayern,92,92705
Bayern,92,92706
Bayern,92,92708
Bayern,92,92709
Bayern,92,92711
Bayern,92,92712
Bayern,92,92714
Bayern,92,92715
Bayern,92,92717
Bayern,92,92718
Bayern,92,92720
Bayern,92,92721
Bayern,92,92723
Bayern,92,92724
Bayern,92,92726
Bayern,92,92727
Bayern,92,92729
Bayern,93,93047
Bayern,93,93049
Bayern,93,93051
Bayern,93,93053
Bayern,93,93055
Bayern,93,93057
Bayern,93,93059
Bayern,93,93073
Bayern,93,93080
Bayern,93,93083
Bayern,93,93086
Bayern,93,93087
Bayern,93,93089
Bayern,93,93090
Bayern,93,93092
Bayern,93,93093
Bayern,93,93095
Bayern,93,93096
Bayern,93,93098
Bayern,93,93099
Bayern,93,93101
Bayern,93,93102
Bayern,93,93104
Bayern,93,93105
Bayern,93,93107
Bayern,93,93109
Bayern,93,93128
Bayern,93,93133
Bayern,93,93138
Bayern,93,93142
Bayern,93,93149
Bayern,93,93152
Bayern,93,93155
Bayern,93,93158
Bayern,93,93161
Bayern,93,93164
Bayern,93,93167
Bayern,93,93170
Bayern,93,93173
Bayern,93,93176
Bayern,93,93177
Bayern,93,93179
Bayern,93,93180
Bayern,93,93182
Bayern,93,93183
Bayern,93,93185
Bayern,93,93186
Bayern,93,93188
Bayern,93,93189
Bayern,93,93191
Bayern,93,93192
Bayern,93,93194
Bayern,93,93195
Bayern,93,93197
Bayern,93,93199
Bayern,93,93413
Bayern,93,93426
Bayern,93,93437
Bayern,93,93444
Bayern,93,93449
Bayern,93,93453
Bayern,93,93455
Bayern,93,93458
Bayern,93,93462
Bayern,93,93464
Bayern,93,93466
Bayern,93,93468
Bayern,93,93470
Bayern,93,93473
Bayern,93,93474
Bayern,93,93476
Bayern,93,93477
Bayern,93,93479
Bayern,93,93480
Bayern,93,93482
Bayern,93,93483
Bayern,93,93485
Bayern,93,93486
Bayern,93,93488
Bayern,93,93489
Bayern,93,93491
Bayern,93,93492
Bayern,93,93494
Bayern,93,93495
Bayern,93,93497
Bayern,93,93499
Bayern,95,95478
Bayern,95,95505
Bayern,95,95506
Bayern,95,95508
Bayern,95,95514
Bayern,95,95519
Bayern,95,95643
Bayern,95,95652
Bayern,95,95666
Bayern,95,95671
Bayern,95,95676
Bayern,95,95679
Bayern,95,95682
Bayern,95,95683
Bayern,95,95685
Bayern,95,95688
Bayern,95,95689
Bayern,95,95692
Bayern,95,95695
Bayern,95,95698
Bayern,95,95700
Bayern,95,95701
Bayern,95,95703
Bayern,95,95704
Bayern,91,91077
Bayern,91,91090
Bayern,91,91094
Bayern,91,91099
Bayern,91,91257
Bayern,91,91278
Bayern,91,91282
Bayern,91,91286
Bayern,91,91287
Bayern,91,91289
Bayern,91,91301
Bayern,91,91320
Bayern,91,91322
Bayern,91,91327
Bayern,91,91330
Bayern,91,91332
Bayern,91,91336
Bayern,91,91338
Bayern,91,91344
Bayern,91,91346
Bayern,91,91347
Bayern,91,91349
Bayern,91,91352
Bayern,91,91353
Bayern,91,91355
Bayern,91,91356
Bayern,91,91358
Bayern,91,91359
Bayern,91,91361
Bayern,91,91362
Bayern,91,91364
Bayern,91,91365
Bayern,91,91367
Bayern,91,91369
Bayern,95,95028
Bayern,95,95030
Bayern,95,95032
Bayern,95,95100
Bayern,95,95111
Bayern,95,95119
Bayern,95,95126
Bayern,95,95131
Bayern,95,95138
Bayern,95,95145
Bayern,95,95152
Bayern,95,95158
Bayern,95,95163
Bayern,95,95168
Bayern,95,95173
Bayern,95,95176
Bayern,95,95179
Bayern,95,95180
Bayern,95,95182
Bayern,95,95183
Bayern,95,95185
Bayern,95,95186
Bayern,95,95188
Bayern,95,95189
Bayern,95,95191
Bayern,95,95192
Bayern,95,95194
Bayern,95,95195
Bayern,95,95197
Bayern,95,95199
Bayern,95,95213
Bayern,95,95233
Bayern,95,95234
Bayern,95,95236
Bayern,95,95237
Bayern,95,95239
Bayern,95,95326
Bayern,95,95336
Bayern,95,95339
Bayern,95,95346
Bayern,95,95349
Bayern,95,95352
Bayern,95,95355
Bayern,95,95356
Bayern,95,95358
Bayern,95,95359
Bayern,95,95361
Bayern,95,95362
Bayern,95,95364
Bayern,95,95365
Bayern,95,95367
Bayern,95,95369
Bayern,95,95444
Bayern,95,95445
Bayern,95,95447
Bayern,95,95448
Bayern,95,95460
Bayern,95,95463
Bayern,95,95466
Bayern,95,95469
Bayern,95,95473
Bayern,95,95482
Bayern,95,95485
Bayern,95,95488
Bayern,95,95490
Bayern,95,95491
Bayern,95,95493
Bayern,95,95494
Bayern,95,95496
Bayern,95,95497
Bayern,95,95499
Bayern,95,95500
Bayern,95,95502
Bayern,95,95503
Bayern,95,95509
Bayern,95,95511
Bayern,95,95512
Bayern,95,95515
Bayern,95,95517
Bayern,95,95615
Bayern,95,95632
Bayern,95,95659
Bayern,95,95680
Bayern,95,95686
Bayern,95,95691
Bayern,95,95694
Bayern,95,95697
Bayern,95,95706
Bayern,95,95707
Bayern,95,95709
Bayern,96,96047
Bayern,96,96049
Bayern,96,96050
Bayern,96,96052
Bayern,96,96103
Bayern,96,96110
Bayern,96,96114
Bayern,96,96117
Bayern,96,96120
Bayern,96,96123
Bayern,96,96129
Bayern,96,96132
Bayern,96,96135
Bayern,96,96138
Bayern,96,96142
Bayern,96,96145
Bayern,96,96146
Bayern,96,96148
Bayern,96,96149
Bayern,96,96154
Bayern,96,96155
Bayern,96,96157
Bayern,96,96158
Bayern,96,96161
Bayern,96,96163
Bayern,96,96164
Bayern,96,96167
Bayern,96,96169
Bayern,96,96170
Bayern,96,96173
Bayern,96,96175
Bayern,96,96178
Bayern,96,96179
Bayern,96,96182
Bayern,96,96185
Bayern,96,96187
Bayern,96,96191
Bayern,96,96194
Bayern,96,96196
Bayern,96,96197
Bayern,96,96199
Bayern,96,96215
Bayern,96,96224
Bayern,96,96231
Bayern,96,96237
Bayern,96,96242
Bayern,96,96247
Bayern,96,96250
Bayern,96,96253
Bayern,96,96257
Bayern,96,96260
Bayern,96,96264
Bayern,96,96268
Bayern,96,96269
Bayern,96,96271
Bayern,96,96272
Bayern,96,96274
Bayern,96,96275
Bayern,96,96277
Bayern,96,96279
Bayern,96,96317
Bayern,96,96328
Bayern,96,96332
Bayern,96,96337
Bayern,96,96342
Bayern,96,96346
Bayern,96,96349
Bayern,96,96352
Bayern,96,96355
Bayern,96,96358
Bayern,96,96361
Bayern,96,96364
Bayern,96,96365
Bayern,96,96367
Bayern,96,96369
Bayern,96,96450
Bayern,96,96465
Bayern,96,96472
Bayern,96,96476
Bayern,96,96479
Bayern,96,96482
Bayern,96,96484
Bayern,96,96486
Bayern,96,96487
Bayern,96,96489
Bayern,90,90402
Bayern,90,90403
Bayern,90,90408
Bayern,90,90409
Bayern,90,90411
Bayern,90,90419
Bayern,90,90425
Bayern,90,90427
Bayern,90,90429
Bayern,90,90431
Bayern,90,90439
Bayern,90,90441
Bayern,90,90443
Bayern,90,90449
Bayern,90,90451
Bayern,90,90453
Bayern,90,90455
Bayern,90,90457
Bayern,90,90459
Bayern,90,90461
Bayern,90,90469
Bayern,90,90471
Bayern,90,90473
Bayern,90,90475
Bayern,90,90478
Bayern,90,90480
Bayern,90,90482
Bayern,90,90489
Bayern,90,90491
Bayern,90,90513
Bayern,90,90518
Bayern,90,90522
Bayern,90,90530
Bayern,90,90537
Bayern,90,90542
Bayern,90,90547
Bayern,90,90552
Bayern,90,90556
Bayern,90,90559
Bayern,90,90562
Bayern,90,90571
Bayern,90,90574
Bayern,90,90579
Bayern,90,90584
Bayern,90,90587
Bayern,90,90592
Bayern,90,90596
Bayern,90,90599
Bayern,90,90607
Bayern,90,90610
Bayern,90,90613
Bayern,90,90614
Bayern,90,90616
Bayern,90,90617
Bayern,90,90619
Bayern,90,90762
Bayern,90,90763
Bayern,90,90765
Bayern,90,90766
Bayern,90,90768
Bayern,91,91052
Bayern,91,91054
Bayern,91,91056
Bayern,91,91058
Bayern,91,91074
Bayern,91,91080
Bayern,91,91083
Bayern,91,91085
Bayern,91,91086
Bayern,91,91088
Bayern,91,91091
Bayern,91,91093
Bayern,91,91096
Bayern,91,91097
Bayern,91,91126
Bayern,91,91154
Bayern,91,91161
Bayern,91,91166
Bayern,91,91171
Bayern,91,91174
Bayern,91,91177
Bayern,91,91180
Bayern,91,91183
Bayern,91,91186
Bayern,91,91187
Bayern,91,91189
Bayern,91,91207
Bayern,91,91217
Bayern,91,91220
Bayern,91,91224
Bayern,91,91227
Bayern,91,91230
Bayern,91,91233
Bayern,91,91235
Bayern,91,91236
Bayern,91,91238
Bayern,91,91239
Bayern,91,91241
Bayern,91,91242
Bayern,91,91244
Bayern,91,91245
Bayern,91,91247
Bayern,91,91284
Bayern,91,91315
Bayern,91,91325
Bayern,91,91334
Bayern,91,91341
Bayern,91,91350
Bayern,91,91413
Bayern,91,91438
Bayern,91,91443
Bayern,91,91448
Bayern,91,91452
Bayern,91,91456
Bayern,91,91459
Bayern,91,91460
Bayern,91,91462
Bayern,91,91463
Bayern,91,91465
Bayern,91,91466
Bayern,91,91468
Bayern,91,91469
Bayern,91,91471
Bayern,91,91472
Bayern,91,91474
Bayern,91,91475
Bayern,91,91477
Bayern,91,91478
Bayern,91,91480
Bayern,91,91481
Bayern,91,91483
Bayern,91,91484
Bayern,91,91486
Bayern,91,91487
Bayern,91,91489
Bayern,91,91522
Bayern,91,91541
Bayern,91,91550
Bayern,91,91555
Bayern,91,91560
Bayern,91,91564
Bayern,91,91567
Bayern,91,91572
Bayern,91,91575
Bayern,91,91578
Bayern,91,91580
Bayern,91,91583
Bayern,91,91586
Bayern,91,91587
Bayern,91,91589
Bayern,91,91590
Bayern,91,91592
Bayern,91,91593
Bayern,91,91595
Bayern,91,91596
Bayern,91,91598
Bayern,91,91599
Bayern,91,91601
Bayern,91,91602
Bayern,91,91604
Bayern,91,91605
Bayern,91,91607
Bayern,91,91608
Bayern,91,91610
Bayern,91,91611
Bayern,91,91613
Bayern,91,91614
Bayern,91,91616
Bayern,91,91617
Bayern,91,91619
Bayern,91,91620
Bayern,91,91622
Bayern,91,91623
Bayern,91,91625
Bayern,91,91626
Bayern,91,91628
Bayern,91,91629
Bayern,91,91631
Bayern,91,91632
Bayern,91,91634
Bayern,91,91635
Bayern,91,91637
Bayern,91,91639
Bayern,91,91710
Bayern,91,91717
Bayern,91,91719
Bayern,91,91720
Bayern,91,91722
Bayern,91,91723
Bayern,91,91725
Bayern,91,91726
Bayern,91,91728
Bayern,91,91729
Bayern,91,91731
Bayern,91,91732
Bayern,91,91734
Bayern,91,91735
Bayern,91,91737
Bayern,91,91738
Bayern,91,91740
Bayern,91,91741
Bayern,91,91743
Bayern,91,91744
Bayern,91,91746
Bayern,91,91747
Bayern,91,91749
Bayern,91,91757
Bayern,91,91781
Bayern,91,91785
Bayern,91,91788
Bayern,91,91790
Bayern,91,91792
Bayern,91,91793
Bayern,91,91796
Bayern,91,91798
Bayern,91,91799
Bayern,91,91801
Bayern,91,91802
Bayern,91,91805
Bayern,91,91807
Bayern,96,96152
Bayern,96,96172
Bayern,96,96193
Bayern,97,97215
Bayern,97,97258
Bayern,63,63739
Bayern,63,63741
Bayern,63,63743
Bayern,63,63755
Bayern,63,63762
Bayern,63,63768
Bayern,63,63773
Bayern,63,63776
Bayern,63,63785
Bayern,63,63791
Bayern,63,63796
Bayern,63,63801
Bayern,63,63808
Bayern,63,63811
Bayern,63,63814
Bayern,63,63820
Bayern,63,63825
Bayern,63,63826
Bayern,63,63828
Bayern,63,63829
Bayern,63,63831
Bayern,63,63834
Bayern,63,63839
Bayern,63,63840
Bayern,63,63843
Bayern,63,63846
Bayern,63,63849
Bayern,63,63853
Bayern,63,63856
Bayern,63,63857
Bayern,63,63860
Bayern,63,63863
Bayern,63,63864
Bayern,63,63867
Bayern,63,63868
Bayern,63,63869
Bayern,63,63871
Bayern,63,63872
Bayern,63,63874
Bayern,63,63875
Bayern,63,63877
Bayern,63,63879
Bayern,63,63897
Bayern,63,63906
Bayern,63,63911
Bayern,63,63916
Bayern,63,63920
Bayern,63,63924
Bayern,63,63925
Bayern,63,63927
Bayern,63,63928
Bayern,63,63930
Bayern,63,63931
Bayern,63,63933
Bayern,63,63934
Bayern,63,63936
Bayern,63,63937
Bayern,63,63939
Bayern,96,96106
Bayern,96,96126
Bayern,96,96151
Bayern,96,96160
Bayern,96,96166
Bayern,96,96176
Bayern,96,96181
Bayern,96,96184
Bayern,96,96188
Bayern,96,96190
Bayern,97,97070
Bayern,97,97072
Bayern,97,97074
Bayern,97,97076
Bayern,97,97078
Bayern,97,97080
Bayern,97,97082
Bayern,97,97084
Bayern,97,97199
Bayern,97,97204
Bayern,97,97209
Bayern,97,97218
Bayern,97,97222
Bayern,97,97225
Bayern,97,97228
Bayern,97,97230
Bayern,97,97232
Bayern,97,97234
Bayern,97,97236
Bayern,97,97237
Bayern,97,97239
Bayern,97,97241
Bayern,97,97243
Bayern,97,97244
Bayern,97,97246
Bayern,97,97247
Bayern,97,97249
Bayern,97,97250
Bayern,97,97252
Bayern,97,97253
Bayern,97,97255
Bayern,97,97256
Bayern,97,97259
Bayern,97,97261
Bayern,97,97262
Bayern,97,97264
Bayern,97,97265
Bayern,97,97267
Bayern,97,97268
Bayern,97,97270
Bayern,97,97271
Bayern,97,97273
Bayern,97,97274
Bayern,97,97276
Bayern,97,97277
Bayern,97,97279
Bayern,97,97280
Bayern,97,97282
Bayern,97,97283
Bayern,97,97285
Bayern,97,97286
Bayern,97,97288
Bayern,97,97289
Bayern,97,97291
Bayern,97,97292
Bayern,97,97294
Bayern,97,97295
Bayern,97,97297
Bayern,97,97299
Bayern,97,97318
Bayern,97,97320
Bayern,97,97332
Bayern,97,97334
Bayern,97,97337
Bayern,97,97340
Bayern,97,97342
Bayern,97,97346
Bayern,97,97348
Bayern,97,97350
Bayern,97,97353
Bayern,97,97355
Bayern,97,97357
Bayern,97,97359
Bayern,97,97412
Bayern,97,97421
Bayern,97,97422
Bayern,97,97424
Bayern,97,97437
Bayern,97,97440
Bayern,97,97447
Bayern,97,97450
Bayern,97,97453
Bayern,97,97456
Bayern,97,97461
Bayern,97,97464
Bayern,97,97469
Bayern,97,97475
Bayern,97,97478
Bayern,97,97483
Bayern,97,97486
Bayern,97,97488
Bayern,97,97490
Bayern,97,97491
Bayern,97,97493
Bayern,97,97494
Bayern,97,97496
Bayern,97,97497
Bayern,97,97499
Bayern,97,97500
Bayern,97,97502
Bayern,97,97503
Bayern,97,97505
Bayern,97,97506
Bayern,97,97508
Bayern,97,97509
Bayern,97,97511
Bayern,97,97513
Bayern,97,97514
Bayern,97,97516
Bayern,97,97517
Bayern,97,97519
Bayern,97,97520
Bayern,97,97522
Bayern,97,97523
Bayern,97,97525
Bayern,97,97526
Bayern,97,97528
Bayern,97,97529
Bayern,97,97531
Bayern,97,97532
Bayern,97,97534
Bayern,97,97535
Bayern,97,97537
Bayern,97,97539
Bayern,97,97616
Bayern,97,97618
Bayern,97,97631
Bayern,97,97633
Bayern,97,97638
Bayern,97,97640
Bayern,97,97645
Bayern,97,97647
Bayern,97,97650
Bayern,97,97653
Bayern,97,97654
Bayern,97,97656
Bayern,97,97657
Bayern,97,97659
Bayern,97,97688
Bayern,97,97702
Bayern,97,97705
Bayern,97,97708
Bayern,97,97711
Bayern,97,97714
Bayern,97,97717
Bayern,97,97720
Bayern,97,97723
Bayern,97,97724
Bayern,97,97725
Bayern,97,97727
Bayern,97,97729
Bayern,97,97737
Bayern,97,97753
Bayern,97,97762
Bayern,97,97769
Bayern,97,97772
Bayern,97,97773
Bayern,97,97775
Bayern,97,97776
Bayern,97,97778
Bayern,97,97779
Bayern,97,97780
Bayern,97,97782
Bayern,97,97783
Bayern,97,97785
Bayern,97,97786
Bayern,97,97788
Bayern,97,97789
Bayern,97,97791
Bayern,97,97792
Bayern,97,97794
Bayern,97,97795
Bayern,97,97797
Bayern,97,97799
Bayern,97,97816
Bayern,97,97828
Bayern,97,97833
Bayern,97,97834
Bayern,97,97836
Bayern,97,97837
Bayern,97,97839
Bayern,97,97840
Bayern,97,97842
Bayern,97,97843
Bayern,97,97845
Bayern,97,97846
Bayern,97,97848
Bayern,97,97849
Bayern,97,97851
Bayern,97,97852
Bayern,97,97854
Bayern,97,97855
Bayern,97,97857
Bayern,97,97859
Bayern,97,97892
Bayern,97,97901
Bayern,97,97903
Bayern,97,97904
Bayern,97,97906
Bayern,97,97907
Bayern,97,97909
Bayern,82,82297
Bayern,86,86150
Bayern,86,86152
Bayern,86,86153
Bayern,86,86154
Bayern,86,86156
Bayern,86,86157
Bayern,86,86159
Bayern,86,86161
Bayern,86,86163
Bayern,86,86165
Bayern,86,86167
Bayern,86,86169
Bayern,86,86179
Bayern,86,86199
Bayern,86,86316
Bayern,86,86343
Bayern,86,86356
Bayern,86,86368
Bayern,86,86381
Bayern,86,86391
Bayern,86,86399
Bayern,86,86405
Bayern,86,86415
Bayern,86,86420
Bayern,86,86424
Bayern,86,86438
Bayern,86,86441
Bayern,86,86444
Bayern,86,86447
Bayern,86,86450
Bayern,86,86453
Bayern,86,86456
Bayern,86,86459
Bayern,86,86462
Bayern,86,86465
Bayern,86,86470
Bayern,86,86473
Bayern,86,86476
Bayern,86,86477
Bayern,86,86479
Bayern,86,86480
Bayern,86,86482
Bayern,86,86483
Bayern,86,86485
Bayern,86,86486
Bayern,86,86488
Bayern,86,86489
Bayern,86,86491
Bayern,86,86494
Bayern,86,86495
Bayern,86,86497
Bayern,86,86498
Bayern,86,86500
Bayern,86,86502
Bayern,86,86504
Bayern,86,86505
Bayern,86,86507
Bayern,86,86508
Bayern,86,86510
Bayern,86,86511
Bayern,86,86513
Bayern,86,86514
Bayern,86,86517
Bayern,86,86519
Bayern,86,86551
Bayern,86,86554
Bayern,86,86556
Bayern,86,86559
Bayern,86,86568
Bayern,86,86570
Bayern,86,86573
Bayern,86,86574
Bayern,86,86576
Bayern,86,86577
Bayern,86,86609
Bayern,86,86637
Bayern,86,86641
Bayern,86,86647
Bayern,86,86650
Bayern,86,86653
Bayern,86,86655
Bayern,86,86657
Bayern,86,86660
Bayern,86,86663
Bayern,86,86672
Bayern,86,86674
Bayern,86,86675
Bayern,86,86678
Bayern,86,86679
Bayern,86,86681
Bayern,86,86682
Bayern,86,86684
Bayern,86,86685
Bayern,86,86687
Bayern,86,86688
Bayern,86,86690
Bayern,86,86692
Bayern,86,86694
Bayern,86,86695
Bayern,86,86698
Bayern,86,86700
Bayern,86,86703
Bayern,86,86704
Bayern,86,86707
Bayern,86,86709
Bayern,86,86720
Bayern,86,86732
Bayern,86,86733
Bayern,86,86735
Bayern,86,86736
Bayern,86,86738
Bayern,86,86739
Bayern,86,86741
Bayern,86,86742
Bayern,86,86744
Bayern,86,86745
Bayern,86,86747
Bayern,86,86748
Bayern,86,86750
Bayern,86,86751
Bayern,86,86753
Bayern,86,86754
Bayern,86,86756
Bayern,86,86757
Bayern,86,86759
Bayern,86,86807
Bayern,86,86825
Bayern,86,86830
Bayern,86,86833
Bayern,86,86842
Bayern,86,86845
Bayern,86,86850
Bayern,86,86853
Bayern,86,86854
Bayern,86,86856
Bayern,86,86860
Bayern,86,86862
Bayern,86,86863
Bayern,86,86865
Bayern,86,86866
Bayern,86,86868
Bayern,86,86869
Bayern,86,86871
Bayern,86,86872
Bayern,86,86874
Bayern,86,86875
Bayern,86,86877
Bayern,86,86879
Bayern,86,86983
Bayern,87,87435
Bayern,87,87437
Bayern,87,87439
Bayern,87,87448
Bayern,87,87452
Bayern,87,87459
Bayern,87,87463
Bayern,87,87466
Bayern,87,87471
Bayern,87,87474
Bayern,87,87477
Bayern,87,87480
Bayern,87,87484
Bayern,87,87487
Bayern,87,87488
Bayern,87,87490
Bayern,87,87493
Bayern,87,87494
Bayern,87,87496
Bayern,87,87497
Bayern,87,87499
Bayern,87,87509
Bayern,87,87527
Bayern,87,87534
Bayern,87,87538
Bayern,87,87541
Bayern,87,87544
Bayern,87,87545
Bayern,87,87547
Bayern,87,87549
Bayern,87,87561
Bayern,87,87600
Bayern,87,87616
Bayern,87,87629
Bayern,87,87634
Bayern,87,87637
Bayern,87,87640
Bayern,87,87642
Bayern,87,87645
Bayern,87,87647
Bayern,87,87648
Bayern,87,87650
Bayern,87,87651
Bayern,87,87653
Bayern,87,87654
Bayern,87,87656
Bayern,87,87657
Bayern,87,87659
Bayern,87,87660
Bayern,87,87662
Bayern,87,87663
Bayern,87,87665
Bayern,87,87666
Bayern,87,87668
Bayern,87,87669
Bayern,87,87671
Bayern,87,87672
Bayern,87,87674
Bayern,87,87675
Bayern,87,87677
Bayern,87,87679
Bayern,87,87700
Bayern,87,87719
Bayern,87,87724
Bayern,87,87727
Bayern,87,87730
Bayern,87,87733
Bayern,87,87734
Bayern,87,87736
Bayern,87,87737
Bayern,87,87739
Bayern,87,87740
Bayern,87,87742
Bayern,87,87743
Bayern,87,87745
Bayern,87,87746
Bayern,87,87748
Bayern,87,87749
Bayern,87,87751
Bayern,87,87752
Bayern,87,87754
Bayern,87,87755
Bayern,87,87757
Bayern,87,87758
Bayern,87,87760
Bayern,87,87761
Bayern,87,87763
Bayern,87,87764
Bayern,87,87766
Bayern,87,87767
Bayern,87,87769
Bayern,87,87770
Bayern,87,87772
Bayern,87,87773
Bayern,87,87775
Bayern,87,87776
Bayern,87,87778
Bayern,87,87779
Bayern,87,87781
Bayern,87,87782
Bayern,87,87784
Bayern,87,87785
Bayern,87,87787
Bayern,87,87789
Bayern,88,88131
Bayern,88,88138
Bayern,88,88142
Bayern,88,88145
Bayern,88,88149
Bayern,88,88161
Bayern,88,88167
Bayern,88,88171
Bayern,88,88175
Bayern,88,88178
Bayern,88,88179
Bayern,89,89231
Bayern,89,89233
Bayern,89,89250
Bayern,89,89257
Bayern,89,89264
Bayern,89,89269
Bayern,89,89275
Bayern,89,89278
Bayern,89,89281
Bayern,89,89284
Bayern,89,89287
Bayern,89,89290
Bayern,89,89291
Bayern,89,89293
Bayern,89,89294
Bayern,89,89296
Bayern,89,89297
Bayern,89,89299
Bayern,89,89312
Bayern,89,89331
Bayern,89,89335
Bayern,89,89340
Bayern,89,89343
Bayern,89,89344
Bayern,89,89346
Bayern,89,89347
Bayern,89,89349
Bayern,89,89350
Bayern,89,89352
Bayern,89,89353
Bayern,89,89355
Bayern,89,89356
Bayern,89,89358
Bayern,89,89359
Bayern,89,89361
Bayern,89,89362
Bayern,89,89364
Bayern,89,89365
Bayern,89,89367
Bayern,89,89368
Bayern,89,89407
Bayern,89,89415
Bayern,89,89420
Bayern,89,89423
Bayern,89,89426
Bayern,89,89428
Bayern,89,89429
Bayern,89,89431
Bayern,89,89432
Bayern,89,89434
Bayern,89,89435
Bayern,89,89437
Bayern,89,89438
Bayern,89,89440
Bayern,89,89441
Bayern,89,89443
Bayern,89,89444
Bayern,89,89446
Bayern,89,89447
Bayern,89,89449
Bremen,27,27568
Bremen,27,27570
Bremen,27,27572
Bremen,27,27574
Bremen,27,27576
Bremen,27,27578
Bremen,27,27580
Bremen,28,28195
Bremen,28,28197
Bremen,28,28199
Bremen,28,28201
Bremen,28,28203
Bremen,28,28205
Bremen,28,28207
Bremen,28,28209
Bremen,28,28211
Bremen,28,28213
Bremen,28,28215
Bremen,28,28217
Bremen,28,28219
Bremen,28,28237
Bremen,28,28239
Bremen,28,28259
Bremen,28,28277
Bremen,28,28279
Bremen,28,28307
Bremen,28,28309
Bremen,28,28325
Bremen,28,28327
Bremen,28,28329
Bremen,28,28335
Bremen,28,28355
Bremen,28,28357
Bremen,28,28359
Bremen,28,28717
Bremen,28,28719
Bremen,28,28755
Bremen,28,28757
Bremen,28,28759
Bremen,28,28777
Bremen,28,28779
Hessen,35,35510
Hessen,35,35516
Hessen,35,35519
Hessen,36,36381
Hessen,36,36391
Hessen,36,36396
Hessen,55,55246
Hessen,55,55252
Hessen,60,60306
Hessen,60,60308
Hessen,60,60310
Hessen,60,60311
Hessen,60,60313
Hessen,60,60314
Hessen,60,60316
Hessen,60,60318
Hessen,60,60320
Hessen,60,60322
Hessen,60,60323
Hessen,60,60325
Hessen,60,60326
Hessen,60,60327
Hessen,60,60329
Hessen,60,60385
Hessen,60,60386
Hessen,60,60388
Hessen,60,60389
Hessen,60,60431
Hessen,60,60433
Hessen,60,60435
Hessen,60,60437
Hessen,60,60438
Hessen,60,60439
Hessen,60,60486
Hessen,60,60487
Hessen,60,60488
Hessen,60,60489
Hessen,60,60528
Hessen,60,60529
Hessen,60,60549
Hessen,60,60594
Hessen,60,60596
Hessen,60,60598
Hessen,60,60599
Hessen,61,61118
Hessen,61,61130
Hessen,61,61137
Hessen,61,61138
Hessen,61,61169
Hessen,61,61184
Hessen,61,61191
Hessen,61,61194
Hessen,61,61197
Hessen,61,61200
Hessen,61,61203
Hessen,61,61206
Hessen,61,61209
Hessen,61,61231
Hessen,61,61239
Hessen,61,61250
Hessen,61,61267
Hessen,61,61273
Hessen,61,61276
Hessen,61,61279
Hessen,61,61348
Hessen,61,61350
Hessen,61,61352
Hessen,61,61381
Hessen,61,61389
Hessen,61,61440
Hessen,61,61449
Hessen,61,61462
Hessen,61,61476
Hessen,61,61479
Hessen,63,63065
Hessen,63,63067
Hessen,63,63069
Hessen,63,63071
Hessen,63,63073
Hessen,63,63075
Hessen,63,63110
Hessen,63,63128
Hessen,63,63150
Hessen,63,63165
Hessen,63,63179
Hessen,63,63225
Hessen,63,63263
Hessen,63,63303
Hessen,63,63322
Hessen,63,63329
Hessen,63,63405
Hessen,63,63450
Hessen,63,63452
Hessen,63,63454
Hessen,63,63456
Hessen,63,63457
Hessen,63,63477
Hessen,63,63486
Hessen,63,63500
Hessen,63,63505
Hessen,63,63512
Hessen,63,63517
Hessen,63,63526
Hessen,63,63533
Hessen,63,63538
Hessen,63,63543
Hessen,63,63546
Hessen,63,63549
Hessen,63,63571
Hessen,63,63579
Hessen,63,63584
Hessen,63,63589
Hessen,63,63594
Hessen,63,63599
Hessen,63,63607
Hessen,63,63619
Hessen,63,63628
Hessen,63,63633
Hessen,63,63636
Hessen,63,63637
Hessen,63,63639
Hessen,63,63654
Hessen,63,63667
Hessen,63,63674
Hessen,63,63683
Hessen,63,63688
Hessen,63,63691
Hessen,63,63694
Hessen,63,63695
Hessen,63,63697
Hessen,63,63699
Hessen,64,64283
Hessen,64,64285
Hessen,64,64287
Hessen,64,64289
Hessen,64,64291
Hessen,64,64293
Hessen,64,64295
Hessen,64,64297
Hessen,64,64319
Hessen,64,64331
Hessen,64,64342
Hessen,64,64347
Hessen,64,64354
Hessen,64,64367
Hessen,64,64372
Hessen,64,64380
Hessen,64,64385
Hessen,64,64390
Hessen,64,64395
Hessen,64,64397
Hessen,64,64401
Hessen,64,64404
Hessen,64,64405
Hessen,64,64407
Hessen,64,64409
Hessen,64,64521
Hessen,64,64546
Hessen,64,64560
Hessen,64,64569
Hessen,64,64572
Hessen,64,64579
Hessen,64,64584
Hessen,64,64589
Hessen,64,64625
Hessen,64,64646
Hessen,64,64653
Hessen,64,64658
Hessen,64,64665
Hessen,64,64668
Hessen,64,64673
Hessen,64,64678
Hessen,64,64683
Hessen,64,64686
Hessen,64,64689
Hessen,64,64711
Hessen,64,64720
Hessen,64,64732
Hessen,64,64739
Hessen,64,64743
Hessen,64,64747
Hessen,64,64750
Hessen,64,64753
Hessen,64,64754
Hessen,64,64756
Hessen,64,64757
Hessen,64,64807
Hessen,64,64823
Hessen,64,64832
Hessen,64,64839
Hessen,64,64846
Hessen,64,64850
Hessen,64,64853
Hessen,64,64859
Hessen,65,65183
Hessen,65,65185
Hessen,65,65187
Hessen,65,65189
Hessen,65,65191
Hessen,65,65193
Hessen,65,65195
Hessen,65,65197
Hessen,65,65199
Hessen,65,65201
Hessen,65,65203
Hessen,65,65205
Hessen,65,65207
Hessen,65,65219
Hessen,65,65220
Hessen,65,65221
Hessen,65,65222
Hessen,65,65223
Hessen,65,65224
Hessen,65,65232
Hessen,65,65239
Hessen,65,65307
Hessen,65,65321
Hessen,65,65326
Hessen,65,65329
Hessen,65,65343
Hessen,65,65344
Hessen,65,65345
Hessen,65,65346
Hessen,65,65347
Hessen,65,65366
Hessen,65,65375
Hessen,65,65385
Hessen,65,65388
Hessen,65,65391
Hessen,65,65396
Hessen,65,65399
Hessen,65,65428
Hessen,65,65439
Hessen,65,65451
Hessen,65,65462
Hessen,65,65468
Hessen,65,65474
Hessen,65,65479
Hessen,65,65510
Hessen,65,65527
Hessen,65,65529
Hessen,65,65719
Hessen,65,65760
Hessen,65,65779
Hessen,65,65795
Hessen,65,65812
Hessen,65,65817
Hessen,65,65824
Hessen,65,65830
Hessen,65,65835
Hessen,65,65843
Hessen,65,65929
Hessen,65,65931
Hessen,65,65933
Hessen,65,65934
Hessen,65,65936
Hessen,68,68519
Hessen,68,68623
Hessen,68,68642
Hessen,68,68647
Hessen,68,68649
Hessen,69,69239
Hessen,69,69483
Hessen,69,69488
Hessen,69,69509
Hessen,69,69517
Hessen,69,69518
Hessen,35,35037
Hessen,35,35039
Hessen,35,35041
Hessen,35,35043
Hessen,35,35075
Hessen,35,35080
Hessen,35,35083
Hessen,35,35085
Hessen,35,35091
Hessen,35,35094
Hessen,35,35096
Hessen,35,35102
Hessen,35,35112
Hessen,35,35117
Hessen,35,35216
Hessen,35,35232
Hessen,35,35236
Hessen,35,35239
Hessen,35,35260
Hessen,35,35274
Hessen,35,35279
Hessen,35,35282
Hessen,35,35287
Hessen,35,35288
Hessen,35,35305
Hessen,35,35315
Hessen,35,35321
Hessen,35,35325
Hessen,35,35327
Hessen,35,35329
Hessen,35,35390
Hessen,35,35392
Hessen,35,35394
Hessen,35,35396
Hessen,35,35398
Hessen,35,35410
Hessen,35,35415
Hessen,35,35418
Hessen,35,35423
Hessen,35,35428
Hessen,35,35435
Hessen,35,35440
Hessen,35,35444
Hessen,35,35447
Hessen,35,35452
Hessen,35,35457
Hessen,35,35460
Hessen,35,35463
Hessen,35,35466
Hessen,35,35469
Hessen,35,35576
Hessen,35,35578
Hessen,35,35579
Hessen,35,35580
Hessen,35,35581
Hessen,35,35582
Hessen,35,35583
Hessen,35,35584
Hessen,35,35585
Hessen,35,35586
Hessen,35,35606
Hessen,35,35614
Hessen,35,35619
Hessen,35,35625
Hessen,35,35630
Hessen,35,35633
Hessen,35,35638
Hessen,35,35641
Hessen,35,35644
Hessen,35,35647
Hessen,35,35649
Hessen,35,35683
Hessen,35,35684
Hessen,35,35685
Hessen,35,35686
Hessen,35,35687
Hessen,35,35688
Hessen,35,35689
Hessen,35,35690
Hessen,35,35708
Hessen,35,35713
Hessen,35,35716
Hessen,35,35719
Hessen,35,35745
Hessen,35,35753
Hessen,35,35756
Hessen,35,35759
Hessen,35,35764
Hessen,35,35767
Hessen,35,35768
Hessen,35,35781
Hessen,35,35789
Hessen,35,35792
Hessen,35,35794
Hessen,35,35796
Hessen,35,35799
Hessen,36,36110
Hessen,36,36304
Hessen,36,36318
Hessen,36,36320
Hessen,36,36323
Hessen,36,36325
Hessen,36,36326
Hessen,36,36329
Hessen,36,36341
Hessen,36,36355
Hessen,36,36358
Hessen,36,36367
Hessen,36,36369
Hessen,36,36399
Hessen,63,63679
Hessen,65,65520
Hessen,65,65549
Hessen,65,65550
Hessen,65,65551
Hessen,65,65552
Hessen,65,65553
Hessen,65,65554
Hessen,65,65555
Hessen,65,65556
Hessen,65,65589
Hessen,65,65594
Hessen,65,65597
Hessen,65,65599
Hessen,65,65604
Hessen,65,65606
Hessen,65,65611
Hessen,65,65614
Hessen,65,65618
Hessen,65,65620
Hessen,65,65627
Hessen,34,34117
Hessen,34,34119
Hessen,34,34121
Hessen,34,34123
Hessen,34,34125
Hessen,34,34127
Hessen,34,34128
Hessen,34,34130
Hessen,34,34131
Hessen,34,34132
Hessen,34,34134
Hessen,34,34212
Hessen,34,34225
Hessen,34,34233
Hessen,34,34246
Hessen,34,34253
Hessen,34,34260
Hessen,34,34266
Hessen,34,34270
Hessen,34,34277
Hessen,34,34281
Hessen,34,34286
Hessen,34,34289
Hessen,34,34292
Hessen,34,34295
Hessen,34,34298
Hessen,34,34302
Hessen,34,34305
Hessen,34,34308
Hessen,34,34311
Hessen,34,34314
Hessen,34,34317
Hessen,34,34320
Hessen,34,34323
Hessen,34,34326
Hessen,34,34327
Hessen,34,34329
Hessen,34,34359
Hessen,34,34369
Hessen,34,34376
Hessen,34,34379
Hessen,34,34385
Hessen,34,34388
Hessen,34,34393
Hessen,34,34396
Hessen,34,34399
Hessen,34,34454
Hessen,34,34466
Hessen,34,34471
Hessen,34,34474
Hessen,34,34477
Hessen,34,34479
Hessen,34,34497
Hessen,34,34508
Hessen,34,34513
Hessen,34,34516
Hessen,34,34519
Hessen,34,34537
Hessen,34,34549
Hessen,34,34560
Hessen,34,34576
Hessen,34,34582
Hessen,34,34587
Hessen,34,34590
Hessen,34,34593
Hessen,34,34596
Hessen,34,34599
Hessen,34,34613
Hessen,34,34621
Hessen,34,34626
Hessen,34,34628
Hessen,34,34630
Hessen,34,34632
Hessen,34,34633
Hessen,34,34637
Hessen,34,34639
Hessen,35,35066
Hessen,35,35088
Hessen,35,35099
Hessen,35,35104
Hessen,35,35108
Hessen,35,35110
Hessen,35,35114
Hessen,35,35116
Hessen,35,35119
Hessen,35,35285
Hessen,36,36037
Hessen,36,36039
Hessen,36,36041
Hessen,36,36043
Hessen,36,36088
Hessen,36,36093
Hessen,36,36100
Hessen,36,36103
Hessen,36,36115
Hessen,36,36119
Hessen,36,36124
Hessen,36,36129
Hessen,36,36132
Hessen,36,36137
Hessen,36,36142
Hessen,36,36145
Hessen,36,36148
Hessen,36,36151
Hessen,36,36154
Hessen,36,36157
Hessen,36,36160
Hessen,36,36163
Hessen,36,36166
Hessen,36,36167
Hessen,36,36169
Hessen,36,36179
Hessen,36,36199
Hessen,36,36205
Hessen,36,36208
Hessen,36,36211
Hessen,36,36214
Hessen,36,36217
Hessen,36,36219
Hessen,36,36251
Hessen,36,36266
Hessen,36,36269
Hessen,36,36272
Hessen,36,36275
Hessen,36,36277
Hessen,36,36280
Hessen,36,36282
Hessen,36,36284
Hessen,36,36286
Hessen,36,36287
Hessen,36,36289
Hessen,36,36364
Hessen,37,37213
Hessen,37,37214
Hessen,37,37215
Hessen,37,37216
Hessen,37,37217
Hessen,37,37218
Hessen,37,37235
Hessen,37,37242
Hessen,37,37247
Hessen,37,37249
Hessen,37,37269
Hessen,37,37276
Hessen,37,37281
Hessen,37,37284
Hessen,37,37287
Hessen,37,37290
Hessen,37,37293
Hessen,37,37296
Hessen,37,37297
Hessen,37,37299
Hamburg,20,20038
Hamburg,20,20095
Hamburg,20,20097
Hamburg,20,20099
Hamburg,20,20144
Hamburg,20,20146
Hamburg,20,20148
Hamburg,20,20149
Hamburg,20,20249
Hamburg,20,20251
Hamburg,20,20253
Hamburg,20,20255
Hamburg,20,20257
Hamburg,20,20259
Hamburg,20,20354
Hamburg,20,20355
Hamburg,20,20357
Hamburg,20,20359
Hamburg,20,20457
Hamburg,20,20459
Hamburg,20,20535
Hamburg,20,20537
Hamburg,20,20539
Hamburg,21,21029
Hamburg,21,21031
Hamburg,21,21033
Hamburg,21,21035
Hamburg,21,21037
Hamburg,21,21039
Hamburg,21,21073
Hamburg,21,21075
Hamburg,21,21077
Hamburg,21,21079
Hamburg,21,21107
Hamburg,21,21109
Hamburg,21,21129
Hamburg,21,21147
Hamburg,21,21149
Hamburg,22,22041
Hamburg,22,22043
Hamburg,22,22045
Hamburg,22,22047
Hamburg,22,22049
Hamburg,22,22081
Hamburg,22,22083
Hamburg,22,22085
Hamburg,22,22087
Hamburg,22,22089
Hamburg,22,22111
Hamburg,22,22115
Hamburg,22,22117
Hamburg,22,22119
Hamburg,22,22143
Hamburg,22,22145
Hamburg,22,22147
Hamburg,22,22149
Hamburg,22,22159
Hamburg,22,22175
Hamburg,22,22177
Hamburg,22,22179
Hamburg,22,22297
Hamburg,22,22299
Hamburg,22,22301
Hamburg,22,22303
Hamburg,22,22305
Hamburg,22,22307
Hamburg,22,22309
Hamburg,22,22335
Hamburg,22,22337
Hamburg,22,22339
Hamburg,22,22359
Hamburg,22,22391
Hamburg,22,22393
Hamburg,22,22395
Hamburg,22,22397
Hamburg,22,22399
Hamburg,22,22415
Hamburg,22,22417
Hamburg,22,22419
Hamburg,22,22453
Hamburg,22,22455
Hamburg,22,22457
Hamburg,22,22459
Hamburg,22,22523
Hamburg,22,22525
Hamburg,22,22527
Hamburg,22,22529
Hamburg,22,22547
Hamburg,22,22549
Hamburg,22,22559
Hamburg,22,22587
Hamburg,22,22589
Hamburg,22,22605
Hamburg,22,22607
Hamburg,22,22609
Hamburg,22,22761
Hamburg,22,22763
Hamburg,22,22765
Hamburg,22,22767
Hamburg,22,22769
Hamburg,27,27499
Mecklenburg-Vorpommern,17,17033
Mecklenburg-Vorpommern,17,17034
Mecklenburg-Vorpommern,17,17036
Mecklenburg-Vorpommern,17,17039
Mecklenburg-Vorpommern,17,17087
Mecklenburg-Vorpommern,17,17089
Mecklenburg-Vorpommern,17,17091
Mecklenburg-Vorpommern,17,17094
Mecklenburg-Vorpommern,17,17098
Mecklenburg-Vorpommern,17,17099
Mecklenburg-Vorpommern,17,17109
Mecklenburg-Vorpommern,17,17111
Mecklenburg-Vorpommern,17,17121
Mecklenburg-Vorpommern,17,17126
Mecklenburg-Vorpommern,17,17129
Mecklenburg-Vorpommern,17,17139
Mecklenburg-Vorpommern,17,17153
Mecklenburg-Vorpommern,17,17154
Mecklenburg-Vorpommern,17,17159
Mecklenburg-Vorpommern,17,17166
Mecklenburg-Vorpommern,17,17168
Mecklenburg-Vorpommern,17,17179
Mecklenburg-Vorpommern,17,17192
Mecklenburg-Vorpommern,17,17194
Mecklenburg-Vorpommern,17,17207
Mecklenburg-Vorpommern,17,17209
Mecklenburg-Vorpommern,17,17213
Mecklenburg-Vorpommern,17,17214
Mecklenburg-Vorpommern,17,17217
Mecklenburg-Vorpommern,17,17219
Mecklenburg-Vorpommern,17,17235
Mecklenburg-Vorpommern,17,17237
Mecklenburg-Vorpommern,17,17248
Mecklenburg-Vorpommern,17,17252
Mecklenburg-Vorpommern,17,17255
Mecklenburg-Vorpommern,17,17258
Mecklenburg-Vorpommern,17,17259
Mecklenburg-Vorpommern,17,17309
Mecklenburg-Vorpommern,17,17321
Mecklenburg-Vorpommern,17,17322
Mecklenburg-Vorpommern,17,17328
Mecklenburg-Vorpommern,17,17329
Mecklenburg-Vorpommern,17,17335
Mecklenburg-Vorpommern,17,17337
Mecklenburg-Vorpommern,17,17348
Mecklenburg-Vorpommern,17,17349
Mecklenburg-Vorpommern,17,17358
Mecklenburg-Vorpommern,17,17367
Mecklenburg-Vorpommern,17,17373
Mecklenburg-Vorpommern,17,17375
Mecklenburg-Vorpommern,17,17379
Mecklenburg-Vorpommern,17,17389
Mecklenburg-Vorpommern,17,17390
Mecklenburg-Vorpommern,17,17391
Mecklenburg-Vorpommern,17,17392
Mecklenburg-Vorpommern,17,17398
Mecklenburg-Vorpommern,17,17406
Mecklenburg-Vorpommern,17,17419
Mecklenburg-Vorpommern,17,17424
Mecklenburg-Vorpommern,17,17429
Mecklenburg-Vorpommern,17,17438
Mecklenburg-Vorpommern,17,17440
Mecklenburg-Vorpommern,17,17449
Mecklenburg-Vorpommern,17,17454
Mecklenburg-Vorpommern,17,17459
Mecklenburg-Vorpommern,17,17489
Mecklenburg-Vorpommern,17,17491
Mecklenburg-Vorpommern,17,17493
Mecklenburg-Vorpommern,17,17495
Mecklenburg-Vorpommern,17,17498
Mecklenburg-Vorpommern,17,17506
Mecklenburg-Vorpommern,17,17509
Mecklenburg-Vorpommern,18,18055
Mecklenburg-Vorpommern,18,18057
Mecklenburg-Vorpommern,18,18059
Mecklenburg-Vorpommern,18,18069
Mecklenburg-Vorpommern,18,18106
Mecklenburg-Vorpommern,18,18107
Mecklenburg-Vorpommern,18,18109
Mecklenburg-Vorpommern,18,18119
Mecklenburg-Vorpommern,18,18146
Mecklenburg-Vorpommern,18,18147
Mecklenburg-Vorpommern,18,18181
Mecklenburg-Vorpommern,18,18182
Mecklenburg-Vorpommern,18,18184
Mecklenburg-Vorpommern,18,18190
Mecklenburg-Vorpommern,18,18195
Mecklenburg-Vorpommern,18,18196
Mecklenburg-Vorpommern,18,18198
Mecklenburg-Vorpommern,18,18209
Mecklenburg-Vorpommern,18,18211
Mecklenburg-Vorpommern,18,18225
Mecklenburg-Vorpommern,18,18230
Mecklenburg-Vorpommern,18,18231
Mecklenburg-Vorpommern,18,18233
Mecklenburg-Vorpommern,18,18236
Mecklenburg-Vorpommern,18,18239
Mecklenburg-Vorpommern,18,18246
Mecklenburg-Vorpommern,18,18249
Mecklenburg-Vorpommern,18,18258
Mecklenburg-Vorpommern,18,18273
Mecklenburg-Vorpommern,18,18276
Mecklenburg-Vorpommern,18,18279
Mecklenburg-Vorpommern,18,18292
Mecklenburg-Vorpommern,18,18299
Mecklenburg-Vorpommern,18,18311
Mecklenburg-Vorpommern,18,18314
Mecklenburg-Vorpommern,18,18317
Mecklenburg-Vorpommern,18,18320
Mecklenburg-Vorpommern,18,18334
Mecklenburg-Vorpommern,18,18337
Mecklenburg-Vorpommern,18,18347
Mecklenburg-Vorpommern,18,18356
Mecklenburg-Vorpommern,18,18374
Mecklenburg-Vorpommern,18,18375
Mecklenburg-Vorpommern,18,18435
Mecklenburg-Vorpommern,18,18437
Mecklenburg-Vorpommern,18,18439
Mecklenburg-Vorpommern,18,18442
Mecklenburg-Vorpommern,18,18445
Mecklenburg-Vorpommern,18,18461
Mecklenburg-Vorpommern,18,18465
Mecklenburg-Vorpommern,18,18469
Mecklenburg-Vorpommern,18,18507
Mecklenburg-Vorpommern,18,18510
Mecklenburg-Vorpommern,18,18513
Mecklenburg-Vorpommern,18,18516
Mecklenburg-Vorpommern,18,18519
Mecklenburg-Vorpommern,18,18528
Mecklenburg-Vorpommern,18,18546
Mecklenburg-Vorpommern,18,18551
Mecklenburg-Vorpommern,18,18556
Mecklenburg-Vorpommern,18,18565
Mecklenburg-Vorpommern,18,18569
Mecklenburg-Vorpommern,18,18573
Mecklenburg-Vorpommern,18,18574
Mecklenburg-Vorpommern,18,18581
Mecklenburg-Vorpommern,18,18586
Mecklenburg-Vorpommern,18,18609
Mecklenburg-Vorpommern,19,19053
Mecklenburg-Vorpommern,19,19055
Mecklenburg-Vorpommern,19,19057
Mecklenburg-Vorpommern,19,19059
Mecklenburg-Vorpommern,19,19061
Mecklenburg-Vorpommern,19,19063
Mecklenburg-Vorpommern,19,19065
Mecklenburg-Vorpommern,19,19067
Mecklenburg-Vorpommern,19,19069
Mecklenburg-Vorpommern,19,19071
Mecklenburg-Vorpommern,19,19073
Mecklenburg-Vorpommern,19,19075
Mecklenburg-Vorpommern,19,19077
Mecklenburg-Vorpommern,19,19079
Mecklenburg-Vorpommern,19,19086
Mecklenburg-Vorpommern,19,19089
Mecklenburg-Vorpommern,19,19205
Mecklenburg-Vorpommern,19,19209
Mecklenburg-Vorpommern,19,19217
Mecklenburg-Vorpommern,19,19230
Mecklenburg-Vorpommern,19,19243
Mecklenburg-Vorpommern,19,19246
Mecklenburg-Vorpommern,19,19249
Mecklenburg-Vorpommern,19,19258
Mecklenburg-Vorpommern,19,19260
Mecklenburg-Vorpommern,19,19273
Mecklenburg-Vorpommern,19,19288
Mecklenburg-Vorpommern,19,19294
Mecklenburg-Vorpommern,19,19300
Mecklenburg-Vorpommern,19,19303
Mecklenburg-Vorpommern,19,19306
Mecklenburg-Vorpommern,19,19357
Mecklenburg-Vorpommern,19,19370
Mecklenburg-Vorpommern,19,19372
Mecklenburg-Vorpommern,19,19374
Mecklenburg-Vorpommern,19,19376
Mecklenburg-Vorpommern,19,19386
Mecklenburg-Vorpommern,19,19395
Mecklenburg-Vorpommern,19,19399
Mecklenburg-Vorpommern,19,19406
Mecklenburg-Vorpommern,19,19412
Mecklenburg-Vorpommern,19,19417
Mecklenburg-Vorpommern,23,23923
Mecklenburg-Vorpommern,23,23936
Mecklenburg-Vorpommern,23,23942
Mecklenburg-Vorpommern,23,23944
Mecklenburg-Vorpommern,23,23946
Mecklenburg-Vorpommern,23,23948
Mecklenburg-Vorpommern,23,23952
Mecklenburg-Vorpommern,23,23966
Mecklenburg-Vorpommern,23,23968
Mecklenburg-Vorpommern,23,23970
Mecklenburg-Vorpommern,23,23972
Mecklenburg-Vorpommern,23,23974
Mecklenburg-Vorpommern,23,23992
Mecklenburg-Vorpommern,23,23996
Mecklenburg-Vorpommern,23,23999
Niedersachsen,21,21217
Niedersachsen,21,21218
Niedersachsen,21,21220
Niedersachsen,21,21224
Niedersachsen,21,21227
Niedersachsen,21,21228
Niedersachsen,21,21244
Niedersachsen,21,21255
Niedersachsen,21,21256
Niedersachsen,21,21258
Niedersachsen,21,21259
Niedersachsen,21,21261
Niedersachsen,21,21266
Niedersachsen,21,21271
Niedersachsen,21,21272
Niedersachsen,21,21274
Niedersachsen,21,21279
Niedersachsen,21,21335
Niedersachsen,21,21337
Niedersachsen,21,21339
Niedersachsen,21,21354
Niedersachsen,21,21357
Niedersachsen,21,21358
Niedersachsen,21,21360
Niedersachsen,21,21365
Niedersachsen,21,21368
Niedersachsen,21,21369
Niedersachsen,21,21371
Niedersachsen,21,21376
Niedersachsen,21,21379
Niedersachsen,21,21380
Niedersachsen,21,21382
Niedersachsen,21,21385
Niedersachsen,21,21386
Niedersachsen,21,21388
Niedersachsen,21,21391
Niedersachsen,21,21394
Niedersachsen,21,21395
Niedersachsen,21,21397
Niedersachsen,21,21398
Niedersachsen,21,21400
Niedersachsen,21,21401
Niedersachsen,21,21403
Niedersachsen,21,21406
Niedersachsen,21,21407
Niedersachsen,21,21409
Niedersachsen,21,21423
Niedersachsen,21,21435
Niedersachsen,21,21436
Niedersachsen,21,21438
Niedersachsen,21,21439
Niedersachsen,21,21441
Niedersachsen,21,21442
Niedersachsen,21,21444
Niedersachsen,21,21445
Niedersachsen,21,21447
Niedersachsen,21,21449
Niedersachsen,21,21522
Niedersachsen,21,21614
Niedersachsen,21,21629
Niedersachsen,21,21635
Niedersachsen,21,21640
Niedersachsen,21,21641
Niedersachsen,21,21643
Niedersachsen,21,21644
Niedersachsen,21,21646
Niedersachsen,21,21647
Niedersachsen,21,21649
Niedersachsen,21,21680
Niedersachsen,21,21682
Niedersachsen,21,21683
Niedersachsen,21,21684
Niedersachsen,21,21698
Niedersachsen,21,21702
Niedersachsen,21,21706
Niedersachsen,21,21709
Niedersachsen,21,21710
Niedersachsen,21,21712
Niedersachsen,21,21714
Niedersachsen,21,21717
Niedersachsen,21,21720
Niedersachsen,21,21723
Niedersachsen,21,21726
Niedersachsen,21,21727
Niedersachsen,21,21729
Niedersachsen,21,21730
Niedersachsen,21,21732
Niedersachsen,21,21734
Niedersachsen,21,21737
Niedersachsen,21,21739
Niedersachsen,21,21745
Niedersachsen,21,21755
Niedersachsen,21,21756
Niedersachsen,21,21762
Niedersachsen,21,21763
Niedersachsen,21,21765
Niedersachsen,21,21769
Niedersachsen,21,21770
Niedersachsen,21,21772
Niedersachsen,21,21775
Niedersachsen,21,21776
Niedersachsen,21,21781
Niedersachsen,21,21782
Niedersachsen,21,21784
Niedersachsen,21,21785
Niedersachsen,21,21787
Niedersachsen,21,21789
Niedersachsen,26,26121
Niedersachsen,26,26122
Niedersachsen,26,26123
Niedersachsen,26,26125
Niedersachsen,26,26127
Niedersachsen,26,26129
Niedersachsen,26,26131
Niedersachsen,26,26133
Niedersachsen,26,26135
Niedersachsen,26,26160
Niedersachsen,26,26169
Niedersachsen,26,26180
Niedersachsen,26,26188
Niedersachsen,26,26197
Niedersachsen,26,26203
Niedersachsen,26,26209
Niedersachsen,26,26215
Niedersachsen,26,26219
Niedersachsen,26,26316
Niedersachsen,26,26340
Niedersachsen,26,26345
Niedersachsen,26,26349
Niedersachsen,26,26382
Niedersachsen,26,26384
Niedersachsen,26,26386
Niedersachsen,26,26388
Niedersachsen,26,26389
Niedersachsen,26,26409
Niedersachsen,26,26419
Niedersachsen,26,26427
Niedersachsen,26,26434
Niedersachsen,26,26441
Niedersachsen,26,26446
Niedersachsen,26,26452
Niedersachsen,26,26465
Niedersachsen,26,26474
Niedersachsen,26,26486
Niedersachsen,26,26487
Niedersachsen,26,26489
Niedersachsen,26,26506
Niedersachsen,26,26524
Niedersachsen,26,26529
Niedersachsen,26,26532
Niedersachsen,26,26548
Niedersachsen,26,26553
Niedersachsen,26,26556
Niedersachsen,26,26571
Niedersachsen,26,26579
Niedersachsen,26,26603
Niedersachsen,26,26605
Niedersachsen,26,26607
Niedersachsen,26,26624
Niedersachsen,26,26629
Niedersachsen,26,26632
Niedersachsen,26,26639
Niedersachsen,26,26655
Niedersachsen,26,26670
Niedersachsen,26,26676
Niedersachsen,26,26683
Niedersachsen,26,26689
Niedersachsen,26,26721
Niedersachsen,26,26723
Niedersachsen,26,26725
Niedersachsen,26,26736
Niedersachsen,26,26757
Niedersachsen,26,26759
Niedersachsen,26,26789
Niedersachsen,26,26802
Niedersachsen,26,26810
Niedersachsen,26,26817
Niedersachsen,26,26826
Niedersachsen,26,26831
Niedersachsen,26,26835
Niedersachsen,26,26842
Niedersachsen,26,26844
Niedersachsen,26,26845
Niedersachsen,26,26847
Niedersachsen,26,26849
Niedersachsen,26,26871
Niedersachsen,26,26892
Niedersachsen,26,26897
Niedersachsen,26,26899
Niedersachsen,26,26901
Niedersachsen,26,26903
Niedersachsen,26,26904
Niedersachsen,26,26906
Niedersachsen,26,26907
Niedersachsen,26,26909
Niedersachsen,26,26919
Niedersachsen,26,26931
Niedersachsen,26,26935
Niedersachsen,26,26936
Niedersachsen,26,26937
Niedersachsen,26,26939
Niedersachsen,26,26954
Niedersachsen,26,26969
Niedersachsen,27,27211
Niedersachsen,27,27232
Niedersachsen,27,27239
Niedersachsen,27,27243
Niedersachsen,27,27245
Niedersachsen,27,27246
Niedersachsen,27,27248
Niedersachsen,27,27249
Niedersachsen,27,27251
Niedersachsen,27,27252
Niedersachsen,27,27254
Niedersachsen,27,27257
Niedersachsen,27,27259
Niedersachsen,27,27283
Niedersachsen,27,27299
Niedersachsen,27,27305
Niedersachsen,27,27308
Niedersachsen,27,27313
Niedersachsen,27,27318
Niedersachsen,27,27321
Niedersachsen,27,27324
Niedersachsen,27,27327
Niedersachsen,27,27330
Niedersachsen,27,27333
Niedersachsen,27,27336
Niedersachsen,27,27337
Niedersachsen,27,27339
Niedersachsen,27,27356
Niedersachsen,27,27367
Niedersachsen,27,27374
Niedersachsen,27,27383
Niedersachsen,27,27386
Niedersachsen,27,27389
Niedersachsen,27,27404
Niedersachsen,27,27412
Niedersachsen,27,27419
Niedersachsen,27,27432
Niedersachsen,27,27442
Niedersachsen,27,27446
Niedersachsen,27,27449
Niedersachsen,27,27472
Niedersachsen,27,27474
Niedersachsen,27,27476
Niedersachsen,27,27478
Niedersachsen,27,27607
Niedersachsen,27,27612
Niedersachsen,27,27616
Niedersachsen,27,27619
Niedersachsen,27,27624
Niedersachsen,27,27628
Niedersachsen,27,27637
Niedersachsen,27,27638
Niedersachsen,27,27639
Niedersachsen,27,27711
Niedersachsen,27,27721
Niedersachsen,27,27726
Niedersachsen,27,27729
Niedersachsen,27,27749
Niedersachsen,27,27751
Niedersachsen,27,27753
Niedersachsen,27,27755
Niedersachsen,27,27777
Niedersachsen,27,27793
Niedersachsen,27,27798
Niedersachsen,27,27801
Niedersachsen,27,27804
Niedersachsen,27,27809
Niedersachsen,28,28790
Niedersachsen,28,28816
Niedersachsen,28,28832
Niedersachsen,28,28844
Niedersachsen,28,28857
Niedersachsen,28,28865
Niedersachsen,28,28870
Niedersachsen,28,28876
Niedersachsen,28,28879
Niedersachsen,29,29221
Niedersachsen,29,29223
Niedersachsen,29,29225
Niedersachsen,29,29227
Niedersachsen,29,29229
Niedersachsen,29,29303
Niedersachsen,29,29308
Niedersachsen,29,29313
Niedersachsen,29,29320
Niedersachsen,29,29323
Niedersachsen,29,29328
Niedersachsen,29,29331
Niedersachsen,29,29336
Niedersachsen,29,29339
Niedersachsen,29,29342
Niedersachsen,29,29345
Niedersachsen,29,29348
Niedersachsen,29,29351
Niedersachsen,29,29352
Niedersachsen,29,29353
Niedersachsen,29,29355
Niedersachsen,29,29356
Niedersachsen,29,29358
Niedersachsen,29,29359
Niedersachsen,29,29361
Niedersachsen,29,29362
Niedersachsen,29,29364
Niedersachsen,29,29365
Niedersachsen,29,29367
Niedersachsen,29,29369
Niedersachsen,29,29378
Niedersachsen,29,29379
Niedersachsen,29,29386
Niedersachsen,29,29389
Niedersachsen,29,29392
Niedersachsen,29,29393
Niedersachsen,29,29394
Niedersachsen,29,29396
Niedersachsen,29,29399
Niedersachsen,29,29439
Niedersachsen,29,29451
Niedersachsen,29,29456
Niedersachsen,29,29459
Niedersachsen,29,29462
Niedersachsen,29,29465
Niedersachsen,29,29468
Niedersachsen,29,29471
Niedersachsen,29,29472
Niedersachsen,29,29473
Niedersachsen,29,29475
Niedersachsen,29,29476
Niedersachsen,29,29478
Niedersachsen,29,29479
Niedersachsen,29,29481
Niedersachsen,29,29482
Niedersachsen,29,29484
Niedersachsen,29,29485
Niedersachsen,29,29487
Niedersachsen,29,29488
Niedersachsen,29,29490
Niedersachsen,29,29491
Niedersachsen,29,29493
Niedersachsen,29,29494
Niedersachsen,29,29496
Niedersachsen,29,29497
Niedersachsen,29,29499
Niedersachsen,29,29525
Niedersachsen,29,29549
Niedersachsen,29,29553
Niedersachsen,29,29556
Niedersachsen,29,29559
Niedersachsen,29,29562
Niedersachsen,29,29565
Niedersachsen,29,29568
Niedersachsen,29,29571
Niedersachsen,29,29574
Niedersachsen,29,29575
Niedersachsen,29,29576
Niedersachsen,29,29578
Niedersachsen,29,29579
Niedersachsen,29,29581
Niedersachsen,29,29582
Niedersachsen,29,29584
Niedersachsen,29,29585
Niedersachsen,29,29587
Niedersachsen,29,29588
Niedersachsen,29,29590
Niedersachsen,29,29591
Niedersachsen,29,29593
Niedersachsen,29,29594
Niedersachsen,29,29596
Niedersachsen,29,29597
Niedersachsen,29,29599
Niedersachsen,29,29614
Niedersachsen,29,29633
Niedersachsen,29,29640
Niedersachsen,29,29643
Niedersachsen,29,29646
Niedersachsen,29,29649
Niedersachsen,29,29664
Niedersachsen,29,29683
Niedersachsen,29,29690
Niedersachsen,29,29693
Niedersachsen,29,29699
Niedersachsen,30,30159
Niedersachsen,30,30161
Niedersachsen,30,30163
Niedersachsen,30,30165
Niedersachsen,30,30167
Niedersachsen,30,30169
Niedersachsen,30,30171
Niedersachsen,30,30173
Niedersachsen,30,30175
Niedersachsen,30,30177
Niedersachsen,30,30179
Niedersachsen,30,30419
Niedersachsen,30,30449
Niedersachsen,30,30451
Niedersachsen,30,30453
Niedersachsen,30,30455
Niedersachsen,30,30457
Niedersachsen,30,30459
Niedersachsen,30,30519
Niedersachsen,30,30521
Niedersachsen,30,30539
Niedersachsen,30,30559
Niedersachsen,30,30625
Niedersachsen,30,30627
Niedersachsen,30,30629
Niedersachsen,30,30655
Niedersachsen,30,30657
Niedersachsen,30,30659
Niedersachsen,30,30669
Niedersachsen,30,30823
Niedersachsen,30,30826
Niedersachsen,30,30827
Niedersachsen,30,30851
Niedersachsen,30,30853
Niedersachsen,30,30855
Niedersachsen,30,30880
Niedersachsen,30,30890
Niedersachsen,30,30900
Niedersachsen,30,30916
Niedersachsen,30,30926
Niedersachsen,30,30938
Niedersachsen,30,30952
Niedersachsen,30,30966
Niedersachsen,30,30974
Niedersachsen,30,30982
Niedersachsen,30,30989
Niedersachsen,31,31008
Niedersachsen,31,31020
Niedersachsen,31,31028
Niedersachsen,31,31029
Niedersachsen,31,31032
Niedersachsen,31,31033
Niedersachsen,31,31036
Niedersachsen,31,31039
Niedersachsen,31,31061
Niedersachsen,31,31073
Niedersachsen,31,31079
Niedersachsen,31,31084
Niedersachsen,31,31085
Niedersachsen,31,31088
Niedersachsen,31,31089
Niedersachsen,31,31091
Niedersachsen,31,31093
Niedersachsen,31,31094
Niedersachsen,31,31096
Niedersachsen,31,31097
Niedersachsen,31,31099
Niedersachsen,31,31134
Niedersachsen,31,31135
Niedersachsen,31,31137
Niedersachsen,31,31139
Niedersachsen,31,31141
Niedersachsen,31,31157
Niedersachsen,31,31162
Niedersachsen,31,31167
Niedersachsen,31,31171
Niedersachsen,31,31174
Niedersachsen,31,31177
Niedersachsen,31,31180
Niedersachsen,31,31185
Niedersachsen,31,31188
Niedersachsen,31,31191
Niedersachsen,31,31195
Niedersachsen,31,31196
Niedersachsen,31,31199
Niedersachsen,31,31224
Niedersachsen,31,31226
Niedersachsen,31,31228
Niedersachsen,31,31234
Niedersachsen,31,31241
Niedersachsen,31,31246
Niedersachsen,31,31249
Niedersachsen,31,31275
Niedersachsen,31,31303
Niedersachsen,31,31311
Niedersachsen,31,31319
Niedersachsen,31,31515
Niedersachsen,31,31535
Niedersachsen,31,31542
Niedersachsen,31,31547
Niedersachsen,31,31552
Niedersachsen,31,31553
Niedersachsen,31,31555
Niedersachsen,31,31556
Niedersachsen,31,31558
Niedersachsen,31,31559
Niedersachsen,31,31582
Niedersachsen,31,31592
Niedersachsen,31,31595
Niedersachsen,31,31600
Niedersachsen,31,31603
Niedersachsen,31,31604
Niedersachsen,31,31606
Niedersachsen,31,31608
Niedersachsen,31,31609
Niedersachsen,31,31613
Niedersachsen,31,31618
Niedersachsen,31,31619
Niedersachsen,31,31621
Niedersachsen,31,31622
Niedersachsen,31,31623
Niedersachsen,31,31626
Niedersachsen,31,31627
Niedersachsen,31,31628
Niedersachsen,31,31629
Niedersachsen,31,31632
Niedersachsen,31,31633
Niedersachsen,31,31634
Niedersachsen,31,31636
Niedersachsen,31,31637
Niedersachsen,31,31638
Niedersachsen,31,31655
Niedersachsen,31,31675
Niedersachsen,31,31683
Niedersachsen,31,31688
Niedersachsen,31,31691
Niedersachsen,31,31693
Niedersachsen,31,31698
Niedersachsen,31,31699
Niedersachsen,31,31700
Niedersachsen,31,31702
Niedersachsen,31,31707
Niedersachsen,31,31708
Niedersachsen,31,31710
Niedersachsen,31,31711
Niedersachsen,31,31712
Niedersachsen,31,31714
Niedersachsen,31,31715
Niedersachsen,31,31717
Niedersachsen,31,31718
Niedersachsen,31,31719
Niedersachsen,31,31737
Niedersachsen,31,31749
Niedersachsen,31,31785
Niedersachsen,31,31787
Niedersachsen,31,31789
Niedersachsen,31,31812
Niedersachsen,31,31832
Niedersachsen,31,31840
Niedersachsen,31,31848
Niedersachsen,31,31855
Niedersachsen,31,31860
Niedersachsen,31,31863
Niedersachsen,31,31867
Niedersachsen,31,31868
Niedersachsen,34,34346
Niedersachsen,34,34355
Niedersachsen,37,37073
Niedersachsen,37,37075
Niedersachsen,37,37077
Niedersachsen,37,37079
Niedersachsen,37,37081
Niedersachsen,37,37083
Niedersachsen,37,37085
Niedersachsen,37,37115
Niedersachsen,37,37120
Niedersachsen,37,37124
Niedersachsen,37,37127
Niedersachsen,37,37130
Niedersachsen,37,37133
Niedersachsen,37,37136
Niedersachsen,37,37139
Niedersachsen,37,37154
Niedersachsen,37,37170
Niedersachsen,37,37176
Niedersachsen,37,37181
Niedersachsen,37,37186
Niedersachsen,37,37191
Niedersachsen,37,37194
Niedersachsen,37,37197
Niedersachsen,37,37199
Niedersachsen,37,37412
Niedersachsen,37,37431
Niedersachsen,37,37434
Niedersachsen,37,37441
Niedersachsen,37,37444
Niedersachsen,37,37445
Niedersachsen,37,37447
Niedersachsen,37,37449
Niedersachsen,37,37520
Niedersachsen,37,37534
Niedersachsen,37,37539
Niedersachsen,37,37547
Niedersachsen,37,37574
Niedersachsen,37,37581
Niedersachsen,37,37586
Niedersachsen,37,37589
Niedersachsen,37,37603
Niedersachsen,37,37619
Niedersachsen,37,37620
Niedersachsen,37,37627
Niedersachsen,37,37632
Niedersachsen,37,37633
Niedersachsen,37,37635
Niedersachsen,37,37639
Niedersachsen,37,37640
Niedersachsen,37,37642
Niedersachsen,37,37643
Niedersachsen,37,37647
Niedersachsen,37,37649
Niedersachsen,37,37691
Niedersachsen,37,37697
Niedersachsen,37,37699
Niedersachsen,38,38023
Niedersachsen,38,38100
Niedersachsen,38,38102
Niedersachsen,38,38104
Niedersachsen,38,38106
Niedersachsen,38,38108
Niedersachsen,38,38110
Niedersachsen,38,38112
Niedersachsen,38,38114
Niedersachsen,38,38116
Niedersachsen,38,38118
Niedersachsen,38,38120
Niedersachsen,38,38122
Niedersachsen,38,38124
Niedersachsen,38,38126
Niedersachsen,38,38154
Niedersachsen,38,38159
Niedersachsen,38,38162
Niedersachsen,38,38165
Niedersachsen,38,38170
Niedersachsen,38,38173
Niedersachsen,38,38176
Niedersachsen,38,38179
Niedersachsen,38,38226
Niedersachsen,38,38228
Niedersachsen,38,38229
Niedersachsen,38,38239
Niedersachsen,38,38259
Niedersachsen,38,38268
Niedersachsen,38,38271
Niedersachsen,38,38272
Niedersachsen,38,38274
Niedersachsen,38,38275
Niedersachsen,38,38277
Niedersachsen,38,38279
Niedersachsen,38,38281
Niedersachsen,38,38300
Niedersachsen,38,38302
Niedersachsen,38,38304
Niedersachsen,38,38312
Niedersachsen,38,38315
Niedersachsen,38,38319
Niedersachsen,38,38321
Niedersachsen,38,38322
Niedersachsen,38,38324
Niedersachsen,38,38325
Niedersachsen,38,38327
Niedersachsen,38,38329
Niedersachsen,38,38350
Niedersachsen,38,38364
Niedersachsen,38,38368
Niedersachsen,38,38372
Niedersachsen,38,38373
Niedersachsen,38,38375
Niedersachsen,38,38376
Niedersachsen,38,38378
Niedersachsen,38,38379
Niedersachsen,38,38381
Niedersachsen,38,38382
Niedersachsen,38,38384
Niedersachsen,38,38385
Niedersachsen,38,38387
Niedersachsen,38,38388
Niedersachsen,38,38440
Niedersachsen,38,38442
Niedersachsen,38,38444
Niedersachsen,38,38446
Niedersachsen,38,38448
Niedersachsen,38,38458
Niedersachsen,38,38459
Niedersachsen,38,38461
Niedersachsen,38,38462
Niedersachsen,38,38464
Niedersachsen,38,38465
Niedersachsen,38,38467
Niedersachsen,38,38468
Niedersachsen,38,38470
Niedersachsen,38,38471
Niedersachsen,38,38473
Niedersachsen,38,38474
Niedersachsen,38,38476
Niedersachsen,38,38477
Niedersachsen,38,38479
Niedersachsen,38,38518
Niedersachsen,38,38524
Niedersachsen,38,38527
Niedersachsen,38,38528
Niedersachsen,38,38530
Niedersachsen,38,38531
Niedersachsen,38,38533
Niedersachsen,38,38536
Niedersachsen,38,38539
Niedersachsen,38,38542
Niedersachsen,38,38543
Niedersachsen,38,38547
Niedersachsen,38,38550
Niedersachsen,38,38551
Niedersachsen,38,38553
Niedersachsen,38,38554
Niedersachsen,38,38556
Niedersachsen,38,38557
Niedersachsen,38,38559
Niedersachsen,38,38640
Niedersachsen,38,38642
Niedersachsen,38,38644
Niedersachsen,38,38667
Niedersachsen,38,38678
Niedersachsen,38,38685
Niedersachsen,38,38690
Niedersachsen,38,38700
Niedersachsen,38,38704
Niedersachsen,38,38707
Niedersachsen,38,38709
Niedersachsen,38,38723
Niedersachsen,38,38729
Niedersachsen,48,48455
Niedersachsen,48,48465
Niedersachsen,48,48480
Niedersachsen,48,48488
Niedersachsen,48,48499
Niedersachsen,48,48527
Niedersachsen,48,48529
Niedersachsen,48,48531
Niedersachsen,49,49074
Niedersachsen,49,49076
Niedersachsen,49,49078
Niedersachsen,49,49080
Niedersachsen,49,49082
Niedersachsen,49,49084
Niedersachsen,49,49086
Niedersachsen,49,49088
Niedersachsen,49,49090
Niedersachsen,49,49124
Niedersachsen,49,49134
Niedersachsen,49,49143
Niedersachsen,49,49152
Niedersachsen,49,49163
Niedersachsen,49,49170
Niedersachsen,49,49176
Niedersachsen,49,49179
Niedersachsen,49,49186
Niedersachsen,49,49191
Niedersachsen,49,49196
Niedersachsen,49,49201
Niedersachsen,49,49205
Niedersachsen,49,49214
Niedersachsen,49,49219
Niedersachsen,49,49324
Niedersachsen,49,49326
Niedersachsen,49,49328
Niedersachsen,49,49356
Niedersachsen,49,49377
Niedersachsen,49,49393
Niedersachsen,49,49401
Niedersachsen,49,49406
Niedersachsen,49,49413
Niedersachsen,49,49419
Niedersachsen,49,49424
Niedersachsen,49,49429
Niedersachsen,49,49434
Niedersachsen,49,49439
Niedersachsen,49,49448
Niedersachsen,49,49451
Niedersachsen,49,49453
Niedersachsen,49,49456
Niedersachsen,49,49457
Niedersachsen,49,49459
Niedersachsen,49,49565
Niedersachsen,49,49577
Niedersachsen,49,49584
Niedersachsen,49,49586
Niedersachsen,49,49593
Niedersachsen,49,49594
Niedersachsen,49,49596
Niedersachsen,49,49597
Niedersachsen,49,49599
Niedersachsen,49,49610
Niedersachsen,49,49624
Niedersachsen,49,49626
Niedersachsen,49,49632
Niedersachsen,49,49635
Niedersachsen,49,49637
Niedersachsen,49,49638
Niedersachsen,49,49661
Niedersachsen,49,49681
Niedersachsen,49,49685
Niedersachsen,49,49688
Niedersachsen,49,49692
Niedersachsen,49,49696
Niedersachsen,49,49699
Niedersachsen,49,49716
Niedersachsen,49,49733
Niedersachsen,49,49740
Niedersachsen,49,49744
Niedersachsen,49,49751
Niedersachsen,49,49757
Niedersachsen,49,49762
Niedersachsen,49,49767
Niedersachsen,49,49770
Niedersachsen,49,49774
Niedersachsen,49,49777
Niedersachsen,49,49779
Niedersachsen,49,49808
Niedersachsen,49,49809
Niedersachsen,49,49811
Niedersachsen,49,49824
Niedersachsen,49,49828
Niedersachsen,49,49832
Niedersachsen,49,49835
Niedersachsen,49,49838
Niedersachsen,49,49843
Niedersachsen,49,49844
Niedersachsen,49,49846
Niedersachsen,49,49847
Niedersachsen,49,49849
Nordrhein-Westfalen,40,40210
Nordrhein-Westfalen,40,40211
Nordrhein-Westfalen,40,40212
Nordrhein-Westfalen,40,40213
Nordrhein-Westfalen,40,40215
Nordrhein-Westfalen,40,40217
Nordrhein-Westfalen,40,40219
Nordrhein-Westfalen,40,40221
Nordrhein-Westfalen,40,40223
Nordrhein-Westfalen,40,40225
Nordrhein-Westfalen,40,40227
Nordrhein-Westfalen,40,40229
Nordrhein-Westfalen,40,40231
Nordrhein-Westfalen,40,40233
Nordrhein-Westfalen,40,40235
Nordrhein-Westfalen,40,40237
Nordrhein-Westfalen,40,40239
Nordrhein-Westfalen,40,40468
Nordrhein-Westfalen,40,40470
Nordrhein-Westfalen,40,40472
Nordrhein-Westfalen,40,40474
Nordrhein-Westfalen,40,40476
Nordrhein-Westfalen,40,40477
Nordrhein-Westfalen,40,40479
Nordrhein-Westfalen,40,40489
Nordrhein-Westfalen,40,40545
Nordrhein-Westfalen,40,40547
Nordrhein-Westfalen,40,40549
Nordrhein-Westfalen,40,40589
Nordrhein-Westfalen,40,40591
Nordrhein-Westfalen,40,40593
Nordrhein-Westfalen,40,40595
Nordrhein-Westfalen,40,40597
Nordrhein-Westfalen,40,40599
Nordrhein-Westfalen,40,40625
Nordrhein-Westfalen,40,40627
Nordrhein-Westfalen,40,40629
Nordrhein-Westfalen,40,40667
Nordrhein-Westfalen,40,40668
Nordrhein-Westfalen,40,40670
Nordrhein-Westfalen,40,40699
Nordrhein-Westfalen,40,40721
Nordrhein-Westfalen,40,40723
Nordrhein-Westfalen,40,40724
Nordrhein-Westfalen,40,40764
Nordrhein-Westfalen,40,40789
Nordrhein-Westfalen,40,40822
Nordrhein-Westfalen,40,40832
Nordrhein-Westfalen,40,40878
Nordrhein-Westfalen,40,40880
Nordrhein-Westfalen,40,40882
Nordrhein-Westfalen,40,40883
Nordrhein-Westfalen,40,40885
Nordrhein-Westfalen,41,41061
Nordrhein-Westfalen,41,41063
Nordrhein-Westfalen,41,41065
Nordrhein-Westfalen,41,41066
Nordrhein-Westfalen,41,41068
Nordrhein-Westfalen,41,41069
Nordrhein-Westfalen,41,41169
Nordrhein-Westfalen,41,41179
Nordrhein-Westfalen,41,41189
Nordrhein-Westfalen,41,41199
Nordrhein-Westfalen,41,41236
Nordrhein-Westfalen,41,41238
Nordrhein-Westfalen,41,41239
Nordrhein-Westfalen,41,41334
Nordrhein-Westfalen,41,41352
Nordrhein-Westfalen,41,41363
Nordrhein-Westfalen,41,41366
Nordrhein-Westfalen,41,41372
Nordrhein-Westfalen,41,41379
Nordrhein-Westfalen,41,41460
Nordrhein-Westfalen,41,41462
Nordrhein-Westfalen,41,41464
Nordrhein-Westfalen,41,41466
Nordrhein-Westfalen,41,41468
Nordrhein-Westfalen,41,41469
Nordrhein-Westfalen,41,41470
Nordrhein-Westfalen,41,41472
Nordrhein-Westfalen,41,41515
Nordrhein-Westfalen,41,41516
Nordrhein-Westfalen,41,41517
Nordrhein-Westfalen,41,41539
Nordrhein-Westfalen,41,41540
Nordrhein-Westfalen,41,41541
Nordrhein-Westfalen,41,41542
Nordrhein-Westfalen,41,41564
Nordrhein-Westfalen,41,41569
Nordrhein-Westfalen,41,41747
Nordrhein-Westfalen,41,41748
Nordrhein-Westfalen,41,41749
Nordrhein-Westfalen,41,41751
Nordrhein-Westfalen,42,42103
Nordrhein-Westfalen,42,42105
Nordrhein-Westfalen,42,42107
Nordrhein-Westfalen,42,42109
Nordrhein-Westfalen,42,42111
Nordrhein-Westfalen,42,42113
Nordrhein-Westfalen,42,42115
Nordrhein-Westfalen,42,42117
Nordrhein-Westfalen,42,42119
Nordrhein-Westfalen,42,42275
Nordrhein-Westfalen,42,42277
Nordrhein-Westfalen,42,42279
Nordrhein-Westfalen,42,42281
Nordrhein-Westfalen,42,42283
Nordrhein-Westfalen,42,42285
Nordrhein-Westfalen,42,42287
Nordrhein-Westfalen,42,42289
Nordrhein-Westfalen,42,42327
Nordrhein-Westfalen,42,42329
Nordrhein-Westfalen,42,42349
Nordrhein-Westfalen,42,42369
Nordrhein-Westfalen,42,42389
Nordrhein-Westfalen,42,42399
Nordrhein-Westfalen,42,42489
Nordrhein-Westfalen,42,42549
Nordrhein-Westfalen,42,42551
Nordrhein-Westfalen,42,42553
Nordrhein-Westfalen,42,42555
Nordrhein-Westfalen,42,42579
Nordrhein-Westfalen,42,42651
Nordrhein-Westfalen,42,42653
Nordrhein-Westfalen,42,42655
Nordrhein-Westfalen,42,42657
Nordrhein-Westfalen,42,42659
Nordrhein-Westfalen,42,42697
Nordrhein-Westfalen,42,42699
Nordrhein-Westfalen,42,42719
Nordrhein-Westfalen,42,42781
Nordrhein-Westfalen,42,42853
Nordrhein-Westfalen,42,42855
Nordrhein-Westfalen,42,42857
Nordrhein-Westfalen,42,42859
Nordrhein-Westfalen,42,42897
Nordrhein-Westfalen,42,42899
Nordrhein-Westfalen,45,45127
Nordrhein-Westfalen,45,45128
Nordrhein-Westfalen,45,45130
Nordrhein-Westfalen,45,45131
Nordrhein-Westfalen,45,45133
Nordrhein-Westfalen,45,45134
Nordrhein-Westfalen,45,45136
Nordrhein-Westfalen,45,45138
Nordrhein-Westfalen,45,45139
Nordrhein-Westfalen,45,45141
Nordrhein-Westfalen,45,45143
Nordrhein-Westfalen,45,45144
Nordrhein-Westfalen,45,45145
Nordrhein-Westfalen,45,45147
Nordrhein-Westfalen,45,45149
Nordrhein-Westfalen,45,45219
Nordrhein-Westfalen,45,45239
Nordrhein-Westfalen,45,45257
Nordrhein-Westfalen,45,45259
Nordrhein-Westfalen,45,45276
Nordrhein-Westfalen,45,45277
Nordrhein-Westfalen,45,45279
Nordrhein-Westfalen,45,45289
Nordrhein-Westfalen,45,45307
Nordrhein-Westfalen,45,45309
Nordrhein-Westfalen,45,45326
Nordrhein-Westfalen,45,45327
Nordrhein-Westfalen,45,45329
Nordrhein-Westfalen,45,45355
Nordrhein-Westfalen,45,45356
Nordrhein-Westfalen,45,45357
Nordrhein-Westfalen,45,45359
Nordrhein-Westfalen,45,45403
Nordrhein-Westfalen,45,45468
Nordrhein-Westfalen,45,45470
Nordrhein-Westfalen,45,45472
Nordrhein-Westfalen,45,45473
Nordrhein-Westfalen,45,45475
Nordrhein-Westfalen,45,45476
Nordrhein-Westfalen,45,45478
Nordrhein-Westfalen,45,45479
Nordrhein-Westfalen,45,45481
Nordrhein-Westfalen,46,46045
Nordrhein-Westfalen,46,46047
Nordrhein-Westfalen,46,46049
Nordrhein-Westfalen,46,46117
Nordrhein-Westfalen,46,46119
Nordrhein-Westfalen,46,46145
Nordrhein-Westfalen,46,46147
Nordrhein-Westfalen,46,46149
Nordrhein-Westfalen,46,46446
Nordrhein-Westfalen,46,46459
Nordrhein-Westfalen,46,46483
Nordrhein-Westfalen,46,46485
Nordrhein-Westfalen,46,46487
Nordrhein-Westfalen,46,46499
Nordrhein-Westfalen,46,46509
Nordrhein-Westfalen,46,46514
Nordrhein-Westfalen,46,46519
Nordrhein-Westfalen,46,46535
Nordrhein-Westfalen,46,46537
Nordrhein-Westfalen,46,46539
Nordrhein-Westfalen,46,46562
Nordrhein-Westfalen,46,46569
Nordrhein-Westfalen,47,47051
Nordrhein-Westfalen,47,47053
Nordrhein-Westfalen,47,47055
Nordrhein-Westfalen,47,47057
Nordrhein-Westfalen,47,47058
Nordrhein-Westfalen,47,47059
Nordrhein-Westfalen,47,47119
Nordrhein-Westfalen,47,47137
Nordrhein-Westfalen,47,47138
Nordrhein-Westfalen,47,47139
Nordrhein-Westfalen,47,47166
Nordrhein-Westfalen,47,47167
Nordrhein-Westfalen,47,47169
Nordrhein-Westfalen,47,47178
Nordrhein-Westfalen,47,47179
Nordrhein-Westfalen,47,47198
Nordrhein-Westfalen,47,47199
Nordrhein-Westfalen,47,47226
Nordrhein-Westfalen,47,47228
Nordrhein-Westfalen,47,47229
Nordrhein-Westfalen,47,47239
Nordrhein-Westfalen,47,47249
Nordrhein-Westfalen,47,47259
Nordrhein-Westfalen,47,47269
Nordrhein-Westfalen,47,47279
Nordrhein-Westfalen,47,47441
Nordrhein-Westfalen,47,47443
Nordrhein-Westfalen,47,47445
Nordrhein-Westfalen,47,47447
Nordrhein-Westfalen,47,47475
Nordrhein-Westfalen,47,47495
Nordrhein-Westfalen,47,47506
Nordrhein-Westfalen,47,47509
Nordrhein-Westfalen,47,47533
Nordrhein-Westfalen,47,47546
Nordrhein-Westfalen,47,47551
Nordrhein-Westfalen,47,47559
Nordrhein-Westfalen,47,47574
Nordrhein-Westfalen,47,47589
Nordrhein-Westfalen,47,47608
Nordrhein-Westfalen,47,47623
Nordrhein-Westfalen,47,47624
Nordrhein-Westfalen,47,47625
Nordrhein-Westfalen,47,47626
Nordrhein-Westfalen,47,47627
Nordrhein-Westfalen,47,47638
Nordrhein-Westfalen,47,47647
Nordrhein-Westfalen,47,47652
Nordrhein-Westfalen,47,47661
Nordrhein-Westfalen,47,47665
Nordrhein-Westfalen,47,47669
Nordrhein-Westfalen,47,47798
Nordrhein-Westfalen,47,47799
Nordrhein-Westfalen,47,47800
Nordrhein-Westfalen,47,47802
Nordrhein-Westfalen,47,47803
Nordrhein-Westfalen,47,47804
Nordrhein-Westfalen,47,47805
Nordrhein-Westfalen,47,47807
Nordrhein-Westfalen,47,47809
Nordrhein-Westfalen,47,47829
Nordrhein-Westfalen,47,47839
Nordrhein-Westfalen,47,47877
Nordrhein-Westfalen,47,47906
Nordrhein-Westfalen,47,47918
Nordrhein-Westfalen,47,47929
Nordrhein-Westfalen,41,41812
Nordrhein-Westfalen,41,41836
Nordrhein-Westfalen,41,41844
Nordrhein-Westfalen,41,41849
Nordrhein-Westfalen,42,42477
Nordrhein-Westfalen,42,42499
Nordrhein-Westfalen,42,42799
Nordrhein-Westfalen,42,42929
Nordrhein-Westfalen,50,50126
Nordrhein-Westfalen,50,50127
Nordrhein-Westfalen,50,50129
Nordrhein-Westfalen,50,50169
Nordrhein-Westfalen,50,50170
Nordrhein-Westfalen,50,50171
Nordrhein-Westfalen,50,50181
Nordrhein-Westfalen,50,50189
Nordrhein-Westfalen,50,50226
Nordrhein-Westfalen,50,50259
Nordrhein-Westfalen,50,50321
Nordrhein-Westfalen,50,50354
Nordrhein-Westfalen,50,50374
Nordrhein-Westfalen,50,50389
Nordrhein-Westfalen,50,50667
Nordrhein-Westfalen,50,50668
Nordrhein-Westfalen,50,50670
Nordrhein-Westfalen,50,50672
Nordrhein-Westfalen,50,50674
Nordrhein-Westfalen,50,50676
Nordrhein-Westfalen,50,50677
Nordrhein-Westfalen,50,50678
Nordrhein-Westfalen,50,50679
Nordrhein-Westfalen,50,50733
Nordrhein-Westfalen,50,50735
Nordrhein-Westfalen,50,50737
Nordrhein-Westfalen,50,50739
Nordrhein-Westfalen,50,50765
Nordrhein-Westfalen,50,50767
Nordrhein-Westfalen,50,50769
Nordrhein-Westfalen,50,50823
Nordrhein-Westfalen,50,50825
Nordrhein-Westfalen,50,50827
Nordrhein-Westfalen,50,50829
Nordrhein-Westfalen,50,50858
Nordrhein-Westfalen,50,50859
Nordrhein-Westfalen,50,50931
Nordrhein-Westfalen,50,50933
Nordrhein-Westfalen,50,50935
Nordrhein-Westfalen,50,50937
Nordrhein-Westfalen,50,50939
Nordrhein-Westfalen,50,50968
Nordrhein-Westfalen,50,50969
Nordrhein-Westfalen,50,50996
Nordrhein-Westfalen,50,50997
Nordrhein-Westfalen,50,50999
Nordrhein-Westfalen,51,51061
Nordrhein-Westfalen,51,51063
Nordrhein-Westfalen,51,51065
Nordrhein-Westfalen,51,51067
Nordrhein-Westfalen,51,51069
Nordrhein-Westfalen,51,51103
Nordrhein-Westfalen,51,51105
Nordrhein-Westfalen,51,51107
Nordrhein-Westfalen,51,51109
Nordrhein-Westfalen,51,51143
Nordrhein-Westfalen,51,51145
Nordrhein-Westfalen,51,51147
Nordrhein-Westfalen,51,51149
Nordrhein-Westfalen,51,51371
Nordrhein-Westfalen,51,51373
Nordrhein-Westfalen,51,51375
Nordrhein-Westfalen,51,51377
Nordrhein-Westfalen,51,51379
Nordrhein-Westfalen,51,51381
Nordrhein-Westfalen,51,51399
Nordrhein-Westfalen,51,51427
Nordrhein-Westfalen,51,51429
Nordrhein-Westfalen,51,51465
Nordrhein-Westfalen,51,51467
Nordrhein-Westfalen,51,51469
Nordrhein-Westfalen,51,51491
Nordrhein-Westfalen,51,51503
Nordrhein-Westfalen,51,51515
Nordrhein-Westfalen,51,51519
Nordrhein-Westfalen,51,51545
Nordrhein-Westfalen,51,51570
Nordrhein-Westfalen,51,51580
Nordrhein-Westfalen,51,51588
Nordrhein-Westfalen,51,51597
Nordrhein-Westfalen,51,51643
Nordrhein-Westfalen,51,51645
Nordrhein-Westfalen,51,51647
Nordrhein-Westfalen,51,51674
Nordrhein-Westfalen,51,51688
Nordrhein-Westfalen,51,51702
Nordrhein-Westfalen,51,51709
Nordrhein-Westfalen,51,51766
Nordrhein-Westfalen,51,51789
Nordrhein-Westfalen,52,52062
Nordrhein-Westfalen,52,52064
Nordrhein-Westfalen,52,52066
Nordrhein-Westfalen,52,52068
Nordrhein-Westfalen,52,52070
Nordrhein-Westfalen,52,52072
Nordrhein-Westfalen,52,52074
Nordrhein-Westfalen,52,52076
Nordrhein-Westfalen,52,52078
Nordrhein-Westfalen,52,52080
Nordrhein-Westfalen,52,52134
Nordrhein-Westfalen,52,52146
Nordrhein-Westfalen,52,52152
Nordrhein-Westfalen,52,52156
Nordrhein-Westfalen,52,52159
Nordrhein-Westfalen,52,52222
Nordrhein-Westfalen,52,52223
Nordrhein-Westfalen,52,52224
Nordrhein-Westfalen,52,52249
Nordrhein-Westfalen,52,52349
Nordrhein-Westfalen,52,52351
Nordrhein-Westfalen,52,52353
Nordrhein-Westfalen,52,52355
Nordrhein-Westfalen,52,52372
Nordrhein-Westfalen,52,52379
Nordrhein-Westfalen,52,52382
Nordrhein-Westfalen,52,52385
Nordrhein-Westfalen,52,52388
Nordrhein-Westfalen,52,52391
Nordrhein-Westfalen,52,52393
Nordrhein-Westfalen,52,52396
Nordrhein-Westfalen,52,52399
Nordrhein-Westfalen,52,52428
Nordrhein-Westfalen,52,52441
Nordrhein-Westfalen,52,52445
Nordrhein-Westfalen,52,52457
Nordrhein-Westfalen,52,52459
Nordrhein-Westfalen,52,52477
Nordrhein-Westfalen,52,52499
Nordrhein-Westfalen,52,52511
Nordrhein-Westfalen,52,52525
Nordrhein-Westfalen,52,52531
Nordrhein-Westfalen,52,52538
Nordrhein-Westfalen,53,53111
Nordrhein-Westfalen,53,53113
Nordrhein-Westfalen,53,53115
Nordrhein-Westfalen,53,53117
Nordrhein-Westfalen,53,53119
Nordrhein-Westfalen,53,53121
Nordrhein-Westfalen,53,53123
Nordrhein-Westfalen,53,53125
Nordrhein-Westfalen,53,53127
Nordrhein-Westfalen,53,53129
Nordrhein-Westfalen,53,53173
Nordrhein-Westfalen,53,53175
Nordrhein-Westfalen,53,53177
Nordrhein-Westfalen,53,53179
Nordrhein-Westfalen,53,53225
Nordrhein-Westfalen,53,53227
Nordrhein-Westfalen,53,53229
Nordrhein-Westfalen,53,53332
Nordrhein-Westfalen,53,53340
Nordrhein-Westfalen,53,53343
Nordrhein-Westfalen,53,53347
Nordrhein-Westfalen,53,53359
Nordrhein-Westfalen,53,53604
Nordrhein-Westfalen,53,53639
Nordrhein-Westfalen,53,53721
Nordrhein-Westfalen,53,53757
Nordrhein-Westfalen,53,53773
Nordrhein-Westfalen,53,53783
Nordrhein-Westfalen,53,53797
Nordrhein-Westfalen,53,53804
Nordrhein-Westfalen,53,53809
Nordrhein-Westfalen,53,53819
Nordrhein-Westfalen,53,53840
Nordrhein-Westfalen,53,53842
Nordrhein-Westfalen,53,53844
Nordrhein-Westfalen,53,53859
Nordrhein-Westfalen,53,53879
Nordrhein-Westfalen,53,53881
Nordrhein-Westfalen,53,53894
Nordrhein-Westfalen,53,53902
Nordrhein-Westfalen,53,53909
Nordrhein-Westfalen,53,53913
Nordrhein-Westfalen,53,53919
Nordrhein-Westfalen,53,53925
Nordrhein-Westfalen,53,53937
Nordrhein-Westfalen,53,53940
Nordrhein-Westfalen,53,53945
Nordrhein-Westfalen,53,53947
Nordrhein-Westfalen,53,53949
Nordrhein-Westfalen,44,44575
Nordrhein-Westfalen,44,44577
Nordrhein-Westfalen,44,44579
Nordrhein-Westfalen,44,44581
Nordrhein-Westfalen,45,45657
Nordrhein-Westfalen,45,45659
Nordrhein-Westfalen,45,45661
Nordrhein-Westfalen,45,45663
Nordrhein-Westfalen,45,45665
Nordrhein-Westfalen,45,45699
Nordrhein-Westfalen,45,45701
Nordrhein-Westfalen,45,45711
Nordrhein-Westfalen,45,45721
Nordrhein-Westfalen,45,45731
Nordrhein-Westfalen,45,45739
Nordrhein-Westfalen,45,45768
Nordrhein-Westfalen,45,45770
Nordrhein-Westfalen,45,45772
Nordrhein-Westfalen,45,45879
Nordrhein-Westfalen,45,45881
Nordrhein-Westfalen,45,45883
Nordrhein-Westfalen,45,45884
Nordrhein-Westfalen,45,45886
Nordrhein-Westfalen,45,45888
Nordrhein-Westfalen,45,45889
Nordrhein-Westfalen,45,45891
Nordrhein-Westfalen,45,45892
Nordrhein-Westfalen,45,45894
Nordrhein-Westfalen,45,45896
Nordrhein-Westfalen,45,45897
Nordrhein-Westfalen,45,45899
Nordrhein-Westfalen,45,45964
Nordrhein-Westfalen,45,45966
Nordrhein-Westfalen,45,45968
Nordrhein-Westfalen,46,46236
Nordrhein-Westfalen,46,46238
Nordrhein-Westfalen,46,46240
Nordrhein-Westfalen,46,46242
Nordrhein-Westfalen,46,46244
Nordrhein-Westfalen,46,46282
Nordrhein-Westfalen,46,46284
Nordrhein-Westfalen,46,46286
Nordrhein-Westfalen,46,46325
Nordrhein-Westfalen,46,46342
Nordrhein-Westfalen,46,46348
Nordrhein-Westfalen,46,46354
Nordrhein-Westfalen,46,46359
Nordrhein-Westfalen,46,46395
Nordrhein-Westfalen,46,46397
Nordrhein-Westfalen,46,46399
Nordrhein-Westfalen,46,46414
Nordrhein-Westfalen,46,46419
Nordrhein-Westfalen,48,48079
Nordrhein-Westfalen,48,48143
Nordrhein-Westfalen,48,48145
Nordrhein-Westfalen,48,48147
Nordrhein-Westfalen,48,48149
Nordrhein-Westfalen,48,48151
Nordrhein-Westfalen,48,48153
Nordrhein-Westfalen,48,48155
Nordrhein-Westfalen,48,48157
Nordrhein-Westfalen,48,48159
Nordrhein-Westfalen,48,48161
Nordrhein-Westfalen,48,48163
Nordrhein-Westfalen,48,48165
Nordrhein-Westfalen,48,48167
Nordrhein-Westfalen,48,48231
Nordrhein-Westfalen,48,48249
Nordrhein-Westfalen,48,48268
Nordrhein-Westfalen,48,48282
Nordrhein-Westfalen,48,48291
Nordrhein-Westfalen,48,48301
Nordrhein-Westfalen,48,48308
Nordrhein-Westfalen,48,48317
Nordrhein-Westfalen,48,48324
Nordrhein-Westfalen,48,48329
Nordrhein-Westfalen,48,48336
Nordrhein-Westfalen,48,48341
Nordrhein-Westfalen,48,48346
Nordrhein-Westfalen,48,48351
Nordrhein-Westfalen,48,48356
Nordrhein-Westfalen,48,48361
Nordrhein-Westfalen,48,48366
Nordrhein-Westfalen,48,48369
Nordrhein-Westfalen,48,48429
Nordrhein-Westfalen,48,48431
Nordrhein-Westfalen,48,48432
Nordrhein-Westfalen,48,48477
Nordrhein-Westfalen,48,48485
Nordrhein-Westfalen,48,48493
Nordrhein-Westfalen,48,48496
Nordrhein-Westfalen,48,48565
Nordrhein-Westfalen,48,48599
Nordrhein-Westfalen,48,48607
Nordrhein-Westfalen,48,48612
Nordrhein-Westfalen,48,48619
Nordrhein-Westfalen,48,48624
Nordrhein-Westfalen,48,48629
Nordrhein-Westfalen,48,48653
Nordrhein-Westfalen,48,48683
Nordrhein-Westfalen,48,48691
Nordrhein-Westfalen,48,48703
Nordrhein-Westfalen,48,48712
Nordrhein-Westfalen,48,48720
Nordrhein-Westfalen,48,48727
Nordrhein-Westfalen,48,48734
Nordrhein-Westfalen,48,48739
Nordrhein-Westfalen,49,49477
Nordrhein-Westfalen,49,49479
Nordrhein-Westfalen,49,49492
Nordrhein-Westfalen,49,49497
Nordrhein-Westfalen,49,49504
Nordrhein-Westfalen,49,49509
Nordrhein-Westfalen,49,49525
Nordrhein-Westfalen,49,49536
Nordrhein-Westfalen,49,49545
Nordrhein-Westfalen,49,49549
Nordrhein-Westfalen,59,59227
Nordrhein-Westfalen,59,59229
Nordrhein-Westfalen,59,59269
Nordrhein-Westfalen,59,59302
Nordrhein-Westfalen,59,59320
Nordrhein-Westfalen,59,59329
Nordrhein-Westfalen,59,59348
Nordrhein-Westfalen,59,59387
Nordrhein-Westfalen,59,59394
Nordrhein-Westfalen,59,59399
Nordrhein-Westfalen,32,32049
Nordrhein-Westfalen,32,32051
Nordrhein-Westfalen,32,32052
Nordrhein-Westfalen,32,32105
Nordrhein-Westfalen,32,32107
Nordrhein-Westfalen,32,32108
Nordrhein-Westfalen,32,32120
Nordrhein-Westfalen,32,32130
Nordrhein-Westfalen,32,32139
Nordrhein-Westfalen,32,32257
Nordrhein-Westfalen,32,32278
Nordrhein-Westfalen,32,32289
Nordrhein-Westfalen,32,32312
Nordrhein-Westfalen,32,32339
Nordrhein-Westfalen,32,32351
Nordrhein-Westfalen,32,32361
Nordrhein-Westfalen,32,32369
Nordrhein-Westfalen,32,32423
Nordrhein-Westfalen,32,32425
Nordrhein-Westfalen,32,32427
Nordrhein-Westfalen,32,32429
Nordrhein-Westfalen,32,32457
Nordrhein-Westfalen,32,32469
Nordrhein-Westfalen,32,32479
Nordrhein-Westfalen,32,32545
Nordrhein-Westfalen,32,32547
Nordrhein-Westfalen,32,32549
Nordrhein-Westfalen,32,32584
Nordrhein-Westfalen,32,32602
Nordrhein-Westfalen,32,32609
Nordrhein-Westfalen,32,32657
Nordrhein-Westfalen,32,32676
Nordrhein-Westfalen,32,32683
Nordrhein-Westfalen,32,32689
Nordrhein-Westfalen,32,32694
Nordrhein-Westfalen,32,32699
Nordrhein-Westfalen,32,32756
Nordrhein-Westfalen,32,32758
Nordrhein-Westfalen,32,32760
Nordrhein-Westfalen,32,32791
Nordrhein-Westfalen,32,32805
Nordrhein-Westfalen,32,32816
Nordrhein-Westfalen,32,32825
Nordrhein-Westfalen,32,32832
Nordrhein-Westfalen,32,32839
Nordrhein-Westfalen,33,33014
Nordrhein-Westfalen,33,33034
Nordrhein-Westfalen,33,33039
Nordrhein-Westfalen,33,33098
Nordrhein-Westfalen,33,33100
Nordrhein-Westfalen,33,33102
Nordrhein-Westfalen,33,33104
Nordrhein-Westfalen,33,33106
Nordrhein-Westfalen,33,33129
Nordrhein-Westfalen,33,33142
Nordrhein-Westfalen,33,33154
Nordrhein-Westfalen,33,33161
Nordrhein-Westfalen,33,33165
Nordrhein-Westfalen,33,33175
Nordrhein-Westfalen,33,33178
Nordrhein-Westfalen,33,33181
Nordrhein-Westfalen,33,33184
Nordrhein-Westfalen,33,33189
Nordrhein-Westfalen,33,33311
Nordrhein-Westfalen,33,33330
Nordrhein-Westfalen,33,33332
Nordrhein-Westfalen,33,33334
Nordrhein-Westfalen,33,33335
Nordrhein-Westfalen,33,33378
Nordrhein-Westfalen,33,33397
Nordrhein-Westfalen,33,33415
Nordrhein-Westfalen,33,33428
Nordrhein-Westfalen,33,33442
Nordrhein-Westfalen,33,33449
Nordrhein-Westfalen,33,33519
Nordrhein-Westfalen,33,33602
Nordrhein-Westfalen,33,33604
Nordrhein-Westfalen,33,33605
Nordrhein-Westfalen,33,33607
Nordrhein-Westfalen,33,33609
Nordrhein-Westfalen,33,33611
Nordrhein-Westfalen,33,33613
Nordrhein-Westfalen,33,33615
Nordrhein-Westfalen,33,33617
Nordrhein-Westfalen,33,33619
Nordrhein-Westfalen,33,33647
Nordrhein-Westfalen,33,33649
Nordrhein-Westfalen,33,33659
Nordrhein-Westfalen,33,33689
Nordrhein-Westfalen,33,33699
Nordrhein-Westfalen,33,33719
Nordrhein-Westfalen,33,33729
Nordrhein-Westfalen,33,33739
Nordrhein-Westfalen,33,33758
Nordrhein-Westfalen,33,33775
Nordrhein-Westfalen,33,33790
Nordrhein-Westfalen,33,33803
Nordrhein-Westfalen,33,33813
Nordrhein-Westfalen,33,33818
Nordrhein-Westfalen,33,33824
Nordrhein-Westfalen,33,33829
Nordrhein-Westfalen,34,34414
Nordrhein-Westfalen,34,34434
Nordrhein-Westfalen,34,34439
Nordrhein-Westfalen,37,37671
Nordrhein-Westfalen,37,37688
Nordrhein-Westfalen,37,37696
Nordrhein-Westfalen,34,34431
Nordrhein-Westfalen,44,44135
Nordrhein-Westfalen,44,44137
Nordrhein-Westfalen,44,44139
Nordrhein-Westfalen,44,44141
Nordrhein-Westfalen,44,44143
Nordrhein-Westfalen,44,44145
Nordrhein-Westfalen,44,44147
Nordrhein-Westfalen,44,44149
Nordrhein-Westfalen,44,44225
Nordrhein-Westfalen,44,44227
Nordrhein-Westfalen,44,44229
Nordrhein-Westfalen,44,44263
Nordrhein-Westfalen,44,44265
Nordrhein-Westfalen,44,44267
Nordrhein-Westfalen,44,44269
Nordrhein-Westfalen,44,44287
Nordrhein-Westfalen,44,44289
Nordrhein-Westfalen,44,44309
Nordrhein-Westfalen,44,44319
Nordrhein-Westfalen,44,44328
Nordrhein-Westfalen,44,44329
Nordrhein-Westfalen,44,44339
Nordrhein-Westfalen,44,44357
Nordrhein-Westfalen,44,44359
Nordrhein-Westfalen,44,44369
Nordrhein-Westfalen,44,44379
Nordrhein-Westfalen,44,44388
Nordrhein-Westfalen,44,44532
Nordrhein-Westfalen,44,44534
Nordrhein-Westfalen,44,44536
Nordrhein-Westfalen,44,44623
Nordrhein-Westfalen,44,44625
Nordrhein-Westfalen,44,44627
Nordrhein-Westfalen,44,44628
Nordrhein-Westfalen,44,44629
Nordrhein-Westfalen,44,44649
Nordrhein-Westfalen,44,44651
Nordrhein-Westfalen,44,44652
Nordrhein-Westfalen,44,44653
Nordrhein-Westfalen,44,44787
Nordrhein-Westfalen,44,44789
Nordrhein-Westfalen,44,44791
Nordrhein-Westfalen,44,44793
Nordrhein-Westfalen,44,44795
Nordrhein-Westfalen,44,44797
Nordrhein-Westfalen,44,44799
Nordrhein-Westfalen,44,44801
Nordrhein-Westfalen,44,44803
Nordrhein-Westfalen,44,44805
Nordrhein-Westfalen,44,44807
Nordrhein-Westfalen,44,44809
Nordrhein-Westfalen,44,44866
Nordrhein-Westfalen,44,44867
Nordrhein-Westfalen,44,44869
Nordrhein-Westfalen,44,44879
Nordrhein-Westfalen,44,44892
Nordrhein-Westfalen,44,44894
Nordrhein-Westfalen,45,45525
Nordrhein-Westfalen,45,45527
Nordrhein-Westfalen,45,45529
Nordrhein-Westfalen,45,45549
Nordrhein-Westfalen,57,57072
Nordrhein-Westfalen,57,57074
Nordrhein-Westfalen,57,57076
Nordrhein-Westfalen,57,57078
Nordrhein-Westfalen,57,57080
Nordrhein-Westfalen,57,57223
Nordrhein-Westfalen,57,57234
Nordrhein-Westfalen,57,57250
Nordrhein-Westfalen,57,57258
Nordrhein-Westfalen,57,57271
Nordrhein-Westfalen,57,57290
Nordrhein-Westfalen,57,57299
Nordrhein-Westfalen,57,57319
Nordrhein-Westfalen,57,57334
Nordrhein-Westfalen,57,57339
Nordrhein-Westfalen,57,57368
Nordrhein-Westfalen,57,57392
Nordrhein-Westfalen,57,57399
Nordrhein-Westfalen,57,57413
Nordrhein-Westfalen,57,57439
Nordrhein-Westfalen,57,57462
Nordrhein-Westfalen,57,57482
Nordrhein-Westfalen,57,57489
Nordrhein-Westfalen,58,58089
Nordrhein-Westfalen,58,58091
Nordrhein-Westfalen,58,58093
Nordrhein-Westfalen,58,58095
Nordrhein-Westfalen,58,58097
Nordrhein-Westfalen,58,58099
Nordrhein-Westfalen,58,58119
Nordrhein-Westfalen,58,58135
Nordrhein-Westfalen,58,58239
Nordrhein-Westfalen,58,58256
Nordrhein-Westfalen,58,58285
Nordrhein-Westfalen,58,58300
Nordrhein-Westfalen,58,58313
Nordrhein-Westfalen,58,58332
Nordrhein-Westfalen,58,58339
Nordrhein-Westfalen,58,58452
Nordrhein-Westfalen,58,58453
Nordrhein-Westfalen,58,58454
Nordrhein-Westfalen,58,58455
Nordrhein-Westfalen,58,58456
Nordrhein-Westfalen,58,58507
Nordrhein-Westfalen,58,58509
Nordrhein-Westfalen,58,58511
Nordrhein-Westfalen,58,58513
Nordrhein-Westfalen,58,58515
Nordrhein-Westfalen,58,58540
Nordrhein-Westfalen,58,58553
Nordrhein-Westfalen,58,58566
Nordrhein-Westfalen,58,58579
Nordrhein-Westfalen,58,58636
Nordrhein-Westfalen,58,58638
Nordrhein-Westfalen,58,58640
Nordrhein-Westfalen,58,58642
Nordrhein-Westfalen,58,58644
Nordrhein-Westfalen,58,58675
Nordrhein-Westfalen,58,58706
Nordrhein-Westfalen,58,58708
Nordrhein-Westfalen,58,58710
Nordrhein-Westfalen,58,58730
Nordrhein-Westfalen,58,58739
Nordrhein-Westfalen,58,58762
Nordrhein-Westfalen,58,58769
Nordrhein-Westfalen,58,58791
Nordrhein-Westfalen,58,58802
Nordrhein-Westfalen,58,58809
Nordrhein-Westfalen,58,58840
Nordrhein-Westfalen,58,58849
Nordrhein-Westfalen,59,59063
Nordrhein-Westfalen,59,59065
Nordrhein-Westfalen,59,59067
Nordrhein-Westfalen,59,59069
Nordrhein-Westfalen,59,59071
Nordrhein-Westfalen,59,59073
Nordrhein-Westfalen,59,59075
Nordrhein-Westfalen,59,59077
Nordrhein-Westfalen,59,59174
Nordrhein-Westfalen,59,59192
Nordrhein-Westfalen,59,59199
Nordrhein-Westfalen,59,59368
Nordrhein-Westfalen,59,59379
Nordrhein-Westfalen,59,59423
Nordrhein-Westfalen,59,59425
Nordrhein-Westfalen,59,59427
Nordrhein-Westfalen,59,59439
Nordrhein-Westfalen,59,59457
Nordrhein-Westfalen,59,59469
Nordrhein-Westfalen,59,59494
Nordrhein-Westfalen,59,59505
Nordrhein-Westfalen,59,59510
Nordrhein-Westfalen,59,59514
Nordrhein-Westfalen,59,59519
Nordrhein-Westfalen,59,59555
Nordrhein-Westfalen,59,59556
Nordrhein-Westfalen,59,59557
Nordrhein-Westfalen,59,59558
Nordrhein-Westfalen,59,59581
Nordrhein-Westfalen,59,59590
Nordrhein-Westfalen,59,59597
Nordrhein-Westfalen,59,59602
Nordrhein-Westfalen,59,59609
Nordrhein-Westfalen,59,59755
Nordrhein-Westfalen,59,59757
Nordrhein-Westfalen,59,59759
Nordrhein-Westfalen,59,59821
Nordrhein-Westfalen,59,59823
Nordrhein-Westfalen,59,59846
Nordrhein-Westfalen,59,59872
Nordrhein-Westfalen,59,59889
Nordrhein-Westfalen,59,59909
Nordrhein-Westfalen,59,59929
Nordrhein-Westfalen,59,59939
Nordrhein-Westfalen,59,59955
Nordrhein-Westfalen,59,59964
Nordrhein-Westfalen,59,59969
Rheinland-Pfalz,51,51598
Rheinland-Pfalz,53,53424
Rheinland-Pfalz,53,53426
Rheinland-Pfalz,53,53474
Rheinland-Pfalz,53,53489
Rheinland-Pfalz,53,53498
Rheinland-Pfalz,53,53501
Rheinland-Pfalz,53,53505
Rheinland-Pfalz,53,53506
Rheinland-Pfalz,53,53507
Rheinland-Pfalz,53,53508
Rheinland-Pfalz,53,53518
Rheinland-Pfalz,53,53520
Rheinland-Pfalz,53,53533
Rheinland-Pfalz,53,53534
Rheinland-Pfalz,53,53539
Rheinland-Pfalz,53,53545
Rheinland-Pfalz,53,53547
Rheinland-Pfalz,53,53557
Rheinland-Pfalz,53,53560
Rheinland-Pfalz,53,53562
Rheinland-Pfalz,53,53567
Rheinland-Pfalz,53,53572
Rheinland-Pfalz,53,53577
Rheinland-Pfalz,53,53578
Rheinland-Pfalz,53,53579
Rheinland-Pfalz,53,53619
Rheinland-Pfalz,54,54290
Rheinland-Pfalz,54,54292
Rheinland-Pfalz,54,54293
Rheinland-Pfalz,54,54294
Rheinland-Pfalz,54,54295
Rheinland-Pfalz,54,54296
Rheinland-Pfalz,54,54298
Rheinland-Pfalz,54,54306
Rheinland-Pfalz,54,54308
Rheinland-Pfalz,54,54309
Rheinland-Pfalz,54,54310
Rheinland-Pfalz,54,54311
Rheinland-Pfalz,54,54313
Rheinland-Pfalz,54,54314
Rheinland-Pfalz,54,54316
Rheinland-Pfalz,54,54317
Rheinland-Pfalz,54,54318
Rheinland-Pfalz,54,54320
Rheinland-Pfalz,54,54329
Rheinland-Pfalz,54,54331
Rheinland-Pfalz,54,54332
Rheinland-Pfalz,54,54338
Rheinland-Pfalz,54,54340
Rheinland-Pfalz,54,54341
Rheinland-Pfalz,54,54343
Rheinland-Pfalz,54,54344
Rheinland-Pfalz,54,54346
Rheinland-Pfalz,54,54347
Rheinland-Pfalz,54,54349
Rheinland-Pfalz,54,54411
Rheinland-Pfalz,54,54413
Rheinland-Pfalz,54,54421
Rheinland-Pfalz,54,54422
Rheinland-Pfalz,54,54424
Rheinland-Pfalz,54,54426
Rheinland-Pfalz,54,54427
Rheinland-Pfalz,54,54429
Rheinland-Pfalz,54,54439
Rheinland-Pfalz,54,54441
Rheinland-Pfalz,54,54450
Rheinland-Pfalz,54,54451
Rheinland-Pfalz,54,54453
Rheinland-Pfalz,54,54455
Rheinland-Pfalz,54,54456
Rheinland-Pfalz,54,54457
Rheinland-Pfalz,54,54459
Rheinland-Pfalz,54,54470
Rheinland-Pfalz,54,54472
Rheinland-Pfalz,54,54483
Rheinland-Pfalz,54,54484
Rheinland-Pfalz,54,54486
Rheinland-Pfalz,54,54487
Rheinland-Pfalz,54,54492
Rheinland-Pfalz,54,54497
Rheinland-Pfalz,54,54498
Rheinland-Pfalz,54,54516
Rheinland-Pfalz,54,54518
Rheinland-Pfalz,54,54523
Rheinland-Pfalz,54,54524
Rheinland-Pfalz,54,54526
Rheinland-Pfalz,54,54528
Rheinland-Pfalz,54,54529
Rheinland-Pfalz,54,54531
Rheinland-Pfalz,54,54533
Rheinland-Pfalz,54,54534
Rheinland-Pfalz,54,54536
Rheinland-Pfalz,54,54538
Rheinland-Pfalz,54,54539
Rheinland-Pfalz,54,54550
Rheinland-Pfalz,54,54552
Rheinland-Pfalz,54,54558
Rheinland-Pfalz,54,54568
Rheinland-Pfalz,54,54570
Rheinland-Pfalz,54,54574
Rheinland-Pfalz,54,54576
Rheinland-Pfalz,54,54578
Rheinland-Pfalz,54,54579
Rheinland-Pfalz,54,54584
Rheinland-Pfalz,54,54585
Rheinland-Pfalz,54,54586
Rheinland-Pfalz,54,54587
Rheinland-Pfalz,54,54589
Rheinland-Pfalz,54,54595
Rheinland-Pfalz,54,54597
Rheinland-Pfalz,54,54608
Rheinland-Pfalz,54,54610
Rheinland-Pfalz,54,54611
Rheinland-Pfalz,54,54612
Rheinland-Pfalz,54,54614
Rheinland-Pfalz,54,54616
Rheinland-Pfalz,54,54617
Rheinland-Pfalz,54,54619
Rheinland-Pfalz,54,54634
Rheinland-Pfalz,54,54636
Rheinland-Pfalz,54,54646
Rheinland-Pfalz,54,54647
Rheinland-Pfalz,54,54649
Rheinland-Pfalz,54,54655
Rheinland-Pfalz,54,54657
Rheinland-Pfalz,54,54662
Rheinland-Pfalz,54,54664
Rheinland-Pfalz,54,54666
Rheinland-Pfalz,54,54668
Rheinland-Pfalz,54,54669
Rheinland-Pfalz,54,54673
Rheinland-Pfalz,54,54675
Rheinland-Pfalz,54,54687
Rheinland-Pfalz,54,54689
Rheinland-Pfalz,55,55116
Rheinland-Pfalz,55,55118
Rheinland-Pfalz,55,55120
Rheinland-Pfalz,55,55122
Rheinland-Pfalz,55,55124
Rheinland-Pfalz,55,55126
Rheinland-Pfalz,55,55127
Rheinland-Pfalz,55,55128
Rheinland-Pfalz,55,55129
Rheinland-Pfalz,55,55130
Rheinland-Pfalz,55,55131
Rheinland-Pfalz,55,55218
Rheinland-Pfalz,55,55232
Rheinland-Pfalz,55,55234
Rheinland-Pfalz,55,55237
Rheinland-Pfalz,55,55239
Rheinland-Pfalz,55,55257
Rheinland-Pfalz,55,55262
Rheinland-Pfalz,55,55263
Rheinland-Pfalz,55,55268
Rheinland-Pfalz,55,55270
Rheinland-Pfalz,55,55271
Rheinland-Pfalz,55,55276
Rheinland-Pfalz,55,55278
Rheinland-Pfalz,55,55283
Rheinland-Pfalz,55,55286
Rheinland-Pfalz,55,55288
Rheinland-Pfalz,55,55291
Rheinland-Pfalz,55,55294
Rheinland-Pfalz,55,55296
Rheinland-Pfalz,55,55299
Rheinland-Pfalz,55,55411
Rheinland-Pfalz,55,55413
Rheinland-Pfalz,55,55422
Rheinland-Pfalz,55,55424
Rheinland-Pfalz,55,55425
Rheinland-Pfalz,55,55430
Rheinland-Pfalz,55,55432
Rheinland-Pfalz,55,55435
Rheinland-Pfalz,55,55437
Rheinland-Pfalz,55,55442
Rheinland-Pfalz,55,55444
Rheinland-Pfalz,55,55450
Rheinland-Pfalz,55,55452
Rheinland-Pfalz,55,55457
Rheinland-Pfalz,55,55459
Rheinland-Pfalz,55,55469
Rheinland-Pfalz,55,55471
Rheinland-Pfalz,55,55481
Rheinland-Pfalz,55,55483
Rheinland-Pfalz,55,55487
Rheinland-Pfalz,55,55490
Rheinland-Pfalz,55,55491
Rheinland-Pfalz,55,55494
Rheinland-Pfalz,55,55496
Rheinland-Pfalz,55,55497
Rheinland-Pfalz,55,55499
Rheinland-Pfalz,55,55543
Rheinland-Pfalz,55,55545
Rheinland-Pfalz,55,55546
Rheinland-Pfalz,55,55559
Rheinland-Pfalz,55,55566
Rheinland-Pfalz,55,55568
Rheinland-Pfalz,55,55569
Rheinland-Pfalz,55,55571
Rheinland-Pfalz,55,55576
Rheinland-Pfalz,55,55578
Rheinland-Pfalz,55,55583
Rheinland-Pfalz,55,55585
Rheinland-Pfalz,55,55590
Rheinland-Pfalz,55,55592
Rheinland-Pfalz,55,55593
Rheinland-Pfalz,55,55595
Rheinland-Pfalz,55,55596
Rheinland-Pfalz,55,55597
Rheinland-Pfalz,55,55599
Rheinland-Pfalz,55,55606
Rheinland-Pfalz,55,55608
Rheinland-Pfalz,55,55618
Rheinland-Pfalz,55,55619
Rheinland-Pfalz,55,55621
Rheinland-Pfalz,55,55624
Rheinland-Pfalz,55,55626
Rheinland-Pfalz,55,55627
Rheinland-Pfalz,55,55629
Rheinland-Pfalz,55,55743
Rheinland-Pfalz,55,55756
Rheinland-Pfalz,55,55758
Rheinland-Pfalz,55,55765
Rheinland-Pfalz,55,55767
Rheinland-Pfalz,55,55768
Rheinland-Pfalz,55,55774
Rheinland-Pfalz,55,55776
Rheinland-Pfalz,55,55777
Rheinland-Pfalz,55,55779
Rheinland-Pfalz,56,56068
Rheinland-Pfalz,56,56070
Rheinland-Pfalz,56,56072
Rheinland-Pfalz,56,56073
Rheinland-Pfalz,56,56075
Rheinland-Pfalz,56,56076
Rheinland-Pfalz,56,56077
Rheinland-Pfalz,56,56112
Rheinland-Pfalz,56,56130
Rheinland-Pfalz,56,56132
Rheinland-Pfalz,56,56133
Rheinland-Pfalz,56,56154
Rheinland-Pfalz,56,56170
Rheinland-Pfalz,56,56179
Rheinland-Pfalz,56,56182
Rheinland-Pfalz,56,56191
Rheinland-Pfalz,56,56203
Rheinland-Pfalz,56,56204
Rheinland-Pfalz,56,56206
Rheinland-Pfalz,56,56218
Rheinland-Pfalz,56,56220
Rheinland-Pfalz,56,56235
Rheinland-Pfalz,56,56237
Rheinland-Pfalz,56,56242
Rheinland-Pfalz,56,56244
Rheinland-Pfalz,56,56249
Rheinland-Pfalz,56,56253
Rheinland-Pfalz,56,56254
Rheinland-Pfalz,56,56269
Rheinland-Pfalz,56,56271
Rheinland-Pfalz,56,56276
Rheinland-Pfalz,56,56281
Rheinland-Pfalz,56,56283
Rheinland-Pfalz,56,56288
Rheinland-Pfalz,56,56290
Rheinland-Pfalz,56,56291
Rheinland-Pfalz,56,56294
Rheinland-Pfalz,56,56295
Rheinland-Pfalz,56,56299
Rheinland-Pfalz,56,56305
Rheinland-Pfalz,56,56307
Rheinland-Pfalz,56,56316
Rheinland-Pfalz,56,56317
Rheinland-Pfalz,56,56321
Rheinland-Pfalz,56,56322
Rheinland-Pfalz,56,56323
Rheinland-Pfalz,56,56329
Rheinland-Pfalz,56,56330
Rheinland-Pfalz,56,56332
Rheinland-Pfalz,56,56333
Rheinland-Pfalz,56,56335
Rheinland-Pfalz,56,56337
Rheinland-Pfalz,56,56338
Rheinland-Pfalz,56,56340
Rheinland-Pfalz,56,56341
Rheinland-Pfalz,56,56346
Rheinland-Pfalz,56,56348
Rheinland-Pfalz,56,56349
Rheinland-Pfalz,56,56355
Rheinland-Pfalz,56,56357
Rheinland-Pfalz,56,56368
Rheinland-Pfalz,56,56370
Rheinland-Pfalz,56,56377
Rheinland-Pfalz,56,56379
Rheinland-Pfalz,56,56410
Rheinland-Pfalz,56,56412
Rheinland-Pfalz,56,56414
Rheinland-Pfalz,56,56422
Rheinland-Pfalz,56,56424
Rheinland-Pfalz,56,56427
Rheinland-Pfalz,56,56428
Rheinland-Pfalz,56,56457
Rheinland-Pfalz,56,56459
Rheinland-Pfalz,56,56462
Rheinland-Pfalz,56,56470
Rheinland-Pfalz,56,56472
Rheinland-Pfalz,56,56477
Rheinland-Pfalz,56,56479
Rheinland-Pfalz,56,56564
Rheinland-Pfalz,56,56566
Rheinland-Pfalz,56,56567
Rheinland-Pfalz,56,56575
Rheinland-Pfalz,56,56579
Rheinland-Pfalz,56,56581
Rheinland-Pfalz,56,56584
Rheinland-Pfalz,56,56587
Rheinland-Pfalz,56,56588
Rheinland-Pfalz,56,56589
Rheinland-Pfalz,56,56593
Rheinland-Pfalz,56,56594
Rheinland-Pfalz,56,56598
Rheinland-Pfalz,56,56599
Rheinland-Pfalz,56,56626
Rheinland-Pfalz,56,56630
Rheinland-Pfalz,56,56637
Rheinland-Pfalz,56,56642
Rheinland-Pfalz,56,56645
Rheinland-Pfalz,56,56648
Rheinland-Pfalz,56,56651
Rheinland-Pfalz,56,56653
Rheinland-Pfalz,56,56656
Rheinland-Pfalz,56,56659
Rheinland-Pfalz,56,56727
Rheinland-Pfalz,56,56729
Rheinland-Pfalz,56,56736
Rheinland-Pfalz,56,56743
Rheinland-Pfalz,56,56745
Rheinland-Pfalz,56,56746
Rheinland-Pfalz,56,56751
Rheinland-Pfalz,56,56753
Rheinland-Pfalz,56,56754
Rheinland-Pfalz,56,56759
Rheinland-Pfalz,56,56761
Rheinland-Pfalz,56,56766
Rheinland-Pfalz,56,56767
Rheinland-Pfalz,56,56769
Rheinland-Pfalz,56,56812
Rheinland-Pfalz,56,56814
Rheinland-Pfalz,56,56818
Rheinland-Pfalz,56,56820
Rheinland-Pfalz,56,56821
Rheinland-Pfalz,56,56823
Rheinland-Pfalz,56,56825
Rheinland-Pfalz,56,56826
Rheinland-Pfalz,56,56828
Rheinland-Pfalz,56,56829
Rheinland-Pfalz,56,56841
Rheinland-Pfalz,56,56843
Rheinland-Pfalz,56,56850
Rheinland-Pfalz,56,56856
Rheinland-Pfalz,56,56858
Rheinland-Pfalz,56,56859
Rheinland-Pfalz,56,56861
Rheinland-Pfalz,56,56862
Rheinland-Pfalz,56,56864
Rheinland-Pfalz,56,56865
Rheinland-Pfalz,56,56867
Rheinland-Pfalz,56,56869
Rheinland-Pfalz,57,57518
Rheinland-Pfalz,57,57520
Rheinland-Pfalz,57,57537
Rheinland-Pfalz,57,57539
Rheinland-Pfalz,57,57548
Rheinland-Pfalz,57,57555
Rheinland-Pfalz,57,57562
Rheinland-Pfalz,57,57567
Rheinland-Pfalz,57,57572
Rheinland-Pfalz,57,57577
Rheinland-Pfalz,57,57578
Rheinland-Pfalz,57,57580
Rheinland-Pfalz,57,57581
Rheinland-Pfalz,57,57583
Rheinland-Pfalz,57,57584
Rheinland-Pfalz,57,57586
Rheinland-Pfalz,57,57587
Rheinland-Pfalz,57,57589
Rheinland-Pfalz,57,57610
Rheinland-Pfalz,57,57612
Rheinland-Pfalz,57,57614
Rheinland-Pfalz,57,57627
Rheinland-Pfalz,57,57629
Rheinland-Pfalz,57,57632
Rheinland-Pfalz,57,57635
Rheinland-Pfalz,57,57636
Rheinland-Pfalz,57,57638
Rheinland-Pfalz,57,57639
Rheinland-Pfalz,57,57641
Rheinland-Pfalz,57,57642
Rheinland-Pfalz,57,57644
Rheinland-Pfalz,57,57645
Rheinland-Pfalz,57,57647
Rheinland-Pfalz,57,57648
Rheinland-Pfalz,65,65558
Rheinland-Pfalz,65,65582
Rheinland-Pfalz,65,65623
Rheinland-Pfalz,65,65624
Rheinland-Pfalz,65,65626
Rheinland-Pfalz,65,65629
Rheinland-Pfalz,66,66482
Rheinland-Pfalz,66,66484
Rheinland-Pfalz,66,66497
Rheinland-Pfalz,66,66500
Rheinland-Pfalz,66,66501
Rheinland-Pfalz,66,66503
Rheinland-Pfalz,66,66504
Rheinland-Pfalz,66,66506
Rheinland-Pfalz,66,66507
Rheinland-Pfalz,66,66509
Rheinland-Pfalz,66,66849
Rheinland-Pfalz,66,66851
Rheinland-Pfalz,66,66862
Rheinland-Pfalz,66,66869
Rheinland-Pfalz,66,66871
Rheinland-Pfalz,66,66877
Rheinland-Pfalz,66,66879
Rheinland-Pfalz,66,66882
Rheinland-Pfalz,66,66885
Rheinland-Pfalz,66,66887
Rheinland-Pfalz,66,66892
Rheinland-Pfalz,66,66894
Rheinland-Pfalz,66,66901
Rheinland-Pfalz,66,66903
Rheinland-Pfalz,66,66904
Rheinland-Pfalz,66,66907
Rheinland-Pfalz,66,66909
Rheinland-Pfalz,66,66914
Rheinland-Pfalz,66,66916
Rheinland-Pfalz,66,66917
Rheinland-Pfalz,66,66919
Rheinland-Pfalz,66,66953
Rheinland-Pfalz,66,66954
Rheinland-Pfalz,66,66955
Rheinland-Pfalz,66,66957
Rheinland-Pfalz,66,66969
Rheinland-Pfalz,66,66976
Rheinland-Pfalz,66,66978
Rheinland-Pfalz,66,66981
Rheinland-Pfalz,66,66987
Rheinland-Pfalz,66,66989
Rheinland-Pfalz,66,66994
Rheinland-Pfalz,66,66996
Rheinland-Pfalz,66,66999
Rheinland-Pfalz,67,67059
Rheinland-Pfalz,67,67061
Rheinland-Pfalz,67,67063
Rheinland-Pfalz,67,67065
Rheinland-Pfalz,67,67067
Rheinland-Pfalz,67,67069
Rheinland-Pfalz,67,67071
Rheinland-Pfalz,67,67098
Rheinland-Pfalz,67,67105
Rheinland-Pfalz,67,67112
Rheinland-Pfalz,67,67117
Rheinland-Pfalz,67,67122
Rheinland-Pfalz,67,67125
Rheinland-Pfalz,67,67126
Rheinland-Pfalz,67,67127
Rheinland-Pfalz,67,67133
Rheinland-Pfalz,67,67134
Rheinland-Pfalz,67,67136
Rheinland-Pfalz,67,67141
Rheinland-Pfalz,67,67146
Rheinland-Pfalz,67,67147
Rheinland-Pfalz,67,67149
Rheinland-Pfalz,67,67150
Rheinland-Pfalz,67,67152
Rheinland-Pfalz,67,67157
Rheinland-Pfalz,67,67158
Rheinland-Pfalz,67,67159
Rheinland-Pfalz,67,67161
Rheinland-Pfalz,67,67165
Rheinland-Pfalz,67,67166
Rheinland-Pfalz,67,67167
Rheinland-Pfalz,67,67169
Rheinland-Pfalz,67,67227
Rheinland-Pfalz,67,67229
Rheinland-Pfalz,67,67240
Rheinland-Pfalz,67,67245
Rheinland-Pfalz,67,67246
Rheinland-Pfalz,67,67251
Rheinland-Pfalz,67,67256
Rheinland-Pfalz,67,67258
Rheinland-Pfalz,67,67259
Rheinland-Pfalz,67,67269
Rheinland-Pfalz,67,67271
Rheinland-Pfalz,67,67273
Rheinland-Pfalz,67,67278
Rheinland-Pfalz,67,67280
Rheinland-Pfalz,67,67281
Rheinland-Pfalz,67,67283
Rheinland-Pfalz,67,67292
Rheinland-Pfalz,67,67294
Rheinland-Pfalz,67,67295
Rheinland-Pfalz,67,67297
Rheinland-Pfalz,67,67304
Rheinland-Pfalz,67,67305
Rheinland-Pfalz,67,67307
Rheinland-Pfalz,67,67308
Rheinland-Pfalz,67,67310
Rheinland-Pfalz,67,67311
Rheinland-Pfalz,67,67316
Rheinland-Pfalz,67,67317
Rheinland-Pfalz,67,67319
Rheinland-Pfalz,67,67346
Rheinland-Pfalz,67,67354
Rheinland-Pfalz,67,67360
Rheinland-Pfalz,67,67361
Rheinland-Pfalz,67,67363
Rheinland-Pfalz,67,67365
Rheinland-Pfalz,67,67366
Rheinland-Pfalz,67,67368
Rheinland-Pfalz,67,67373
Rheinland-Pfalz,67,67374
Rheinland-Pfalz,67,67376
Rheinland-Pfalz,67,67377
Rheinland-Pfalz,67,67378
Rheinland-Pfalz,67,67433
Rheinland-Pfalz,67,67434
Rheinland-Pfalz,67,67435
Rheinland-Pfalz,67,67454
Rheinland-Pfalz,67,67459
Rheinland-Pfalz,67,67466
Rheinland-Pfalz,67,67468
Rheinland-Pfalz,67,67471
Rheinland-Pfalz,67,67472
Rheinland-Pfalz,67,67473
Rheinland-Pfalz,67,67475
Rheinland-Pfalz,67,67480
Rheinland-Pfalz,67,67482
Rheinland-Pfalz,67,67483
Rheinland-Pfalz,67,67487
Rheinland-Pfalz,67,67489
Rheinland-Pfalz,67,67547
Rheinland-Pfalz,67,67549
Rheinland-Pfalz,67,67550
Rheinland-Pfalz,67,67551
Rheinland-Pfalz,67,67574
Rheinland-Pfalz,67,67575
Rheinland-Pfalz,67,67577
Rheinland-Pfalz,67,67578
Rheinland-Pfalz,67,67580
Rheinland-Pfalz,67,67582
Rheinland-Pfalz,67,67583
Rheinland-Pfalz,67,67585
Rheinland-Pfalz,67,67586
Rheinland-Pfalz,67,67587
Rheinland-Pfalz,67,67590
Rheinland-Pfalz,67,67591
Rheinland-Pfalz,67,67592
Rheinland-Pfalz,67,67593
Rheinland-Pfalz,67,67595
Rheinland-Pfalz,67,67596
Rheinland-Pfalz,67,67598
Rheinland-Pfalz,67,67599
Rheinland-Pfalz,67,67653
Rheinland-Pfalz,67,67655
Rheinland-Pfalz,67,67657
Rheinland-Pfalz,67,67659
Rheinland-Pfalz,67,67661
Rheinland-Pfalz,67,67663
Rheinland-Pfalz,67,67677
Rheinland-Pfalz,67,67678
Rheinland-Pfalz,67,67680
Rheinland-Pfalz,67,67681
Rheinland-Pfalz,67,67685
Rheinland-Pfalz,67,67686
Rheinland-Pfalz,67,67688
Rheinland-Pfalz,67,67691
Rheinland-Pfalz,67,67693
Rheinland-Pfalz,67,67697
Rheinland-Pfalz,67,67699
Rheinland-Pfalz,67,67700
Rheinland-Pfalz,67,67701
Rheinland-Pfalz,67,67705
Rheinland-Pfalz,67,67706
Rheinland-Pfalz,67,67707
Rheinland-Pfalz,67,67714
Rheinland-Pfalz,67,67715
Rheinland-Pfalz,67,67716
Rheinland-Pfalz,67,67718
Rheinland-Pfalz,67,67722
Rheinland-Pfalz,67,67724
Rheinland-Pfalz,67,67725
Rheinland-Pfalz,67,67727
Rheinland-Pfalz,67,67728
Rheinland-Pfalz,67,67729
Rheinland-Pfalz,67,67731
Rheinland-Pfalz,67,67732
Rheinland-Pfalz,67,67734
Rheinland-Pfalz,67,67735
Rheinland-Pfalz,67,67737
Rheinland-Pfalz,67,67742
Rheinland-Pfalz,67,67744
Rheinland-Pfalz,67,67745
Rheinland-Pfalz,67,67746
Rheinland-Pfalz,67,67748
Rheinland-Pfalz,67,67749
Rheinland-Pfalz,67,67752
Rheinland-Pfalz,67,67753
Rheinland-Pfalz,67,67754
Rheinland-Pfalz,67,67756
Rheinland-Pfalz,67,67757
Rheinland-Pfalz,67,67759
Rheinland-Pfalz,67,67806
Rheinland-Pfalz,67,67808
Rheinland-Pfalz,67,67811
Rheinland-Pfalz,67,67813
Rheinland-Pfalz,67,67814
Rheinland-Pfalz,67,67816
Rheinland-Pfalz,67,67817
Rheinland-Pfalz,67,67819
Rheinland-Pfalz,67,67821
Rheinland-Pfalz,67,67822
Rheinland-Pfalz,67,67823
Rheinland-Pfalz,67,67824
Rheinland-Pfalz,67,67826
Rheinland-Pfalz,67,67827
Rheinland-Pfalz,67,67829
Rheinland-Pfalz,76,76726
Rheinland-Pfalz,76,76744
Rheinland-Pfalz,76,76751
Rheinland-Pfalz,76,76756
Rheinland-Pfalz,76,76761
Rheinland-Pfalz,76,76764
Rheinland-Pfalz,76,76767
Rheinland-Pfalz,76,76768
Rheinland-Pfalz,76,76770
Rheinland-Pfalz,76,76771
Rheinland-Pfalz,76,76773
Rheinland-Pfalz,76,76774
Rheinland-Pfalz,76,76776
Rheinland-Pfalz,76,76777
Rheinland-Pfalz,76,76779
Rheinland-Pfalz,76,76829
Rheinland-Pfalz,76,76831
Rheinland-Pfalz,76,76833
Rheinland-Pfalz,76,76835
Rheinland-Pfalz,76,76846
Rheinland-Pfalz,76,76848
Rheinland-Pfalz,76,76855
Rheinland-Pfalz,76,76857
Rheinland-Pfalz,76,76863
Rheinland-Pfalz,76,76865
Rheinland-Pfalz,76,76870
Rheinland-Pfalz,76,76872
Rheinland-Pfalz,76,76877
Rheinland-Pfalz,76,76879
Rheinland-Pfalz,76,76887
Rheinland-Pfalz,76,76889
Rheinland-Pfalz,76,76891
Schleswig-Holstein,21,21465
Schleswig-Holstein,21,21481
Schleswig-Holstein,21,21483
Schleswig-Holstein,21,21493
Schleswig-Holstein,21,21502
Schleswig-Holstein,21,21509
Schleswig-Holstein,21,21514
Schleswig-Holstein,21,21516
Schleswig-Holstein,21,21521
Schleswig-Holstein,21,21524
Schleswig-Holstein,21,21526
Schleswig-Holstein,21,21527
Schleswig-Holstein,21,21529
Schleswig-Holstein,22,22113
Schleswig-Holstein,22,22844
Schleswig-Holstein,22,22846
Schleswig-Holstein,22,22848
Schleswig-Holstein,22,22850
Schleswig-Holstein,22,22851
Schleswig-Holstein,22,22869
Schleswig-Holstein,22,22880
Schleswig-Holstein,22,22885
Schleswig-Holstein,22,22889
Schleswig-Holstein,22,22926
Schleswig-Holstein,22,22927
Schleswig-Holstein,22,22929
Schleswig-Holstein,22,22941
Schleswig-Holstein,22,22946
Schleswig-Holstein,22,22949
Schleswig-Holstein,22,22952
Schleswig-Holstein,22,22955
Schleswig-Holstein,22,22956
Schleswig-Holstein,22,22958
Schleswig-Holstein,22,22959
Schleswig-Holstein,22,22962
Schleswig-Holstein,22,22964
Schleswig-Holstein,22,22965
Schleswig-Holstein,22,22967
Schleswig-Holstein,22,22969
Schleswig-Holstein,23,23539
Schleswig-Holstein,23,23552
Schleswig-Holstein,23,23554
Schleswig-Holstein,23,23556
Schleswig-Holstein,23,23558
Schleswig-Holstein,23,23560
Schleswig-Holstein,23,23562
Schleswig-Holstein,23,23564
Schleswig-Holstein,23,23566
Schleswig-Holstein,23,23568
Schleswig-Holstein,23,23569
Schleswig-Holstein,23,23570
Schleswig-Holstein,23,23611
Schleswig-Holstein,23,23617
Schleswig-Holstein,23,23619
Schleswig-Holstein,23,23623
Schleswig-Holstein,23,23626
Schleswig-Holstein,23,23627
Schleswig-Holstein,23,23628
Schleswig-Holstein,23,23629
Schleswig-Holstein,23,23669
Schleswig-Holstein,23,23683
Schleswig-Holstein,23,23684
Schleswig-Holstein,23,23689
Schleswig-Holstein,23,23701
Schleswig-Holstein,23,23714
Schleswig-Holstein,23,23715
Schleswig-Holstein,23,23717
Schleswig-Holstein,23,23719
Schleswig-Holstein,23,23730
Schleswig-Holstein,23,23738
Schleswig-Holstein,23,23743
Schleswig-Holstein,23,23744
Schleswig-Holstein,23,23746
Schleswig-Holstein,23,23747
Schleswig-Holstein,23,23749
Schleswig-Holstein,23,23758
Schleswig-Holstein,23,23769
Schleswig-Holstein,23,23774
Schleswig-Holstein,23,23775
Schleswig-Holstein,23,23777
Schleswig-Holstein,23,23779
Schleswig-Holstein,23,23795
Schleswig-Holstein,23,23812
Schleswig-Holstein,23,23813
Schleswig-Holstein,23,23815
Schleswig-Holstein,23,23816
Schleswig-Holstein,23,23818
Schleswig-Holstein,23,23820
Schleswig-Holstein,23,23821
Schleswig-Holstein,23,23823
Schleswig-Holstein,23,23824
Schleswig-Holstein,23,23826
Schleswig-Holstein,23,23827
Schleswig-Holstein,23,23829
Schleswig-Holstein,23,23843
Schleswig-Holstein,23,23845
Schleswig-Holstein,23,23847
Schleswig-Holstein,23,23858
Schleswig-Holstein,23,23860
Schleswig-Holstein,23,23863
Schleswig-Holstein,23,23866
Schleswig-Holstein,23,23867
Schleswig-Holstein,23,23869
Schleswig-Holstein,23,23879
Schleswig-Holstein,23,23881
Schleswig-Holstein,23,23883
Schleswig-Holstein,23,23896
Schleswig-Holstein,23,23898
Schleswig-Holstein,23,23899
Schleswig-Holstein,23,23909
Schleswig-Holstein,23,23911
Schleswig-Holstein,23,23919
Schleswig-Holstein,24,24103
Schleswig-Holstein,24,24105
Schleswig-Holstein,24,24106
Schleswig-Holstein,24,24107
Schleswig-Holstein,24,24109
Schleswig-Holstein,24,24111
Schleswig-Holstein,24,24113
Schleswig-Holstein,24,24114
Schleswig-Holstein,24,24116
Schleswig-Holstein,24,24118
Schleswig-Holstein,24,24119
Schleswig-Holstein,24,24143
Schleswig-Holstein,24,24145
Schleswig-Holstein,24,24146
Schleswig-Holstein,24,24147
Schleswig-Holstein,24,24148
Schleswig-Holstein,24,24149
Schleswig-Holstein,24,24159
Schleswig-Holstein,24,24161
Schleswig-Holstein,24,24211
Schleswig-Holstein,24,24214
Schleswig-Holstein,24,24217
Schleswig-Holstein,24,24220
Schleswig-Holstein,24,24222
Schleswig-Holstein,24,24223
Schleswig-Holstein,24,24226
Schleswig-Holstein,24,24229
Schleswig-Holstein,24,24232
Schleswig-Holstein,24,24235
Schleswig-Holstein,24,24238
Schleswig-Holstein,24,24239
Schleswig-Holstein,24,24241
Schleswig-Holstein,24,24242
Schleswig-Holstein,24,24244
Schleswig-Holstein,24,24245
Schleswig-Holstein,24,24247
Schleswig-Holstein,24,24248
Schleswig-Holstein,24,24250
Schleswig-Holstein,24,24251
Schleswig-Holstein,24,24253
Schleswig-Holstein,24,24254
Schleswig-Holstein,24,24256
Schleswig-Holstein,24,24257
Schleswig-Holstein,24,24259
Schleswig-Holstein,24,24306
Schleswig-Holstein,24,24321
Schleswig-Holstein,24,24326
Schleswig-Holstein,24,24327
Schleswig-Holstein,24,24329
Schleswig-Holstein,24,24340
Schleswig-Holstein,24,24351
Schleswig-Holstein,24,24354
Schleswig-Holstein,24,24357
Schleswig-Holstein,24,24358
Schleswig-Holstein,24,24360
Schleswig-Holstein,24,24361
Schleswig-Holstein,24,24363
Schleswig-Holstein,24,24364
Schleswig-Holstein,24,24366
Schleswig-Holstein,24,24367
Schleswig-Holstein,24,24369
Schleswig-Holstein,24,24376
Schleswig-Holstein,24,24392
Schleswig-Holstein,24,24395
Schleswig-Holstein,24,24398
Schleswig-Holstein,24,24399
Schleswig-Holstein,24,24401
Schleswig-Holstein,24,24402
Schleswig-Holstein,24,24404
Schleswig-Holstein,24,24405
Schleswig-Holstein,24,24407
Schleswig-Holstein,24,24409
Schleswig-Holstein,24,24534
Schleswig-Holstein,24,24536
Schleswig-Holstein,24,24537
Schleswig-Holstein,24,24539
Schleswig-Holstein,24,24558
Schleswig-Holstein,24,24568
Schleswig-Holstein,24,24576
Schleswig-Holstein,24,24582
Schleswig-Holstein,24,24589
Schleswig-Holstein,24,24594
Schleswig-Holstein,24,24598
Schleswig-Holstein,24,24601
Schleswig-Holstein,24,24610
Schleswig-Holstein,24,24613
Schleswig-Holstein,24,24616
Schleswig-Holstein,24,24619
Schleswig-Holstein,24,24620
Schleswig-Holstein,24,24622
Schleswig-Holstein,24,24623
Schleswig-Holstein,24,24625
Schleswig-Holstein,24,24626
Schleswig-Holstein,24,24628
Schleswig-Holstein,24,24629
Schleswig-Holstein,24,24631
Schleswig-Holstein,24,24632
Schleswig-Holstein,24,24634
Schleswig-Holstein,24,24635
Schleswig-Holstein,24,24637
Schleswig-Holstein,24,24638
Schleswig-Holstein,24,24640
Schleswig-Holstein,24,24641
Schleswig-Holstein,24,24643
Schleswig-Holstein,24,24644
Schleswig-Holstein,24,24646
Schleswig-Holstein,24,24647
Schleswig-Holstein,24,24649
Schleswig-Holstein,24,24768
Schleswig-Holstein,24,24782
Schleswig-Holstein,24,24783
Schleswig-Holstein,24,24784
Schleswig-Holstein,24,24787
Schleswig-Holstein,24,24790
Schleswig-Holstein,24,24791
Schleswig-Holstein,24,24793
Schleswig-Holstein,24,24794
Schleswig-Holstein,24,24796
Schleswig-Holstein,24,24797
Schleswig-Holstein,24,24799
Schleswig-Holstein,24,24800
Schleswig-Holstein,24,24802
Schleswig-Holstein,24,24803
Schleswig-Holstein,24,24805
Schleswig-Holstein,24,24806
Schleswig-Holstein,24,24808
Schleswig-Holstein,24,24809
Schleswig-Holstein,24,24811
Schleswig-Holstein,24,24813
Schleswig-Holstein,24,24814
Schleswig-Holstein,24,24816
Schleswig-Holstein,24,24817
Schleswig-Holstein,24,24819
Schleswig-Holstein,24,24837
Schleswig-Holstein,24,24848
Schleswig-Holstein,24,24850
Schleswig-Holstein,24,24852
Schleswig-Holstein,24,24855
Schleswig-Holstein,24,24857
Schleswig-Holstein,24,24860
Schleswig-Holstein,24,24861
Schleswig-Holstein,24,24863
Schleswig-Holstein,24,24864
Schleswig-Holstein,24,24866
Schleswig-Holstein,24,24867
Schleswig-Holstein,24,24869
Schleswig-Holstein,24,24870
Schleswig-Holstein,24,24872
Schleswig-Holstein,24,24873
Schleswig-Holstein,24,24875
Schleswig-Holstein,24,24876
Schleswig-Holstein,24,24878
Schleswig-Holstein,24,24879
Schleswig-Holstein,24,24881
Schleswig-Holstein,24,24882
Schleswig-Holstein,24,24884
Schleswig-Holstein,24,24885
Schleswig-Holstein,24,24887
Schleswig-Holstein,24,24888
Schleswig-Holstein,24,24890
Schleswig-Holstein,24,24891
Schleswig-Holstein,24,24893
Schleswig-Holstein,24,24894
Schleswig-Holstein,24,24896
Schleswig-Holstein,24,24897
Schleswig-Holstein,24,24899
Schleswig-Holstein,24,24937
Schleswig-Holstein,24,24939
Schleswig-Holstein,24,24941
Schleswig-Holstein,24,24943
Schleswig-Holstein,24,24944
Schleswig-Holstein,24,24955
Schleswig-Holstein,24,24960
Schleswig-Holstein,24,24963
Schleswig-Holstein,24,24966
Schleswig-Holstein,24,24969
Schleswig-Holstein,24,24972
Schleswig-Holstein,24,24975
Schleswig-Holstein,24,24976
Schleswig-Holstein,24,24977
Schleswig-Holstein,24,24980
Schleswig-Holstein,24,24983
Schleswig-Holstein,24,24986
Schleswig-Holstein,24,24988
Schleswig-Holstein,24,24989
Schleswig-Holstein,24,24991
Schleswig-Holstein,24,24992
Schleswig-Holstein,24,24994
Schleswig-Holstein,24,24996
Schleswig-Holstein,24,24997
Schleswig-Holstein,24,24999
Schleswig-Holstein,25,25335
Schleswig-Holstein,25,25336
Schleswig-Holstein,25,25337
Schleswig-Holstein,25,25348
Schleswig-Holstein,25,25355
Schleswig-Holstein,25,25358
Schleswig-Holstein,25,25361
Schleswig-Holstein,25,25364
Schleswig-Holstein,25,25365
Schleswig-Holstein,25,25368
Schleswig-Holstein,25,25370
Schleswig-Holstein,25,25371
Schleswig-Holstein,25,25373
Schleswig-Holstein,25,25376
Schleswig-Holstein,25,25377
Schleswig-Holstein,25,25379
Schleswig-Holstein,25,25404
Schleswig-Holstein,25,25421
Schleswig-Holstein,25,25429
Schleswig-Holstein,25,25436
Schleswig-Holstein,25,25437
Schleswig-Holstein,25,25451
Schleswig-Holstein,25,25462
Schleswig-Holstein,25,25469
Schleswig-Holstein,25,25474
Schleswig-Holstein,25,25479
Schleswig-Holstein,25,25482
Schleswig-Holstein,25,25485
Schleswig-Holstein,25,25486
Schleswig-Holstein,25,25488
Schleswig-Holstein,25,25489
Schleswig-Holstein,25,25491
Schleswig-Holstein,25,25492
Schleswig-Holstein,25,25494
Schleswig-Holstein,25,25495
Schleswig-Holstein,25,25497
Schleswig-Holstein,25,25499
Schleswig-Holstein,25,25524
Schleswig-Holstein,25,25541
Schleswig-Holstein,25,25548
Schleswig-Holstein,25,25551
Schleswig-Holstein,25,25554
Schleswig-Holstein,25,25557
Schleswig-Holstein,25,25560
Schleswig-Holstein,25,25563
Schleswig-Holstein,25,25566
Schleswig-Holstein,25,25569
Schleswig-Holstein,25,25572
Schleswig-Holstein,25,25573
Schleswig-Holstein,25,25575
Schleswig-Holstein,25,25576
Schleswig-Holstein,25,25578
Schleswig-Holstein,25,25579
Schleswig-Holstein,25,25581
Schleswig-Holstein,25,25582
Schleswig-Holstein,25,25584
Schleswig-Holstein,25,25585
Schleswig-Holstein,25,25587
Schleswig-Holstein,25,25588
Schleswig-Holstein,25,25590
Schleswig-Holstein,25,25591
Schleswig-Holstein,25,25593
Schleswig-Holstein,25,25594
Schleswig-Holstein,25,25596
Schleswig-Holstein,25,25597
Schleswig-Holstein,25,25599
Schleswig-Holstein,25,25693
Schleswig-Holstein,25,25704
Schleswig-Holstein,25,25709
Schleswig-Holstein,25,25712
Schleswig-Holstein,25,25715
Schleswig-Holstein,25,25718
Schleswig-Holstein,25,25719
Schleswig-Holstein,25,25721
Schleswig-Holstein,25,25724
Schleswig-Holstein,25,25725
Schleswig-Holstein,25,25727
Schleswig-Holstein,25,25729
Schleswig-Holstein,25,25746
Schleswig-Holstein,25,25761
Schleswig-Holstein,25,25764
Schleswig-Holstein,25,25767
Schleswig-Holstein,25,25770
Schleswig-Holstein,25,25774
Schleswig-Holstein,25,25776
Schleswig-Holstein,25,25779
Schleswig-Holstein,25,25782
Schleswig-Holstein,25,25785
Schleswig-Holstein,25,25786
Schleswig-Holstein,25,25788
Schleswig-Holstein,25,25791
Schleswig-Holstein,25,25792
Schleswig-Holstein,25,25794
Schleswig-Holstein,25,25795
Schleswig-Holstein,25,25797
Schleswig-Holstein,25,25799
Schleswig-Holstein,25,25813
Schleswig-Holstein,25,25821
Schleswig-Holstein,25,25826
Schleswig-Holstein,25,25832
Schleswig-Holstein,25,25836
Schleswig-Holstein,25,25840
Schleswig-Holstein,25,25842
Schleswig-Holstein,25,25845
Schleswig-Holstein,25,25849
Schleswig-Holstein,25,25850
Schleswig-Holstein,25,25852
Schleswig-Holstein,25,25853
Schleswig-Holstein,25,25855
Schleswig-Holstein,25,25856
Schleswig-Holstein,25,25858
Schleswig-Holstein,25,25859
Schleswig-Holstein,25,25860
Schleswig-Holstein,25,25862
Schleswig-Holstein,25,25863
Schleswig-Holstein,25,25864
Schleswig-Holstein,25,25866
Schleswig-Holstein,25,25868
Schleswig-Holstein,25,25869
Schleswig-Holstein,25,25870
Schleswig-Holstein,25,25872
Schleswig-Holstein,25,25873
Schleswig-Holstein,25,25875
Schleswig-Holstein,25,25876
Schleswig-Holstein,25,25878
Schleswig-Holstein,25,25879
Schleswig-Holstein,25,25881
Schleswig-Holstein,25,25882
Schleswig-Holstein,25,25884
Schleswig-Holstein,25,25885
Schleswig-Holstein,25,25887
Schleswig-Holstein,25,25889
Schleswig-Holstein,25,25899
Schleswig-Holstein,25,25917
Schleswig-Holstein,25,25920
Schleswig-Holstein,25,25923
Schleswig-Holstein,25,25924
Schleswig-Holstein,25,25926
Schleswig-Holstein,25,25927
Schleswig-Holstein,25,25938
Schleswig-Holstein,25,25946
Schleswig-Holstein,25,25980
Schleswig-Holstein,25,25992
Schleswig-Holstein,25,25996
Schleswig-Holstein,25,25997
Schleswig-Holstein,25,25999
Schleswig-Holstein,27,27498
Saarland,66,66111
Saarland,66,66113
Saarland,66,66115
Saarland,66,66117
Saarland,66,66119
Saarland,66,66121
Saarland,66,66123
Saarland,66,66125
Saarland,66,66126
Saarland,66,66127
Saarland,66,66128
Saarland,66,66129
Saarland,66,66130
Saarland,66,66131
Saarland,66,66132
Saarland,66,66133
Saarland,66,66265
Saarland,66,66271
Saarland,66,66280
Saarland,66,66287
Saarland,66,66292
Saarland,66,66299
Saarland,66,66333
Saarland,66,66346
Saarland,66,66352
Saarland,66,66359
Saarland,66,66386
Saarland,66,66399
Saarland,66,66424
Saarland,66,66440
Saarland,66,66450
Saarland,66,66453
Saarland,66,66459
Saarland,66,66538
Saarland,66,66539
Saarland,66,66540
Saarland,66,66557
Saarland,66,66564
Saarland,66,66571
Saarland,66,66578
Saarland,66,66583
Saarland,66,66589
Saarland,66,66606
Saarland,66,66620
Saarland,66,66625
Saarland,66,66629
Saarland,66,66636
Saarland,66,66640
Saarland,66,66646
Saarland,66,66649
Saarland,66,66663
Saarland,66,66679
Saarland,66,66687
Saarland,66,66693
Saarland,66,66701
Saarland,66,66706
Saarland,66,66709
Saarland,66,66740
Saarland,66,66763
Saarland,66,66773
Saarland,66,66780
Saarland,66,66787
Saarland,66,66793
Saarland,66,66798
Saarland,66,66802
Saarland,66,66806
Saarland,66,66809
Saarland,66,66822
Saarland,66,66839
Sachsen,01,01067
Sachsen,01,01069
Sachsen,01,01097
Sachsen,01,01099
Sachsen,01,01108
Sachsen,01,01109
Sachsen,01,01127
Sachsen,01,01129
Sachsen,01,01139
Sachsen,01,01156
Sachsen,01,01157
Sachsen,01,01159
Sachsen,01,01169
Sachsen,01,01187
Sachsen,01,01189
Sachsen,01,01217
Sachsen,01,01219
Sachsen,01,01237
Sachsen,01,01239
Sachsen,01,01257
Sachsen,01,01259
Sachsen,01,01277
Sachsen,01,01279
Sachsen,01,01307
Sachsen,01,01309
Sachsen,01,01324
Sachsen,01,01326
Sachsen,01,01328
Sachsen,01,01445
Sachsen,01,01454
Sachsen,01,01458
Sachsen,01,01465
Sachsen,01,01468
Sachsen,01,01471
Sachsen,01,01477
Sachsen,01,01558
Sachsen,01,01561
Sachsen,01,01587
Sachsen,01,01589
Sachsen,01,01591
Sachsen,01,01594
Sachsen,01,01609
Sachsen,01,01612
Sachsen,01,01616
Sachsen,01,01619
Sachsen,01,01623
Sachsen,01,01640
Sachsen,01,01662
Sachsen,01,01665
Sachsen,01,01683
Sachsen,01,01689
Sachsen,01,01705
Sachsen,01,01723
Sachsen,01,01728
Sachsen,01,01731
Sachsen,01,01734
Sachsen,01,01737
Sachsen,01,01738
Sachsen,01,01744
Sachsen,01,01762
Sachsen,01,01768
Sachsen,01,01773
Sachsen,01,01774
Sachsen,01,01776
Sachsen,01,01778
Sachsen,01,01796
Sachsen,01,01809
Sachsen,01,01814
Sachsen,01,01816
Sachsen,01,01819
Sachsen,01,01824
Sachsen,01,01825
Sachsen,01,01829
Sachsen,01,01833
Sachsen,01,01844
Sachsen,01,01847
Sachsen,01,01848
Sachsen,01,01855
Sachsen,01,01877
Sachsen,01,01896
Sachsen,01,01900
Sachsen,01,01904
Sachsen,01,01906
Sachsen,01,01909
Sachsen,01,01917
Sachsen,01,01920
Sachsen,01,01936
Sachsen,02,02625
Sachsen,02,02627
Sachsen,02,02633
Sachsen,02,02681
Sachsen,02,02689
Sachsen,02,02692
Sachsen,02,02694
Sachsen,02,02699
Sachsen,02,02708
Sachsen,02,02727
Sachsen,02,02730
Sachsen,02,02733
Sachsen,02,02736
Sachsen,02,02739
Sachsen,02,02742
Sachsen,02,02747
Sachsen,02,02748
Sachsen,02,02763
Sachsen,02,02779
Sachsen,02,02782
Sachsen,02,02785
Sachsen,02,02788
Sachsen,02,02791
Sachsen,02,02794
Sachsen,02,02796
Sachsen,02,02797
Sachsen,02,02799
Sachsen,02,02826
Sachsen,02,02827
Sachsen,02,02828
Sachsen,02,02829
Sachsen,02,02894
Sachsen,02,02899
Sachsen,02,02906
Sachsen,02,02923
Sachsen,02,02929
Sachsen,02,02943
Sachsen,02,02953
Sachsen,02,02956
Sachsen,02,02957
Sachsen,02,02959
Sachsen,02,02977
Sachsen,02,02979
Sachsen,02,02991
Sachsen,02,02994
Sachsen,02,02997
Sachsen,02,02999
Sachsen,04,04103
Sachsen,04,04105
Sachsen,04,04107
Sachsen,04,04109
Sachsen,04,04129
Sachsen,04,04155
Sachsen,04,04157
Sachsen,04,04158
Sachsen,04,04159
Sachsen,04,04177
Sachsen,04,04178
Sachsen,04,04179
Sachsen,04,04205
Sachsen,04,04207
Sachsen,04,04209
Sachsen,04,04229
Sachsen,04,04249
Sachsen,04,04275
Sachsen,04,04277
Sachsen,04,04279
Sachsen,04,04288
Sachsen,04,04289
Sachsen,04,04299
Sachsen,04,04315
Sachsen,04,04316
Sachsen,04,04317
Sachsen,04,04318
Sachsen,04,04319
Sachsen,04,04328
Sachsen,04,04329
Sachsen,04,04347
Sachsen,04,04349
Sachsen,04,04356
Sachsen,04,04357
Sachsen,04,04416
Sachsen,04,04420
Sachsen,04,04425
Sachsen,04,04435
Sachsen,04,04442
Sachsen,04,04451
Sachsen,04,04460
Sachsen,04,04463
Sachsen,04,04509
Sachsen,04,04519
Sachsen,04,04523
Sachsen,04,04539
Sachsen,04,04552
Sachsen,04,04564
Sachsen,04,04565
Sachsen,04,04567
Sachsen,04,04571
Sachsen,04,04574
Sachsen,04,04575
Sachsen,04,04579
Sachsen,04,04643
Sachsen,04,04651
Sachsen,04,04654
Sachsen,04,04655
Sachsen,04,04657
Sachsen,04,04668
Sachsen,04,04680
Sachsen,04,04683
Sachsen,04,04685
Sachsen,04,04687
Sachsen,04,04688
Sachsen,04,04703
Sachsen,04,04720
Sachsen,04,04736
Sachsen,04,04741
Sachsen,04,04746
Sachsen,04,04749
Sachsen,04,04758
Sachsen,04,04769
Sachsen,04,04774
Sachsen,04,04779
Sachsen,04,04808
Sachsen,04,04821
Sachsen,04,04824
Sachsen,04,04827
Sachsen,04,04828
Sachsen,04,04838
Sachsen,04,04849
Sachsen,04,04860
Sachsen,04,04862
Sachsen,04,04874
Sachsen,04,04880
Sachsen,04,04886
Sachsen,04,04889
Sachsen,07,07952
Sachsen,07,07985
Sachsen,08,08056
Sachsen,08,08058
Sachsen,08,08060
Sachsen,08,08062
Sachsen,08,08064
Sachsen,08,08066
Sachsen,08,08107
Sachsen,08,08112
Sachsen,08,08115
Sachsen,08,08118
Sachsen,08,08132
Sachsen,08,08134
Sachsen,08,08141
Sachsen,08,08144
Sachsen,08,08147
Sachsen,08,08209
Sachsen,08,08223
Sachsen,08,08228
Sachsen,08,08233
Sachsen,08,08236
Sachsen,08,08237
Sachsen,08,08239
Sachsen,08,08248
Sachsen,08,08258
Sachsen,08,08261
Sachsen,08,08262
Sachsen,08,08265
Sachsen,08,08267
Sachsen,08,08269
Sachsen,08,08280
Sachsen,08,08289
Sachsen,08,08294
Sachsen,08,08297
Sachsen,08,08301
Sachsen,08,08304
Sachsen,08,08309
Sachsen,08,08312
Sachsen,08,08315
Sachsen,08,08318
Sachsen,08,08321
Sachsen,08,08324
Sachsen,08,08325
Sachsen,08,08326
Sachsen,08,08328
Sachsen,08,08340
Sachsen,08,08344
Sachsen,08,08349
Sachsen,08,08352
Sachsen,08,08355
Sachsen,08,08359
Sachsen,08,08371
Sachsen,08,08373
Sachsen,08,08393
Sachsen,08,08396
Sachsen,08,08412
Sachsen,08,08427
Sachsen,08,08428
Sachsen,08,08432
Sachsen,08,08439
Sachsen,08,08451
Sachsen,08,08459
Sachsen,08,08468
Sachsen,08,08485
Sachsen,08,08491
Sachsen,08,08496
Sachsen,08,08499
Sachsen,08,08523
Sachsen,08,08525
Sachsen,08,08527
Sachsen,08,08529
Sachsen,08,08538
Sachsen,08,08539
Sachsen,08,08541
Sachsen,08,08543
Sachsen,08,08547
Sachsen,08,08548
Sachsen,08,08606
Sachsen,08,08626
Sachsen,08,08645
Sachsen,08,08648
Sachsen,09,09028
Sachsen,09,09030
Sachsen,09,09111
Sachsen,09,09112
Sachsen,09,09113
Sachsen,09,09114
Sachsen,09,09116
Sachsen,09,09117
Sachsen,09,09119
Sachsen,09,09120
Sachsen,09,09122
Sachsen,09,09123
Sachsen,09,09125
Sachsen,09,09126
Sachsen,09,09127
Sachsen,09,09128
Sachsen,09,09130
Sachsen,09,09131
Sachsen,09,09212
Sachsen,09,09217
Sachsen,09,09221
Sachsen,09,09224
Sachsen,09,09227
Sachsen,09,09228
Sachsen,09,09232
Sachsen,09,09235
Sachsen,09,09236
Sachsen,09,09241
Sachsen,09,09243
Sachsen,09,09244
Sachsen,09,09247
Sachsen,09,09249
Sachsen,09,09306
Sachsen,09,09322
Sachsen,09,09326
Sachsen,09,09328
Sachsen,09,09337
Sachsen,09,09350
Sachsen,09,09353
Sachsen,09,09355
Sachsen,09,09356
Sachsen,09,09366
Sachsen,09,09376
Sachsen,09,09380
Sachsen,09,09385
Sachsen,09,09387
Sachsen,09,09390
Sachsen,09,09392
Sachsen,09,09394
Sachsen,09,09395
Sachsen,09,09399
Sachsen,09,09405
Sachsen,09,09419
Sachsen,09,09423
Sachsen,09,09427
Sachsen,09,09429
Sachsen,09,09430
Sachsen,09,09432
Sachsen,09,09435
Sachsen,09,09437
Sachsen,09,09439
Sachsen,09,09456
Sachsen,09,09465
Sachsen,09,09468
Sachsen,09,09471
Sachsen,09,09474
Sachsen,09,09477
Sachsen,09,09481
Sachsen,09,09484
Sachsen,09,09487
Sachsen,09,09488
Sachsen,09,09496
Sachsen,09,09509
Sachsen,09,09514
Sachsen,09,09517
Sachsen,09,09518
Sachsen,09,09526
Sachsen,09,09544
Sachsen,09,09548
Sachsen,09,09557
Sachsen,09,09569
Sachsen,09,09573
Sachsen,09,09575
Sachsen,09,09577
Sachsen,09,09579
Sachsen,09,09599
Sachsen,09,09600
Sachsen,09,09603
Sachsen,09,09618
Sachsen,09,09619
Sachsen,09,09623
Sachsen,09,09627
Sachsen,09,09629
Sachsen,09,09633
Sachsen,09,09634
Sachsen,09,09638
Sachsen,09,09648
Sachsen,09,09661
Sachsen,09,09669
Sachsen-Anhalt,06,06108
Sachsen-Anhalt,06,06110
Sachsen-Anhalt,06,06112
Sachsen-Anhalt,06,06114
Sachsen-Anhalt,06,06116
Sachsen-Anhalt,06,06118
Sachsen-Anhalt,06,06120
Sachsen-Anhalt,06,06122
Sachsen-Anhalt,06,06124
Sachsen-Anhalt,06,06126
Sachsen-Anhalt,06,06128
Sachsen-Anhalt,06,06130
Sachsen-Anhalt,06,06132
Sachsen-Anhalt,06,06179
Sachsen-Anhalt,06,06184
Sachsen-Anhalt,06,06188
Sachsen-Anhalt,06,06193
Sachsen-Anhalt,06,06198
Sachsen-Anhalt,06,06217
Sachsen-Anhalt,06,06231
Sachsen-Anhalt,06,06237
Sachsen-Anhalt,06,06242
Sachsen-Anhalt,06,06246
Sachsen-Anhalt,06,06249
Sachsen-Anhalt,06,06254
Sachsen-Anhalt,06,06255
Sachsen-Anhalt,06,06258
Sachsen-Anhalt,06,06259
Sachsen-Anhalt,06,06268
Sachsen-Anhalt,06,06279
Sachsen-Anhalt,06,06295
Sachsen-Anhalt,06,06308
Sachsen-Anhalt,06,06311
Sachsen-Anhalt,06,06313
Sachsen-Anhalt,06,06317
Sachsen-Anhalt,06,06318
Sachsen-Anhalt,06,06333
Sachsen-Anhalt,06,06343
Sachsen-Anhalt,06,06347
Sachsen-Anhalt,06,06348
Sachsen-Anhalt,06,06366
Sachsen-Anhalt,06,06369
Sachsen-Anhalt,06,06385
Sachsen-Anhalt,06,06386
Sachsen-Anhalt,06,06388
Sachsen-Anhalt,06,06406
Sachsen-Anhalt,06,06408
Sachsen-Anhalt,06,06420
Sachsen-Anhalt,06,06425
Sachsen-Anhalt,06,06429
Sachsen-Anhalt,06,06449
Sachsen-Anhalt,06,06456
Sachsen-Anhalt,06,06458
Sachsen-Anhalt,06,06463
Sachsen-Anhalt,06,06464
Sachsen-Anhalt,06,06466
Sachsen-Anhalt,06,06467
Sachsen-Anhalt,06,06469
Sachsen-Anhalt,06,06484
Sachsen-Anhalt,06,06493
Sachsen-Anhalt,06,06502
Sachsen-Anhalt,06,06507
Sachsen-Anhalt,06,06526
Sachsen-Anhalt,06,06528
Sachsen-Anhalt,06,06536
Sachsen-Anhalt,06,06537
Sachsen-Anhalt,06,06542
Sachsen-Anhalt,06,06543
Sachsen-Anhalt,06,06547
Sachsen-Anhalt,06,06618
Sachsen-Anhalt,06,06628
Sachsen-Anhalt,06,06632
Sachsen-Anhalt,06,06636
Sachsen-Anhalt,06,06638
Sachsen-Anhalt,06,06642
Sachsen-Anhalt,06,06647
Sachsen-Anhalt,06,06648
Sachsen-Anhalt,06,06667
Sachsen-Anhalt,06,06679
Sachsen-Anhalt,06,06682
Sachsen-Anhalt,06,06686
Sachsen-Anhalt,06,06688
Sachsen-Anhalt,06,06712
Sachsen-Anhalt,06,06721
Sachsen-Anhalt,06,06722
Sachsen-Anhalt,06,06724
Sachsen-Anhalt,06,06725
Sachsen-Anhalt,06,06727
Sachsen-Anhalt,06,06729
Sachsen-Anhalt,06,06731
Sachsen-Anhalt,06,06749
Sachsen-Anhalt,06,06766
Sachsen-Anhalt,06,06773
Sachsen-Anhalt,06,06774
Sachsen-Anhalt,06,06779
Sachsen-Anhalt,06,06780
Sachsen-Anhalt,06,06785
Sachsen-Anhalt,06,06786
Sachsen-Anhalt,06,06791
Sachsen-Anhalt,06,06792
Sachsen-Anhalt,06,06794
Sachsen-Anhalt,06,06796
Sachsen-Anhalt,06,06800
Sachsen-Anhalt,06,06803
Sachsen-Anhalt,06,06804
Sachsen-Anhalt,06,06808
Sachsen-Anhalt,06,06809
Sachsen-Anhalt,06,06842
Sachsen-Anhalt,06,06844
Sachsen-Anhalt,06,06846
Sachsen-Anhalt,06,06847
Sachsen-Anhalt,06,06849
Sachsen-Anhalt,06,06861
Sachsen-Anhalt,06,06862
Sachsen-Anhalt,06,06869
Sachsen-Anhalt,06,06886
Sachsen-Anhalt,06,06888
Sachsen-Anhalt,06,06889
Sachsen-Anhalt,06,06895
Sachsen-Anhalt,06,06896
Sachsen-Anhalt,06,06901
Sachsen-Anhalt,06,06905
Sachsen-Anhalt,06,06909
Sachsen-Anhalt,06,06917
Sachsen-Anhalt,06,06918
Sachsen-Anhalt,06,06922
Sachsen-Anhalt,06,06925
Sachsen-Anhalt,06,06926
Sachsen-Anhalt,06,06928
Sachsen-Anhalt,29,29410
Sachsen-Anhalt,29,29413
Sachsen-Anhalt,29,29416
Sachsen-Anhalt,38,38486
Sachsen-Anhalt,38,38489
Sachsen-Anhalt,38,38820
Sachsen-Anhalt,38,38822
Sachsen-Anhalt,38,38828
Sachsen-Anhalt,38,38829
Sachsen-Anhalt,38,38835
Sachsen-Anhalt,38,38836
Sachsen-Anhalt,38,38838
Sachsen-Anhalt,38,38855
Sachsen-Anhalt,38,38871
Sachsen-Anhalt,38,38875
Sachsen-Anhalt,38,38877
Sachsen-Anhalt,38,38879
Sachsen-Anhalt,38,38889
Sachsen-Anhalt,38,38895
Sachsen-Anhalt,38,38899
Sachsen-Anhalt,39,39014
Sachsen-Anhalt,39,39104
Sachsen-Anhalt,39,39106
Sachsen-Anhalt,39,39108
Sachsen-Anhalt,39,39110
Sachsen-Anhalt,39,39112
Sachsen-Anhalt,39,39114
Sachsen-Anhalt,39,39116
Sachsen-Anhalt,39,39118
Sachsen-Anhalt,39,39120
Sachsen-Anhalt,39,39122
Sachsen-Anhalt,39,39124
Sachsen-Anhalt,39,39126
Sachsen-Anhalt,39,39128
Sachsen-Anhalt,39,39130
Sachsen-Anhalt,39,39164
Sachsen-Anhalt,39,39167
Sachsen-Anhalt,39,39171
Sachsen-Anhalt,39,39175
Sachsen-Anhalt,39,39179
Sachsen-Anhalt,39,39218
Sachsen-Anhalt,39,39221
Sachsen-Anhalt,39,39240
Sachsen-Anhalt,39,39245
Sachsen-Anhalt,39,39249
Sachsen-Anhalt,39,39261
Sachsen-Anhalt,39,39264
Sachsen-Anhalt,39,39279
Sachsen-Anhalt,39,39288
Sachsen-Anhalt,39,39291
Sachsen-Anhalt,39,39307
Sachsen-Anhalt,39,39317
Sachsen-Anhalt,39,39319
Sachsen-Anhalt,39,39326
Sachsen-Anhalt,39,39340
Sachsen-Anhalt,39,39343
Sachsen-Anhalt,39,39345
Sachsen-Anhalt,39,39356
Sachsen-Anhalt,39,39359
Sachsen-Anhalt,39,39365
Sachsen-Anhalt,39,39387
Sachsen-Anhalt,39,39393
Sachsen-Anhalt,39,39397
Sachsen-Anhalt,39,39398
Sachsen-Anhalt,39,39418
Sachsen-Anhalt,39,39434
Sachsen-Anhalt,39,39435
Sachsen-Anhalt,39,39439
Sachsen-Anhalt,39,39443
Sachsen-Anhalt,39,39444
Sachsen-Anhalt,39,39446
Sachsen-Anhalt,39,39448
Sachsen-Anhalt,39,39517
Sachsen-Anhalt,39,39524
Sachsen-Anhalt,39,39539
Sachsen-Anhalt,39,39576
Sachsen-Anhalt,39,39579
Sachsen-Anhalt,39,39590
Sachsen-Anhalt,39,39596
Sachsen-Anhalt,39,39599
Sachsen-Anhalt,39,39606
Sachsen-Anhalt,39,39615
Sachsen-Anhalt,39,39619
Sachsen-Anhalt,39,39624
Sachsen-Anhalt,39,39629
Sachsen-Anhalt,39,39638
Sachsen-Anhalt,39,39646
Sachsen-Anhalt,39,39649
Thüringen,04,04600
Thüringen,04,04603
Thüringen,04,04610
Thüringen,04,04613
Thüringen,04,04617
Thüringen,04,04618
Thüringen,04,04626
Thüringen,04,04639
Thüringen,06,06556
Thüringen,06,06567
Thüringen,06,06571
Thüringen,06,06577
Thüringen,06,06578
Thüringen,07,07318
Thüringen,07,07330
Thüringen,07,07333
Thüringen,07,07334
Thüringen,07,07336
Thüringen,07,07338
Thüringen,07,07343
Thüringen,07,07349
Thüringen,07,07356
Thüringen,07,07366
Thüringen,07,07368
Thüringen,07,07381
Thüringen,07,07387
Thüringen,07,07389
Thüringen,07,07407
Thüringen,07,07422
Thüringen,07,07426
Thüringen,07,07427
Thüringen,07,07429
Thüringen,07,07545
Thüringen,07,07546
Thüringen,07,07548
Thüringen,07,07549
Thüringen,07,07551
Thüringen,07,07552
Thüringen,07,07554
Thüringen,07,07557
Thüringen,07,07570
Thüringen,07,07580
Thüringen,07,07586
Thüringen,07,07589
Thüringen,07,07607
Thüringen,07,07613
Thüringen,07,07616
Thüringen,07,07619
Thüringen,07,07629
Thüringen,07,07639
Thüringen,07,07646
Thüringen,07,07743
Thüringen,07,07745
Thüringen,07,07747
Thüringen,07,07749
Thüringen,07,07751
Thüringen,07,07768
Thüringen,07,07774
Thüringen,07,07778
Thüringen,07,07806
Thüringen,07,07819
Thüringen,07,07907
Thüringen,07,07919
Thüringen,07,07922
Thüringen,07,07924
Thüringen,07,07926
Thüringen,07,07927
Thüringen,07,07929
Thüringen,07,07937
Thüringen,07,07950
Thüringen,07,07955
Thüringen,07,07957
Thüringen,07,07958
Thüringen,07,07973
Thüringen,07,07980
Thüringen,07,07987
Thüringen,07,07989
Thüringen,36,36404
Thüringen,36,36414
Thüringen,36,36419
Thüringen,36,36433
Thüringen,36,36448
Thüringen,36,36452
Thüringen,36,36456
Thüringen,36,36457
Thüringen,36,36460
Thüringen,36,36466
Thüringen,36,36469
Thüringen,37,37308
Thüringen,37,37318
Thüringen,37,37327
Thüringen,37,37339
Thüringen,37,37345
Thüringen,37,37351
Thüringen,37,37355
Thüringen,37,37359
Thüringen,96,96515
Thüringen,96,96523
Thüringen,96,96524
Thüringen,96,96528
Thüringen,98,98527
Thüringen,98,98528
Thüringen,98,98529
Thüringen,98,98530
Thüringen,98,98544
Thüringen,98,98547
Thüringen,98,98553
Thüringen,98,98554
Thüringen,98,98559
Thüringen,98,98574
Thüringen,98,98587
Thüringen,98,98590
Thüringen,98,98593
Thüringen,98,98596
Thüringen,98,98597
Thüringen,98,98599
Thüringen,98,98617
Thüringen,98,98630
Thüringen,98,98631
Thüringen,98,98634
Thüringen,98,98639
Thüringen,98,98646
Thüringen,98,98660
Thüringen,98,98663
Thüringen,98,98666
Thüringen,98,98667
Thüringen,98,98669
Thüringen,98,98673
Thüringen,98,98678
Thüringen,98,98693
Thüringen,98,98701
Thüringen,98,98704
Thüringen,98,98708
Thüringen,98,98711
Thüringen,98,98714
Thüringen,98,98716
Thüringen,98,98724
Thüringen,98,98739
Thüringen,98,98743
Thüringen,98,98744
Thüringen,98,98746
Thüringen,98,98749
Thüringen,99,99084
Thüringen,99,99085
Thüringen,99,99086
Thüringen,99,99087
Thüringen,99,99089
Thüringen,99,99091
Thüringen,99,99092
Thüringen,99,99094
Thüringen,99,99096
Thüringen,99,99097
Thüringen,99,99098
Thüringen,99,99099
Thüringen,99,99100
Thüringen,99,99102
Thüringen,99,99130
Thüringen,99,99189
Thüringen,99,99192
Thüringen,99,99195
Thüringen,99,99198
Thüringen,99,99310
Thüringen,99,99326
Thüringen,99,99330
Thüringen,99,99334
Thüringen,99,99338
Thüringen,99,99423
Thüringen,99,99425
Thüringen,99,99427
Thüringen,99,99428
Thüringen,99,99438
Thüringen,99,99439
Thüringen,99,99441
Thüringen,99,99444
Thüringen,99,99448
Thüringen,99,99510
Thüringen,99,99518
Thüringen,99,99610
Thüringen,99,99625
Thüringen,99,99628
Thüringen,99,99631
Thüringen,99,99634
Thüringen,99,99636
Thüringen,99,99638
Thüringen,99,99706
Thüringen,99,99707
Thüringen,99,99713
Thüringen,99,99718
Thüringen,99,99734
Thüringen,99,99735
Thüringen,99,99752
Thüringen,99,99755
Thüringen,99,99759
Thüringen,99,99762
Thüringen,99,99765
Thüringen,99,99768
Thüringen,99,99817
Thüringen,99,99819
Thüringen,99,99820
Thüringen,99,99826
Thüringen,99,99830
Thüringen,99,99831
Thüringen,99,99834
Thüringen,99,99837
Thüringen,99,99842
Thüringen,99,99846
Thüringen,99,99848
Thüringen,99,99867
Thüringen,99,99869
Thüringen,99,99880
Thüringen,99,99885
Thüringen,99,99887
Thüringen,99,99891
Thüringen,99,99894
Thüringen,99,99897
Thüringen,99,99947
Thüringen,99,99955
Thüringen,99,99958
Thüringen,99,99974
Thüringen,99,99976
Thüringen,99,99986
Thüringen,99,99988
Thüringen,99,99991
Thüringen,99,99994
Thüringen,99,99996
Thüringen,99,99998
